{
"type": "FeatureCollection",
"name": "perimetro_urbano",
"xy_coordinate_resolution": 1e-006,
"features": [
{ "type": "Feature", "properties": { "id": 5, "codigo": "07", "nome": "VILA VARGAS", "lei": "4190", "ano": 2018 }, "geometry": { "type": "Polygon", "coordinates": [ [ [ -54.61966, -22.121291 ], [ -54.640889, -22.137915 ], [ -54.630715, -22.148994 ], [ -54.626647, -22.145691 ], [ -54.624372, -22.148216 ], [ -54.606816, -22.13395 ], [ -54.609923, -22.130475 ], [ -54.610794, -22.131166 ], [ -54.61966, -22.121291 ] ] ] } },
{ "type": "Feature", "properties": { "id": 6, "codigo": "05", "nome": "VILA SÃO PEDRO", "lei": "4190", "ano": 2018 }, "geometry": { "type": "Polygon", "coordinates": [ [ [ -54.659419, -22.172894 ], [ -54.661244, -22.170854 ], [ -54.661646, -22.171158 ], [ -54.664787, -22.167552 ], [ -54.693339, -22.18913 ], [ -54.689955, -22.192952 ], [ -54.69143, -22.194233 ], [ -54.688305, -22.19773 ], [ -54.658002, -22.174437 ], [ -54.659419, -22.172894 ] ] ] } },
{ "type": "Feature", "properties": { "id": 7, "codigo": "03", "nome": "PICADINHA", "lei": "4190", "ano": 2018 }, "geometry": { "type": "Polygon", "coordinates": [ [ [ -54.994758, -22.167126 ], [ -54.962734, -22.174199 ], [ -54.962416, -22.170938 ], [ -54.965933, -22.168292 ], [ -54.96828, -22.164753 ], [ -54.971025, -22.162563 ], [ -54.975629, -22.160587 ], [ -54.99234, -22.163434 ], [ -54.994758, -22.167126 ] ] ] } },
{ "type": "Feature", "properties": { "id": 8, "codigo": "04", "nome": "PANAMBI", "lei": "4190", "ano": 2018 }, "geometry": { "type": "Polygon", "coordinates": [ [ [ -54.698327, -22.11352 ], [ -54.697977, -22.117905 ], [ -54.690746, -22.117386 ], [ -54.691099, -22.112967 ], [ -54.698327, -22.11352 ] ] ] } },
{ "type": "Feature", "properties": { "id": 9, "codigo": "02", "nome": "ITAHUM", "lei": "4190", "ano": 2018 }, "geometry": { "type": "Polygon", "coordinates": [ [ [ -55.364663, -22.084335 ], [ -55.351944, -22.098355 ], [ -55.346469, -22.095365 ], [ -55.344103, -22.095725 ], [ -55.340493, -22.08706 ], [ -55.351751, -22.074599 ], [ -55.364663, -22.084335 ] ] ] } },
{ "type": "Feature", "properties": { "id": 10, "codigo": "06", "nome": "INDÁPOLIS", "lei": "4190", "ano": 2018 }, "geometry": { "type": "Polygon", "coordinates": [ [ [ -54.664048, -22.211573 ], [ -54.657648, -22.218692 ], [ -54.656897, -22.218131 ], [ -54.650733, -22.225003 ], [ -54.639451, -22.216228 ], [ -54.645595, -22.20938 ], [ -54.640382, -22.205324 ], [ -54.647528, -22.197358 ], [ -54.664048, -22.211573 ] ] ] } },
{ "type": "Feature", "properties": { "id": 2, "codigo": "00", "nome": "SEDE", "lei": "3929", "ano": 2015 }, "geometry": { "type": "Polygon", "coordinates": [ [ [ -54.792633, -22.303383 ], [ -54.796224, -22.294284 ], [ -54.799465, -22.277251 ], [ -54.779114, -22.27787 ], [ -54.779182, -22.277334 ], [ -54.764826, -22.276643 ], [ -54.762858, -22.284541 ], [ -54.756467, -22.283738 ], [ -54.750331, -22.285342 ], [ -54.748614, -22.276943 ], [ -54.749325, -22.272481 ], [ -54.740145, -22.271557 ], [ -54.741782, -22.266355 ], [ -54.741497, -22.263152 ], [ -54.742737, -22.25732 ], [ -54.741317, -22.257005 ], [ -54.734701, -22.256754 ], [ -54.727842, -22.247467 ], [ -54.730872, -22.233684 ], [ -54.727691, -22.23368 ], [ -54.723663, -22.22978 ], [ -54.716691, -22.226636 ], [ -54.710331, -22.224125 ], [ -54.684174, -22.203622 ], [ -54.689229, -22.197914 ], [ -54.687332, -22.195148 ], [ -54.689199, -22.193043 ], [ -54.689035, -22.191786 ], [ -54.690215, -22.187225 ], [ -54.693314, -22.189574 ], [ -54.696653, -22.186278 ], [ -54.702722, -22.185994 ], [ -54.752649, -22.187954 ], [ -54.755715, -22.188567 ], [ -54.763318, -22.191767 ], [ -54.76492, -22.192809 ], [ -54.767169, -22.194896 ], [ -54.77002, -22.195798 ], [ -54.770611, -22.194152 ], [ -54.778558, -22.195205 ], [ -54.78188, -22.197105 ], [ -54.787527, -22.194052 ], [ -54.793361, -22.193469 ], [ -54.801722, -22.197156 ], [ -54.805902, -22.196438 ], [ -54.807633, -22.194524 ], [ -54.809119, -22.19378 ], [ -54.810572, -22.193807 ], [ -54.813775, -22.191221 ], [ -54.81741, -22.191175 ], [ -54.819004, -22.189994 ], [ -54.820511, -22.187224 ], [ -54.825013, -22.187059 ], [ -54.833205, -22.176955 ], [ -54.838296, -22.177547 ], [ -54.848053, -22.198524 ], [ -54.848594, -22.200331 ], [ -54.851068, -22.201599 ], [ -54.851396, -22.195693 ], [ -54.857103, -22.192288 ], [ -54.863192, -22.17668 ], [ -54.870077, -22.174446 ], [ -54.870723, -22.196219 ], [ -54.924724, -22.188491 ], [ -54.925578, -22.19165 ], [ -54.925448, -22.192695 ], [ -54.941025, -22.195674 ], [ -54.941842, -22.200199 ], [ -54.935912, -22.201044 ], [ -54.975562, -22.249372 ], [ -54.971528, -22.252241 ], [ -54.948296, -22.236554 ], [ -54.908748, -22.250235 ], [ -54.862981, -22.258907 ], [ -54.866795, -22.263683 ], [ -54.867151, -22.266883 ], [ -54.85794, -22.276079 ], [ -54.840523, -22.272325 ], [ -54.840463, -22.287115 ], [ -54.837815, -22.294414 ], [ -54.835969, -22.29781 ], [ -54.835632, -22.302798 ], [ -54.825375, -22.297166 ], [ -54.824992, -22.300711 ], [ -54.808039, -22.301805 ], [ -54.807804, -22.298637 ], [ -54.806223, -22.298914 ], [ -54.804501, -22.30227 ], [ -54.792633, -22.303383 ] ] ] } },
{ "type": "Feature", "properties": { "id": 4, "codigo": "08", "nome": "VILA FORMOSA", "lei": "4190", "ano": 2018 }, "geometry": { "type": "Polygon", "coordinates": [ [ [ -54.504704, -22.090167 ], [ -54.504557, -22.0904 ], [ -54.500956, -22.088378 ], [ -54.504747, -22.08239 ], [ -54.505382, -22.082747 ], [ -54.506347, -22.081254 ], [ -54.51187, -22.084291 ], [ -54.508897, -22.088987 ], [ -54.506342, -22.087581 ], [ -54.504704, -22.090167 ] ] ] } },
{ "type": "Feature", "properties": { "id": 3, "codigo": "09", "nome": "VILA MACAÚBA - GUASSÚ", "lei": "4190", "ano": 2018 }, "geometry": { "type": "Polygon", "coordinates": [ [ [ -54.482064, -22.136014 ], [ -54.484363, -22.136328 ], [ -54.484676, -22.134901 ], [ -54.486235, -22.135197 ], [ -54.486344, -22.134703 ], [ -54.493552, -22.136074 ], [ -54.492353, -22.141546 ], [ -54.490935, -22.143194 ], [ -54.483451, -22.14177 ], [ -54.484015, -22.139194 ], [ -54.481449, -22.137994 ], [ -54.482064, -22.136014 ] ] ] } }
]
}
