{
"type": "FeatureCollection",
"name": "lotes_fiscais",
"xy_coordinate_resolution": 1e-006,
"features": [
{ "type": "Feature", "properties": { "id": 130011, "insc_imob": "00.07.64.01.001", "quadra_cartorio": "-", "lote_cartorio": "ESTÂNCIA SANTO ANTÔNIO - PARTE 2", "matricula": "166725-1RI", "circunscricao": "1º CIRCUNSCRIÇÃO", "zoneamento": null, "condominio": null, "area_geom": 206961.55, "cnm": "062661.2.0166725-36" }, "geometry": { "type": "Polygon", "coordinates": [ [ [ -54.69828, -22.19893 ], [ -54.697091, -22.198014 ], [ -54.700161, -22.194559 ], [ -54.699425, -22.193973 ], [ -54.699617, -22.193756 ], [ -54.698788, -22.193109 ], [ -54.702377, -22.189015 ], [ -54.704411, -22.189094 ], [ -54.700908, -22.193002 ], [ -54.70137, -22.195497 ], [ -54.69828, -22.19893 ] ] ] } },
{ "type": "Feature", "properties": { "id": 94289, "insc_imob": "00.07.28.01.200", "quadra_cartorio": null, "lote_cartorio": "EST. 5 AMIGOS P/01", "matricula": "157555", "circunscricao": "1º CIRCUNSCRIÇÃO", "zoneamento": "AES I - ÁREA ESPECIAL DE SERVIÇO I", "condominio": null, "area_geom": 1410231.76, "cnm": "062661.2.0157555-95" }, "geometry": { "type": "Polygon", "coordinates": [ [ [ -54.703623, -22.20386 ], [ -54.710453, -22.209115 ], [ -54.703419, -22.217021 ], [ -54.703387, -22.217057 ], [ -54.70306, -22.216804 ], [ -54.70305, -22.216639 ], [ -54.702948, -22.216489 ], [ -54.702501, -22.216256 ], [ -54.702473, -22.216124 ], [ -54.702344, -22.21598 ], [ -54.702347, -22.215691 ], [ -54.702479, -22.21549 ], [ -54.702388, -22.215328 ], [ -54.702276, -22.215176 ], [ -54.702256, -22.214996 ], [ -54.702184, -22.214759 ], [ -54.702111, -22.214599 ], [ -54.702255, -22.214454 ], [ -54.702127, -22.214412 ], [ -54.702166, -22.214258 ], [ -54.702091, -22.214046 ], [ -54.702197, -22.214005 ], [ -54.702241, -22.213831 ], [ -54.702235, -22.213588 ], [ -54.702341, -22.213443 ], [ -54.702314, -22.213248 ], [ -54.702401, -22.213259 ], [ -54.702419, -22.213147 ], [ -54.702416, -22.212987 ], [ -54.702286, -22.212763 ], [ -54.702321, -22.212625 ], [ -54.702305, -22.212471 ], [ -54.702152, -22.212492 ], [ -54.702149, -22.212356 ], [ -54.702104, -22.212406 ], [ -54.699244, -22.215578 ], [ -54.698558, -22.215058 ], [ -54.695632, -22.218637 ], [ -54.693058, -22.216635 ], [ -54.695978, -22.213057 ], [ -54.694376, -22.211814 ], [ -54.700682, -22.204759 ], [ -54.701952, -22.205737 ], [ -54.703623, -22.20386 ] ] ] } },
{ "type": "Feature", "properties": { "id": 94290, "insc_imob": "00.07.28.01.010", "quadra_cartorio": null, "lote_cartorio": "EST. 5 AMIGOS P/02", "matricula": "157556", "circunscricao": "1º CIRCUNSCRIÇÃO", "zoneamento": "ZEII - ZONA ESPECIAL DE INTERESSE INDUSTRIAL", "condominio": null, "area_geom": 45922.17, "cnm": "062661.2.0157556-92" }, "geometry": { "type": "Polygon", "coordinates": [ [ [ -54.702352, -22.202882 ], [ -54.703623, -22.20386 ], [ -54.701952, -22.205737 ], [ -54.700682, -22.204759 ], [ -54.702352, -22.202882 ] ] ] } },
{ "type": "Feature", "properties": { "id": 108860, "insc_imob": "00.07.74.30.010", "quadra_cartorio": "07", "lote_cartorio": "08", "matricula": "167211", "circunscricao": "1º CIRCUNSCRIÇÃO", "zoneamento": null, "condominio": null, "area_geom": 107099.65, "cnm": "062661.2.0167211-33" }, "geometry": { "type": "Polygon", "coordinates": [ [ [ -54.707525, -22.183473 ], [ -54.707542, -22.188859 ], [ -54.705795, -22.188742 ], [ -54.705786, -22.18337 ], [ -54.707525, -22.183473 ] ] ] } },
{ "type": "Feature", "properties": { "id": 111663, "insc_imob": "00.07.25.55.010", "quadra_cartorio": null, "lote_cartorio": "12", "matricula": "126093", "circunscricao": "1º CIRCUNSCRIÇÃO", "zoneamento": "ZEII - ZONA ESPECIAL DE INTERESSE INDUSTRIAL", "condominio": null, "area_geom": 963.58, "cnm": "062661.2.0126093-03" }, "geometry": { "type": "Polygon", "coordinates": [ [ [ -54.71208, -22.209536 ], [ -54.712399, -22.20933 ], [ -54.712585, -22.209475 ], [ -54.712267, -22.20968 ], [ -54.71208, -22.209536 ] ] ] } },
{ "type": "Feature", "properties": { "id": 70113, "insc_imob": "00.07.52.01.010", "quadra_cartorio": null, "lote_cartorio": "4B", "matricula": "77213", "circunscricao": "1º CIRCUNSCRIÇÃO", "zoneamento": "ZEII - ZONA ESPECIAL DE INTERESSE INDUSTRIAL", "condominio": null, "area_geom": 46690.47, "cnm": "062661.2.0077213-76" }, "geometry": { "type": "Polygon", "coordinates": [ [ [ -54.689428, -22.198365 ], [ -54.689326, -22.19828 ], [ -54.689222, -22.198151 ], [ -54.688792, -22.197745 ], [ -54.688715, -22.197708 ], [ -54.688676, -22.197636 ], [ -54.688563, -22.19753 ], [ -54.688523, -22.197384 ], [ -54.688448, -22.197278 ], [ -54.688372, -22.197066 ], [ -54.688371, -22.196991 ], [ -54.688295, -22.196884 ], [ -54.688272, -22.196779 ], [ -54.688266, -22.196705 ], [ -54.688219, -22.196597 ], [ -54.688181, -22.196454 ], [ -54.688045, -22.19629 ], [ -54.687622, -22.195945 ], [ -54.687498, -22.195729 ], [ -54.687349, -22.195369 ], [ -54.687279, -22.195199 ], [ -54.687233, -22.194968 ], [ -54.687942, -22.194178 ], [ -54.688564, -22.195636 ], [ -54.689272, -22.196694 ], [ -54.690245, -22.197445 ], [ -54.689428, -22.198365 ] ] ] } },
{ "type": "Feature", "properties": { "id": 76032, "insc_imob": "00.07.25.01.010", "quadra_cartorio": null, "lote_cartorio": "GLEBA 02", "matricula": "144897", "circunscricao": "1º CIRCUNSCRIÇÃO", "zoneamento": "AES I - ÁREA ESPECIAL DE SERVIÇO I", "condominio": null, "area_geom": 47672.25, "cnm": "062661.2.0144897-45" }, "geometry": { "type": "Polygon", "coordinates": [ [ [ -54.712229, -22.210469 ], [ -54.704188, -22.219507 ], [ -54.703914, -22.219296 ], [ -54.711955, -22.210257 ], [ -54.712229, -22.210469 ] ] ] } },
{ "type": "Feature", "properties": { "id": 122293, "insc_imob": "00.07.53.96.020", "quadra_cartorio": "06", "lote_cartorio": "07", "matricula": "9371", "circunscricao": "1º circunscrição", "zoneamento": "ZEII - ZONA ESPECIAL DE INTERESSE INDUSTRIAL", "condominio": null, "area_geom": 24200.71, "cnm": "062661.2.0009371-96" }, "geometry": { "type": "Polygon", "coordinates": [ [ [ -54.694459, -22.196644 ], [ -54.693778, -22.19612 ], [ -54.695419, -22.194272 ], [ -54.6961, -22.194796 ], [ -54.694459, -22.196644 ] ] ] } },
{ "type": "Feature", "properties": { "id": 111664, "insc_imob": "00.07.53.96.010", "quadra_cartorio": null, "lote_cartorio": "QUINHAO 06", "matricula": "110788", "circunscricao": "1º CIRCUNSCRIÇÃO", "zoneamento": "ZEII - ZONA ESPECIAL DE INTERESSE INDUSTRIAL", "condominio": null, "area_geom": 21219.14, "cnm": "062661.2.0110788-37" }, "geometry": { "type": "Polygon", "coordinates": [ [ [ -54.694809, -22.196265 ], [ -54.69501, -22.196037 ], [ -54.696241, -22.194637 ], [ -54.696341, -22.194714 ], [ -54.696924, -22.195158 ], [ -54.69569, -22.196562 ], [ -54.695492, -22.196786 ], [ -54.694809, -22.196265 ] ] ] } },
{ "type": "Feature", "properties": { "id": 70195, "insc_imob": "00.07.52.01.200", "quadra_cartorio": null, "lote_cartorio": "1B", "matricula": "77210", "circunscricao": "1º CIRCUNSCRIÇÃO", "zoneamento": "ZEII - ZONA ESPECIAL DE INTERESSE INDUSTRIAL", "condominio": null, "area_geom": 43079.63, "cnm": "062661.2.0077210-85" }, "geometry": { "type": "Polygon", "coordinates": [ [ [ -54.691327, -22.194386 ], [ -54.692287, -22.195145 ], [ -54.690245, -22.197445 ], [ -54.689273, -22.196693 ], [ -54.691327, -22.194386 ] ] ] } },
{ "type": "Feature", "properties": { "id": 93987, "insc_imob": "00.07.52.01.500", "quadra_cartorio": null, "lote_cartorio": null, "matricula": null, "circunscricao": "1º CIRCUNSCRIÇÃO", "zoneamento": null, "condominio": null, "area_geom": 68337.39, "cnm": null }, "geometry": { "type": "Polygon", "coordinates": [ [ [ -54.688759, -22.192492 ], [ -54.688793, -22.192452 ], [ -54.689206, -22.192768 ], [ -54.687846, -22.194286 ], [ -54.687233, -22.194968 ], [ -54.687233, -22.194969 ], [ -54.686972, -22.195261 ], [ -54.686906, -22.195334 ], [ -54.685057, -22.197408 ], [ -54.684964, -22.197198 ], [ -54.684599, -22.197804 ], [ -54.684625, -22.197892 ], [ -54.684367, -22.198182 ], [ -54.684243, -22.198048 ], [ -54.684007, -22.198158 ], [ -54.684173, -22.1984 ], [ -54.682824, -22.199913 ], [ -54.681273, -22.201653 ], [ -54.680866, -22.201333 ], [ -54.682465, -22.19954 ], [ -54.684092, -22.197717 ], [ -54.685452, -22.196191 ], [ -54.686881, -22.194585 ], [ -54.686922, -22.194539 ], [ -54.686961, -22.194496 ], [ -54.6877, -22.193679 ], [ -54.688759, -22.192492 ] ] ] } },
{ "type": "Feature", "properties": { "id": 104534, "insc_imob": "00.07.53.98.010", "quadra_cartorio": null, "lote_cartorio": "P/08", "matricula": "30361", "circunscricao": "1º CIRCUNSCRIÇÃO", "zoneamento": "ZEII - ZONA ESPECIAL DE INTERESSE INDUSTRIAL", "condominio": null, "area_geom": 3737.64, "cnm": "062661.2.0030361-79" }, "geometry": { "type": "Polygon", "coordinates": [ [ [ -54.693121, -22.193892 ], [ -54.693492, -22.194179 ], [ -54.693031, -22.194702 ], [ -54.692657, -22.194414 ], [ -54.693121, -22.193892 ] ] ] } },
{ "type": "Feature", "properties": { "id": 122294, "insc_imob": "00.07.53.97.010", "quadra_cartorio": "06", "lote_cartorio": "08", "matricula": "30360", "circunscricao": "1º CIRCUNSCRIÇÃO", "zoneamento": "ZEII - ZONA ESPECIAL DE INTERESSE INDUSTRIAL", "condominio": null, "area_geom": 7495.52, "cnm": "062661.2.0030360-82" }, "geometry": { "type": "Polygon", "coordinates": [ [ [ -54.694068, -22.195793 ], [ -54.693508, -22.195362 ], [ -54.694126, -22.194666 ], [ -54.694686, -22.195097 ], [ -54.694068, -22.195793 ] ] ] } },
{ "type": "Feature", "properties": { "id": 79391, "insc_imob": "00.07.42.01.000.1", "quadra_cartorio": null, "lote_cartorio": null, "matricula": "35966", "circunscricao": "1º CIRCUNSCRIÇÃO", "zoneamento": "AES I - ÁREA ESPECIAL DE SERVIÇO I", "condominio": null, "area_geom": 282501.4, "cnm": "062661.2.0035966-45" }, "geometry": { "type": "Polygon", "coordinates": [ [ [ -54.694208, -22.196609 ], [ -54.695839, -22.197871 ], [ -54.687892, -22.206783 ], [ -54.686214, -22.20548 ], [ -54.691074, -22.200134 ], [ -54.691158, -22.200043 ], [ -54.694208, -22.196609 ] ] ] } },
{ "type": "Feature", "properties": { "id": 127489, "insc_imob": "00.07.53.98.090", "quadra_cartorio": "06", "lote_cartorio": "8E", "matricula": "167916", "circunscricao": "1º CIRCUNSCRIÇÃO", "zoneamento": "ZEII - ZONA ESPECIAL DE INTERESSE INDUSTRIAL", "condominio": null, "area_geom": 5402.54, "cnm": "062661.2.0167916-52" }, "geometry": { "type": "Polygon", "coordinates": [ [ [ -54.693392, -22.194101 ], [ -54.693121, -22.193892 ], [ -54.693113, -22.193887 ], [ -54.694506, -22.192318 ], [ -54.694543, -22.192346 ], [ -54.694347, -22.192665 ], [ -54.694228, -22.192865 ], [ -54.693992, -22.193264 ], [ -54.693782, -22.193593 ], [ -54.693628, -22.193808 ], [ -54.693393, -22.1941 ], [ -54.693392, -22.194101 ] ] ] } },
{ "type": "Feature", "properties": { "id": 3872, "insc_imob": "00.07.53.97.141", "quadra_cartorio": "06", "lote_cartorio": "8D", "matricula": "167915", "circunscricao": "1º CIRCUNSCRIÇÃO", "zoneamento": "ZEII - ZONA ESPECIAL DE INTERESSE INDUSTRIAL", "condominio": null, "area_geom": 32951.95, "cnm": "062661.2.0167915-55" }, "geometry": { "type": "Polygon", "coordinates": [ [ [ -54.694842, -22.192576 ], [ -54.696079, -22.193529 ], [ -54.695419, -22.194272 ], [ -54.694686, -22.195097 ], [ -54.694126, -22.194666 ], [ -54.693692, -22.194331 ], [ -54.693944, -22.194016 ], [ -54.69411, -22.193786 ], [ -54.694329, -22.193443 ], [ -54.694568, -22.193039 ], [ -54.694842, -22.192576 ], [ -54.694842, -22.192576 ] ] ] } },
{ "type": "Feature", "properties": { "id": 127488, "insc_imob": "00.07.53.97.142", "quadra_cartorio": "06", "lote_cartorio": "P/08", "matricula": "167760", "circunscricao": "1º CIRCUNSCRIÇÃO", "zoneamento": "ZEII - ZONA ESPECIAL DE INTERESSE INDUSTRIAL", "condominio": null, "area_geom": 9109.2, "cnm": "062661.2.0167760-35" }, "geometry": { "type": "Polygon", "coordinates": [ [ [ -54.694543, -22.192346 ], [ -54.694842, -22.192576 ], [ -54.694842, -22.192576 ], [ -54.694568, -22.193039 ], [ -54.694329, -22.193443 ], [ -54.69411, -22.193786 ], [ -54.693944, -22.194016 ], [ -54.693692, -22.194331 ], [ -54.693494, -22.19418 ], [ -54.693392, -22.194101 ], [ -54.693393, -22.1941 ], [ -54.693628, -22.193808 ], [ -54.693782, -22.193593 ], [ -54.693992, -22.193264 ], [ -54.694228, -22.192865 ], [ -54.694347, -22.192665 ], [ -54.694543, -22.192346 ] ] ] } },
{ "type": "Feature", "properties": { "id": 127491, "insc_imob": "00.07.53.97.071", "quadra_cartorio": "06", "lote_cartorio": "08C", "matricula": "167917", "circunscricao": "1º CIRCUNSCRIÇÃO", "zoneamento": "ZEII - ZONA ESPECIAL DE INTERESSE INDUSTRIAL", "condominio": null, "area_geom": 4902.99, "cnm": "062661.2.0167917-49" }, "geometry": { "type": "Polygon", "coordinates": [ [ [ -54.693692, -22.194331 ], [ -54.693842, -22.194447 ], [ -54.694126, -22.194666 ], [ -54.693679, -22.19517 ], [ -54.693555, -22.195309 ], [ -54.693555, -22.195309 ], [ -54.693397, -22.195188 ], [ -54.693344, -22.195125 ], [ -54.693311, -22.195047 ], [ -54.693298, -22.194967 ], [ -54.693302, -22.194898 ], [ -54.69333, -22.194788 ], [ -54.693374, -22.194707 ], [ -54.693692, -22.194331 ] ] ] } },
{ "type": "Feature", "properties": { "id": 76070, "insc_imob": "00.07.62.07.010", "quadra_cartorio": "07", "lote_cartorio": "15", "matricula": "8374", "circunscricao": "1º CIRCUNSCRIÇÃO", "zoneamento": "ZEII - ZONA ESPECIAL DE INTERESSE INDUSTRIAL", "condominio": null, "area_geom": 235887.87, "cnm": "062661.2.0008374-80" }, "geometry": { "type": "Polygon", "coordinates": [ [ [ -54.690165, -22.187039 ], [ -54.694721, -22.190539 ], [ -54.691767, -22.1939 ], [ -54.689201, -22.191937 ], [ -54.689032, -22.191551 ], [ -54.690165, -22.187039 ] ] ] } },
{ "type": "Feature", "properties": { "id": 96963, "insc_imob": "00.07.74.20.010", "quadra_cartorio": "07", "lote_cartorio": "10", "matricula": "2014", "circunscricao": "1º CIRCUNSCRIÇÃO", "zoneamento": null, "condominio": null, "area_geom": 227452.52, "cnm": "062661.2.0002014-51" }, "geometry": { "type": "Polygon", "coordinates": [ [ [ -54.702295, -22.188605 ], [ -54.702229, -22.175465 ], [ -54.702961, -22.175571 ], [ -54.703474, -22.175773 ], [ -54.703759, -22.176064 ], [ -54.703835, -22.188665 ], [ -54.702295, -22.188605 ] ] ] } },
{ "type": "Feature", "properties": { "id": 76029, "insc_imob": "00.07.25.01.020", "quadra_cartorio": null, "lote_cartorio": "GLEBA 02", "matricula": "144898", "circunscricao": "1º CIRCUNSCRIÇÃO", "zoneamento": "AES I - ÁREA ESPECIAL DE SERVIÇO I", "condominio": null, "area_geom": 190714.33, "cnm": "062661.2.0144898-42" }, "geometry": { "type": "Polygon", "coordinates": [ [ [ -54.711955, -22.210257 ], [ -54.703914, -22.219296 ], [ -54.702546, -22.21824 ], [ -54.707892, -22.21223 ], [ -54.708708, -22.21286 ], [ -54.711403, -22.209831 ], [ -54.711955, -22.210257 ] ] ] } },
{ "type": "Feature", "properties": { "id": 76030, "insc_imob": "00.07.25.01.031", "quadra_cartorio": null, "lote_cartorio": "GLEBA 03 - REMANESCENTE", "matricula": "146072", "circunscricao": "1º CIRCUNSCRIÇÃO", "zoneamento": "ZEII - ZONA ESPECIAL DE INTERESSE INDUSTRIAL", "condominio": null, "area_geom": 44412.96, "cnm": "062661.2.0146072-12" }, "geometry": { "type": "Polygon", "coordinates": [ [ [ -54.710587, -22.209202 ], [ -54.711403, -22.209831 ], [ -54.708889, -22.212656 ], [ -54.708073, -22.212027 ], [ -54.710587, -22.209202 ] ] ] } },
{ "type": "Feature", "properties": { "id": 76031, "insc_imob": "00.07.25.01.032", "quadra_cartorio": null, "lote_cartorio": "GLEBA 04", "matricula": "146073", "circunscricao": "1º CIRCUNSCRIÇÃO", "zoneamento": "AES I - ÁREA ESPECIAL DE SERVIÇO I", "condominio": null, "area_geom": 3199.21, "cnm": "062661.2.0146073-09" }, "geometry": { "type": "Polygon", "coordinates": [ [ [ -54.708889, -22.212656 ], [ -54.708708, -22.21286 ], [ -54.707892, -22.21223 ], [ -54.708073, -22.212027 ], [ -54.708889, -22.212656 ] ] ] } },
{ "type": "Feature", "properties": { "id": 81269, "insc_imob": "00.07.44.06.070", "quadra_cartorio": null, "lote_cartorio": null, "matricula": "120658", "circunscricao": "1º CIRCUNSCRIÇÃO", "zoneamento": "ZEII - ZONA ESPECIAL DE INTERESSE INDUSTRIAL", "condominio": null, "area_geom": 49771.01, "cnm": "062661.2.0120658-12" }, "geometry": { "type": "Polygon", "coordinates": [ [ [ -54.699425, -22.193973 ], [ -54.700162, -22.194561 ], [ -54.697091, -22.198014 ], [ -54.696344, -22.197439 ], [ -54.699425, -22.193973 ] ] ] } },
{ "type": "Feature", "properties": { "id": 82749, "insc_imob": "00.07.52.01.300", "quadra_cartorio": null, "lote_cartorio": "2B", "matricula": "77211", "circunscricao": "1º CIRCUNSCRIÇÃO", "zoneamento": "ZEII - ZONA ESPECIAL DE INTERESSE INDUSTRIAL", "condominio": null, "area_geom": 40409.76, "cnm": "062661.2.0077211-82" }, "geometry": { "type": "Polygon", "coordinates": [ [ [ -54.689273, -22.196693 ], [ -54.688564, -22.195636 ], [ -54.690346, -22.193647 ], [ -54.691327, -22.194386 ], [ -54.689273, -22.196693 ] ] ] } },
{ "type": "Feature", "properties": { "id": 83100, "insc_imob": "00.07.52.01.400", "quadra_cartorio": null, "lote_cartorio": "03B - SITIO SEMENSUL", "matricula": "159831", "circunscricao": "1º CIRCUNSCRIÇÃO", "zoneamento": "ZEII - ZONA ESPECIAL DE INTERESSE INDUSTRIAL", "condominio": null, "area_geom": 37430.23, "cnm": "062661.2.0159831-57" }, "geometry": { "type": "Polygon", "coordinates": [ [ [ -54.689206, -22.192768 ], [ -54.690346, -22.193647 ], [ -54.688564, -22.195636 ], [ -54.687942, -22.194178 ], [ -54.689206, -22.192768 ] ] ] } }
]
}
