{
"type": "FeatureCollection",
"name": "lotes_fiscais",
"xy_coordinate_resolution": 1e-006,
"features": [
{ "type": "Feature", "properties": { "id": 125118, "insc_imob": "00.18.01.03.110", "quadra_cartorio": "03", "lote_cartorio": "11", "matricula": "137044", "circunscricao": null, "zoneamento": null, "condominio": null, "area_geom": 560.0, "cnm": "062661.2.0137044-33" }, "geometry": { "type": "Polygon", "coordinates": [ [ [ -55.047622, -22.301214 ], [ -55.047744, -22.30127 ], [ -55.047574, -22.301594 ], [ -55.047452, -22.301539 ], [ -55.047622, -22.301214 ] ] ] } },
{ "type": "Feature", "properties": { "id": 125119, "insc_imob": "00.18.01.03.120", "quadra_cartorio": "03", "lote_cartorio": "12", "matricula": "137045", "circunscricao": null, "zoneamento": null, "condominio": null, "area_geom": 560.0, "cnm": "062661.2.0137045-30" }, "geometry": { "type": "Polygon", "coordinates": [ [ [ -55.047744, -22.30127 ], [ -55.047866, -22.301325 ], [ -55.047696, -22.30165 ], [ -55.047574, -22.301594 ], [ -55.047744, -22.30127 ] ] ] } },
{ "type": "Feature", "properties": { "id": 125121, "insc_imob": "00.18.01.03.140", "quadra_cartorio": "03", "lote_cartorio": "14", "matricula": "137047", "circunscricao": null, "zoneamento": null, "condominio": null, "area_geom": 560.0, "cnm": "062661.2.0137047-24" }, "geometry": { "type": "Polygon", "coordinates": [ [ [ -55.047988, -22.30138 ], [ -55.04811, -22.301435 ], [ -55.047941, -22.30176 ], [ -55.047819, -22.301705 ], [ -55.047988, -22.30138 ] ] ] } },
{ "type": "Feature", "properties": { "id": 125074, "insc_imob": "00.18.01.11.020", "quadra_cartorio": "11", "lote_cartorio": "02", "matricula": "137125", "circunscricao": null, "zoneamento": null, "condominio": null, "area_geom": 564.19, "cnm": "062661.2.0137125-81" }, "geometry": { "type": "Polygon", "coordinates": [ [ [ -55.045782, -22.300935 ], [ -55.045612, -22.301262 ], [ -55.045489, -22.301207 ], [ -55.04566, -22.30088 ], [ -55.045782, -22.300935 ] ] ] } },
{ "type": "Feature", "properties": { "id": 125075, "insc_imob": "00.18.01.11.030", "quadra_cartorio": "11", "lote_cartorio": "03", "matricula": "137126", "circunscricao": null, "zoneamento": null, "condominio": null, "area_geom": 563.97, "cnm": "062661.2.0137126-78" }, "geometry": { "type": "Polygon", "coordinates": [ [ [ -55.045538, -22.300824 ], [ -55.04566, -22.30088 ], [ -55.045489, -22.301207 ], [ -55.045367, -22.301152 ], [ -55.045538, -22.300824 ] ] ] } },
{ "type": "Feature", "properties": { "id": 125076, "insc_imob": "00.18.01.02.040", "quadra_cartorio": "02", "lote_cartorio": "04", "matricula": "137031", "circunscricao": null, "zoneamento": null, "condominio": null, "area_geom": 560.0, "cnm": "062661.2.0137031-72" }, "geometry": { "type": "Polygon", "coordinates": [ [ [ -55.047649, -22.300273 ], [ -55.047771, -22.300328 ], [ -55.047602, -22.300653 ], [ -55.04748, -22.300598 ], [ -55.047649, -22.300273 ] ] ] } },
{ "type": "Feature", "properties": { "id": 125077, "insc_imob": "00.18.01.01.120", "quadra_cartorio": "01", "lote_cartorio": "12", "matricula": "137025", "circunscricao": null, "zoneamento": null, "condominio": null, "area_geom": 588.0, "cnm": "062661.2.0137025-90" }, "geometry": { "type": "Polygon", "coordinates": [ [ [ -55.048033, -22.300427 ], [ -55.048155, -22.300482 ], [ -55.047977, -22.300823 ], [ -55.047855, -22.300768 ], [ -55.048033, -22.300427 ] ] ] } },
{ "type": "Feature", "properties": { "id": 125078, "insc_imob": "00.18.01.04.160", "quadra_cartorio": "04", "lote_cartorio": "16", "matricula": "137064", "circunscricao": null, "zoneamento": null, "condominio": null, "area_geom": 560.0, "cnm": "062661.2.0137064-70" }, "geometry": { "type": "Polygon", "coordinates": [ [ [ -55.04688, -22.300879 ], [ -55.047002, -22.300934 ], [ -55.046832, -22.301259 ], [ -55.04671, -22.301204 ], [ -55.04688, -22.300879 ] ] ] } },
{ "type": "Feature", "properties": { "id": 125079, "insc_imob": "00.18.01.04.170", "quadra_cartorio": "04", "lote_cartorio": "17", "matricula": "137065", "circunscricao": null, "zoneamento": null, "condominio": null, "area_geom": 560.0, "cnm": "062661.2.0137065-67" }, "geometry": { "type": "Polygon", "coordinates": [ [ [ -55.047002, -22.300934 ], [ -55.047124, -22.300989 ], [ -55.046955, -22.301314 ], [ -55.046832, -22.301259 ], [ -55.047002, -22.300934 ] ] ] } },
{ "type": "Feature", "properties": { "id": 125080, "insc_imob": "00.18.01.04.180", "quadra_cartorio": "04", "lote_cartorio": "18", "matricula": "137066", "circunscricao": null, "zoneamento": null, "condominio": null, "area_geom": 560.0, "cnm": "062661.2.0137066-64" }, "geometry": { "type": "Polygon", "coordinates": [ [ [ -55.047124, -22.300989 ], [ -55.047246, -22.301045 ], [ -55.047077, -22.30137 ], [ -55.046955, -22.301314 ], [ -55.047124, -22.300989 ] ] ] } },
{ "type": "Feature", "properties": { "id": 125081, "insc_imob": "00.18.01.07.030", "quadra_cartorio": "07", "lote_cartorio": "03", "matricula": "137088", "circunscricao": null, "zoneamento": null, "condominio": null, "area_geom": 469.32, "cnm": "062661.2.0137088-95" }, "geometry": { "type": "Polygon", "coordinates": [ [ [ -55.050976, -22.302853 ], [ -55.051065, -22.303112 ], [ -55.050912, -22.303142 ], [ -55.050828, -22.302897 ], [ -55.050976, -22.302853 ] ] ] } },
{ "type": "Feature", "properties": { "id": 125082, "insc_imob": "00.18.01.06.040", "quadra_cartorio": "06", "lote_cartorio": "04", "matricula": "137080", "circunscricao": null, "zoneamento": null, "condominio": null, "area_geom": 593.59, "cnm": "062661.2.0137080-22" }, "geometry": { "type": "Polygon", "coordinates": [ [ [ -55.052177, -22.302495 ], [ -55.052305, -22.302866 ], [ -55.052171, -22.302892 ], [ -55.052048, -22.302533 ], [ -55.052177, -22.302495 ] ] ] } },
{ "type": "Feature", "properties": { "id": 125153, "insc_imob": "00.18.01.08.060", "quadra_cartorio": "08", "lote_cartorio": "06", "matricula": "137099", "circunscricao": null, "zoneamento": null, "condominio": null, "area_geom": 570.29, "cnm": "062661.2.0137099-62" }, "geometry": { "type": "Polygon", "coordinates": [ [ [ -55.04923, -22.302494 ], [ -55.049352, -22.302549 ], [ -55.049179, -22.30288 ], [ -55.049057, -22.302824 ], [ -55.04923, -22.302494 ] ] ] } },
{ "type": "Feature", "properties": { "id": 125154, "insc_imob": "00.18.01.08.070", "quadra_cartorio": "08", "lote_cartorio": "07", "matricula": "137100", "circunscricao": null, "zoneamento": null, "condominio": null, "area_geom": 570.1, "cnm": "062661.2.0137100-59" }, "geometry": { "type": "Polygon", "coordinates": [ [ [ -55.049108, -22.302438 ], [ -55.04923, -22.302494 ], [ -55.049057, -22.302824 ], [ -55.048935, -22.302769 ], [ -55.049108, -22.302438 ] ] ] } },
{ "type": "Feature", "properties": { "id": 125155, "insc_imob": "00.18.01.08.080", "quadra_cartorio": "08", "lote_cartorio": "08", "matricula": "137101", "circunscricao": null, "zoneamento": null, "condominio": null, "area_geom": 569.91, "cnm": "062661.2.0137101-56" }, "geometry": { "type": "Polygon", "coordinates": [ [ [ -55.048986, -22.302383 ], [ -55.049108, -22.302438 ], [ -55.048935, -22.302769 ], [ -55.048813, -22.302714 ], [ -55.048986, -22.302383 ] ] ] } },
{ "type": "Feature", "properties": { "id": 125156, "insc_imob": "00.18.01.08.090", "quadra_cartorio": "08", "lote_cartorio": "09", "matricula": "137102", "circunscricao": null, "zoneamento": null, "condominio": null, "area_geom": 569.72, "cnm": "062661.2.0137102-53" }, "geometry": { "type": "Polygon", "coordinates": [ [ [ -55.048863, -22.302328 ], [ -55.048986, -22.302383 ], [ -55.048813, -22.302714 ], [ -55.048691, -22.302658 ], [ -55.048863, -22.302328 ] ] ] } },
{ "type": "Feature", "properties": { "id": 125157, "insc_imob": "00.18.01.09.010", "quadra_cartorio": "09", "lote_cartorio": "01", "matricula": "137104", "circunscricao": null, "zoneamento": null, "condominio": null, "area_geom": 569.1, "cnm": "062661.2.0137104-47" }, "geometry": { "type": "Polygon", "coordinates": [ [ [ -55.04861, -22.302214 ], [ -55.048438, -22.302544 ], [ -55.048316, -22.302488 ], [ -55.048488, -22.302158 ], [ -55.04861, -22.302214 ] ] ] } },
{ "type": "Feature", "properties": { "id": 125115, "insc_imob": "00.18.01.03.080", "quadra_cartorio": "03", "lote_cartorio": "08", "matricula": "137041", "circunscricao": null, "zoneamento": null, "condominio": null, "area_geom": 560.0, "cnm": "062661.2.0137041-42" }, "geometry": { "type": "Polygon", "coordinates": [ [ [ -55.048036, -22.301 ], [ -55.048158, -22.301055 ], [ -55.047988, -22.30138 ], [ -55.047866, -22.301325 ], [ -55.048036, -22.301 ] ] ] } },
{ "type": "Feature", "properties": { "id": 125158, "insc_imob": "00.18.01.09.020", "quadra_cartorio": "09", "lote_cartorio": "02", "matricula": "137105", "circunscricao": null, "zoneamento": null, "condominio": null, "area_geom": 568.89, "cnm": "062661.2.0137105-44" }, "geometry": { "type": "Polygon", "coordinates": [ [ [ -55.048366, -22.302103 ], [ -55.048488, -22.302158 ], [ -55.048316, -22.302488 ], [ -55.048194, -22.302433 ], [ -55.048366, -22.302103 ] ] ] } },
{ "type": "Feature", "properties": { "id": 125159, "insc_imob": "00.18.01.09.030", "quadra_cartorio": "09", "lote_cartorio": "03", "matricula": "137106", "circunscricao": null, "zoneamento": null, "condominio": null, "area_geom": 568.67, "cnm": "062661.2.0137106-41" }, "geometry": { "type": "Polygon", "coordinates": [ [ [ -55.048244, -22.302048 ], [ -55.048366, -22.302103 ], [ -55.048194, -22.302433 ], [ -55.048072, -22.302378 ], [ -55.048244, -22.302048 ] ] ] } },
{ "type": "Feature", "properties": { "id": 125116, "insc_imob": "00.18.01.03.090", "quadra_cartorio": "03", "lote_cartorio": "09", "matricula": "137042", "circunscricao": null, "zoneamento": null, "condominio": null, "area_geom": 560.0, "cnm": "062661.2.0137042-39" }, "geometry": { "type": "Polygon", "coordinates": [ [ [ -55.047914, -22.300945 ], [ -55.048036, -22.301 ], [ -55.047866, -22.301325 ], [ -55.047744, -22.30127 ], [ -55.047914, -22.300945 ] ] ] } },
{ "type": "Feature", "properties": { "id": 125117, "insc_imob": "00.18.01.03.100", "quadra_cartorio": "03", "lote_cartorio": "10", "matricula": "137043", "circunscricao": null, "zoneamento": null, "condominio": null, "area_geom": 560.0, "cnm": "062661.2.0137043-36" }, "geometry": { "type": "Polygon", "coordinates": [ [ [ -55.047791, -22.300889 ], [ -55.047914, -22.300945 ], [ -55.047744, -22.30127 ], [ -55.047622, -22.301214 ], [ -55.047791, -22.300889 ] ] ] } },
{ "type": "Feature", "properties": { "id": 125120, "insc_imob": "00.18.01.03.130", "quadra_cartorio": "03", "lote_cartorio": "13", "matricula": "137046", "circunscricao": null, "zoneamento": null, "condominio": null, "area_geom": 560.0, "cnm": "062661.2.0137046-27" }, "geometry": { "type": "Polygon", "coordinates": [ [ [ -55.047866, -22.301325 ], [ -55.047988, -22.30138 ], [ -55.047819, -22.301705 ], [ -55.047696, -22.30165 ], [ -55.047866, -22.301325 ] ] ] } },
{ "type": "Feature", "properties": { "id": 125160, "insc_imob": "00.18.01.09.040", "quadra_cartorio": "09", "lote_cartorio": "04", "matricula": "137107", "circunscricao": null, "zoneamento": null, "condominio": null, "area_geom": 568.46, "cnm": "062661.2.0137107-38" }, "geometry": { "type": "Polygon", "coordinates": [ [ [ -55.048122, -22.301993 ], [ -55.048244, -22.302048 ], [ -55.048072, -22.302378 ], [ -55.047949, -22.302322 ], [ -55.048122, -22.301993 ] ] ] } },
{ "type": "Feature", "properties": { "id": 125161, "insc_imob": "00.18.01.09.050", "quadra_cartorio": "09", "lote_cartorio": "05", "matricula": "137108", "circunscricao": null, "zoneamento": null, "condominio": null, "area_geom": 568.25, "cnm": "062661.2.0137108-35" }, "geometry": { "type": "Polygon", "coordinates": [ [ [ -55.047999, -22.301937 ], [ -55.048122, -22.301993 ], [ -55.047949, -22.302322 ], [ -55.047827, -22.302267 ], [ -55.047999, -22.301937 ] ] ] } },
{ "type": "Feature", "properties": { "id": 125162, "insc_imob": "00.18.01.09.060", "quadra_cartorio": "09", "lote_cartorio": "06", "matricula": "137109", "circunscricao": null, "zoneamento": null, "condominio": null, "area_geom": 568.04, "cnm": "062661.2.0137109-32" }, "geometry": { "type": "Polygon", "coordinates": [ [ [ -55.047877, -22.301882 ], [ -55.047999, -22.301937 ], [ -55.047827, -22.302267 ], [ -55.047705, -22.302212 ], [ -55.047877, -22.301882 ] ] ] } },
{ "type": "Feature", "properties": { "id": 125163, "insc_imob": "00.18.01.09.070", "quadra_cartorio": "09", "lote_cartorio": "07", "matricula": "137110", "circunscricao": null, "zoneamento": null, "condominio": null, "area_geom": 567.82, "cnm": "062661.2.0137110-29" }, "geometry": { "type": "Polygon", "coordinates": [ [ [ -55.047755, -22.301827 ], [ -55.047877, -22.301882 ], [ -55.047705, -22.302212 ], [ -55.047583, -22.302156 ], [ -55.047755, -22.301827 ] ] ] } },
{ "type": "Feature", "properties": { "id": 125164, "insc_imob": "00.18.01.09.080", "quadra_cartorio": "09", "lote_cartorio": "08", "matricula": "137111", "circunscricao": null, "zoneamento": null, "condominio": null, "area_geom": 567.61, "cnm": "062661.2.0137111-26" }, "geometry": { "type": "Polygon", "coordinates": [ [ [ -55.047633, -22.301772 ], [ -55.047755, -22.301827 ], [ -55.047583, -22.302156 ], [ -55.047461, -22.302101 ], [ -55.047633, -22.301772 ] ] ] } },
{ "type": "Feature", "properties": { "id": 125165, "insc_imob": "00.18.01.09.090", "quadra_cartorio": "09", "lote_cartorio": "09", "matricula": "137112", "circunscricao": null, "zoneamento": null, "condominio": null, "area_geom": 567.4, "cnm": "062661.2.0137112-23" }, "geometry": { "type": "Polygon", "coordinates": [ [ [ -55.047511, -22.301716 ], [ -55.047633, -22.301772 ], [ -55.047461, -22.302101 ], [ -55.047339, -22.302045 ], [ -55.047511, -22.301716 ] ] ] } },
{ "type": "Feature", "properties": { "id": 125166, "insc_imob": "00.18.01.09.100", "quadra_cartorio": "09", "lote_cartorio": "10", "matricula": "137113", "circunscricao": null, "zoneamento": null, "condominio": null, "area_geom": 567.19, "cnm": "062661.2.0137113-20" }, "geometry": { "type": "Polygon", "coordinates": [ [ [ -55.047388, -22.301661 ], [ -55.047511, -22.301716 ], [ -55.047339, -22.302045 ], [ -55.047217, -22.30199 ], [ -55.047388, -22.301661 ] ] ] } },
{ "type": "Feature", "properties": { "id": 125167, "insc_imob": "00.18.01.10.010", "quadra_cartorio": "10", "lote_cartorio": "01", "matricula": "137114", "circunscricao": null, "zoneamento": null, "condominio": null, "area_geom": 566.75, "cnm": "062661.2.0137114-17" }, "geometry": { "type": "Polygon", "coordinates": [ [ [ -55.047258, -22.301602 ], [ -55.047086, -22.301931 ], [ -55.046964, -22.301875 ], [ -55.047135, -22.301547 ], [ -55.047258, -22.301602 ] ] ] } },
{ "type": "Feature", "properties": { "id": 125168, "insc_imob": "00.18.01.10.020", "quadra_cartorio": "10", "lote_cartorio": "02", "matricula": "137115", "circunscricao": null, "zoneamento": null, "condominio": null, "area_geom": 566.54, "cnm": "062661.2.0137115-14" }, "geometry": { "type": "Polygon", "coordinates": [ [ [ -55.047135, -22.301547 ], [ -55.046964, -22.301875 ], [ -55.046842, -22.30182 ], [ -55.047013, -22.301491 ], [ -55.047135, -22.301547 ] ] ] } },
{ "type": "Feature", "properties": { "id": 125169, "insc_imob": "00.18.01.10.030", "quadra_cartorio": "10", "lote_cartorio": "03", "matricula": "137116", "circunscricao": null, "zoneamento": null, "condominio": null, "area_geom": 566.32, "cnm": "062661.2.0137116-11" }, "geometry": { "type": "Polygon", "coordinates": [ [ [ -55.047013, -22.301491 ], [ -55.046842, -22.30182 ], [ -55.046719, -22.301765 ], [ -55.046891, -22.301436 ], [ -55.047013, -22.301491 ] ] ] } },
{ "type": "Feature", "properties": { "id": 125170, "insc_imob": "00.18.01.10.040", "quadra_cartorio": "10", "lote_cartorio": "04", "matricula": "137117", "circunscricao": null, "zoneamento": null, "condominio": null, "area_geom": 566.11, "cnm": "062661.2.0137117-08" }, "geometry": { "type": "Polygon", "coordinates": [ [ [ -55.046891, -22.301436 ], [ -55.046719, -22.301765 ], [ -55.046597, -22.301709 ], [ -55.046769, -22.301381 ], [ -55.046891, -22.301436 ] ] ] } },
{ "type": "Feature", "properties": { "id": 125171, "insc_imob": "00.18.01.10.050", "quadra_cartorio": "10", "lote_cartorio": "05", "matricula": "137118", "circunscricao": null, "zoneamento": null, "condominio": null, "area_geom": 565.9, "cnm": "062661.2.0137118-05" }, "geometry": { "type": "Polygon", "coordinates": [ [ [ -55.046769, -22.301381 ], [ -55.046597, -22.301709 ], [ -55.046475, -22.301654 ], [ -55.046647, -22.301326 ], [ -55.046769, -22.301381 ] ] ] } },
{ "type": "Feature", "properties": { "id": 125172, "insc_imob": "00.18.01.10.060", "quadra_cartorio": "10", "lote_cartorio": "06", "matricula": "137119", "circunscricao": null, "zoneamento": null, "condominio": null, "area_geom": 565.69, "cnm": "062661.2.0137119-02" }, "geometry": { "type": "Polygon", "coordinates": [ [ [ -55.046647, -22.301326 ], [ -55.046475, -22.301654 ], [ -55.046353, -22.301598 ], [ -55.046524, -22.30127 ], [ -55.046647, -22.301326 ] ] ] } },
{ "type": "Feature", "properties": { "id": 125173, "insc_imob": "00.18.01.10.070", "quadra_cartorio": "10", "lote_cartorio": "07", "matricula": "137120", "circunscricao": null, "zoneamento": null, "condominio": null, "area_geom": 565.47, "cnm": "062661.2.0137120-96" }, "geometry": { "type": "Polygon", "coordinates": [ [ [ -55.046524, -22.30127 ], [ -55.046353, -22.301598 ], [ -55.046231, -22.301543 ], [ -55.046402, -22.301215 ], [ -55.046524, -22.30127 ] ] ] } },
{ "type": "Feature", "properties": { "id": 125174, "insc_imob": "00.18.01.10.080", "quadra_cartorio": "10", "lote_cartorio": "08", "matricula": "137121", "circunscricao": null, "zoneamento": null, "condominio": null, "area_geom": 565.26, "cnm": "062661.2.0137121-93" }, "geometry": { "type": "Polygon", "coordinates": [ [ [ -55.046402, -22.301215 ], [ -55.046231, -22.301543 ], [ -55.046109, -22.301488 ], [ -55.04628, -22.30116 ], [ -55.046402, -22.301215 ] ] ] } },
{ "type": "Feature", "properties": { "id": 125175, "insc_imob": "00.18.01.10.090", "quadra_cartorio": "10", "lote_cartorio": "09", "matricula": "137122", "circunscricao": null, "zoneamento": null, "condominio": null, "area_geom": 565.05, "cnm": "062661.2.0137122-90" }, "geometry": { "type": "Polygon", "coordinates": [ [ [ -55.046158, -22.301105 ], [ -55.04628, -22.30116 ], [ -55.046109, -22.301488 ], [ -55.045987, -22.301432 ], [ -55.046158, -22.301105 ] ] ] } },
{ "type": "Feature", "properties": { "id": 125176, "insc_imob": "00.18.01.10.100", "quadra_cartorio": "10", "lote_cartorio": "10", "matricula": "137123", "circunscricao": null, "zoneamento": null, "condominio": null, "area_geom": 564.84, "cnm": "062661.2.0137123-87" }, "geometry": { "type": "Polygon", "coordinates": [ [ [ -55.046036, -22.301049 ], [ -55.046158, -22.301105 ], [ -55.045987, -22.301432 ], [ -55.045865, -22.301377 ], [ -55.046036, -22.301049 ] ] ] } },
{ "type": "Feature", "properties": { "id": 125177, "insc_imob": "00.18.01.07.040", "quadra_cartorio": "07", "lote_cartorio": "04", "matricula": "137089", "circunscricao": null, "zoneamento": null, "condominio": null, "area_geom": 566.17, "cnm": "062661.2.0137089-92" }, "geometry": { "type": "Polygon", "coordinates": [ [ [ -55.050828, -22.302897 ], [ -55.050912, -22.303142 ], [ -55.050721, -22.30318 ], [ -55.050638, -22.302938 ], [ -55.050828, -22.302897 ] ] ] } },
{ "type": "Feature", "properties": { "id": 125178, "insc_imob": "00.18.01.07.050", "quadra_cartorio": "07", "lote_cartorio": "05", "matricula": "137090", "circunscricao": null, "zoneamento": null, "condominio": null, "area_geom": 604.77, "cnm": "062661.2.0137090-89" }, "geometry": { "type": "Polygon", "coordinates": [ [ [ -55.050638, -22.302938 ], [ -55.050721, -22.30318 ], [ -55.050457, -22.303232 ], [ -55.050503, -22.302949 ], [ -55.050638, -22.302938 ] ] ] } },
{ "type": "Feature", "properties": { "id": 125179, "insc_imob": "00.18.01.07.060", "quadra_cartorio": "07", "lote_cartorio": "06", "matricula": "137091", "circunscricao": null, "zoneamento": null, "condominio": null, "area_geom": 741.5, "cnm": "062661.2.0137091-86" }, "geometry": { "type": "Polygon", "coordinates": [ [ [ -55.050503, -22.302949 ], [ -55.050457, -22.303232 ], [ -55.050175, -22.303288 ], [ -55.050355, -22.302942 ], [ -55.050503, -22.302949 ] ] ] } },
{ "type": "Feature", "properties": { "id": 125091, "insc_imob": "00.18.01.11.070", "quadra_cartorio": "11", "lote_cartorio": "07", "matricula": "137130", "circunscricao": null, "zoneamento": null, "condominio": null, "area_geom": 563.12, "cnm": "062661.2.0137130-66" }, "geometry": { "type": "Polygon", "coordinates": [ [ [ -55.045172, -22.300659 ], [ -55.045001, -22.300985 ], [ -55.044879, -22.30093 ], [ -55.045049, -22.300603 ], [ -55.045172, -22.300659 ] ] ] } },
{ "type": "Feature", "properties": { "id": 125092, "insc_imob": "00.18.01.11.080", "quadra_cartorio": "11", "lote_cartorio": "08", "matricula": "137131", "circunscricao": null, "zoneamento": null, "condominio": null, "area_geom": 567.94, "cnm": "062661.2.0137131-63" }, "geometry": { "type": "Polygon", "coordinates": [ [ [ -55.045049, -22.300603 ], [ -55.044879, -22.30093 ], [ -55.044863, -22.300923 ], [ -55.044784, -22.30078 ], [ -55.04491, -22.30054 ], [ -55.045049, -22.300603 ] ] ] } },
{ "type": "Feature", "properties": { "id": 125093, "insc_imob": "00.18.01.02.020", "quadra_cartorio": "02", "lote_cartorio": "02", "matricula": "137029", "circunscricao": null, "zoneamento": null, "condominio": null, "area_geom": 501.98, "cnm": "062661.2.0137029-78" }, "geometry": { "type": "Polygon", "coordinates": [ [ [ -55.047511, -22.300248 ], [ -55.047357, -22.300543 ], [ -55.047218, -22.30048 ], [ -55.04733, -22.300264 ], [ -55.047511, -22.300248 ] ] ] } },
{ "type": "Feature", "properties": { "id": 125083, "insc_imob": "00.18.01.05.010", "quadra_cartorio": "05", "lote_cartorio": "01", "matricula": "137069", "circunscricao": null, "zoneamento": null, "condominio": null, "area_geom": 744.94, "cnm": "062661.2.0137069-55" }, "geometry": { "type": "Polygon", "coordinates": [ [ [ -55.046253, -22.300323 ], [ -55.046138, -22.300543 ], [ -55.046016, -22.300488 ], [ -55.045894, -22.300433 ], [ -55.045771, -22.300378 ], [ -55.045807, -22.30031 ], [ -55.046253, -22.300323 ] ] ] } },
{ "type": "Feature", "properties": { "id": 125084, "insc_imob": "00.18.01.01.010", "quadra_cartorio": "01", "lote_cartorio": "01", "matricula": "137014", "circunscricao": null, "zoneamento": null, "condominio": null, "area_geom": 766.01, "cnm": "062661.2.0137014-26" }, "geometry": { "type": "Polygon", "coordinates": [ [ [ -55.048742, -22.301028 ], [ -55.048716, -22.301157 ], [ -55.048221, -22.300933 ], [ -55.048281, -22.30082 ], [ -55.048742, -22.301028 ] ] ] } },
{ "type": "Feature", "properties": { "id": 125085, "insc_imob": "00.18.01.02.010", "quadra_cartorio": "02", "lote_cartorio": "01", "matricula": "137028", "circunscricao": null, "zoneamento": null, "condominio": null, "area_geom": 565.82, "cnm": "062661.2.0137028-81" }, "geometry": { "type": "Polygon", "coordinates": [ [ [ -55.04733, -22.300264 ], [ -55.047218, -22.30048 ], [ -55.046901, -22.300336 ], [ -55.046898, -22.300335 ], [ -55.046896, -22.300333 ], [ -55.046894, -22.30033 ], [ -55.046892, -22.300328 ], [ -55.046891, -22.300325 ], [ -55.04689, -22.300322 ], [ -55.04689, -22.300318 ], [ -55.046891, -22.300315 ], [ -55.046892, -22.300312 ], [ -55.046894, -22.30031 ], [ -55.046896, -22.300307 ], [ -55.046898, -22.300305 ], [ -55.046901, -22.300304 ], [ -55.046904, -22.300303 ], [ -55.046908, -22.300302 ], [ -55.04733, -22.300264 ] ] ] } },
{ "type": "Feature", "properties": { "id": 125086, "insc_imob": "00.18.01.03.010", "quadra_cartorio": "03", "lote_cartorio": "01", "matricula": "137034", "circunscricao": null, "zoneamento": null, "condominio": null, "area_geom": 935.36, "cnm": "062661.2.0137034-63" }, "geometry": { "type": "Polygon", "coordinates": [ [ [ -55.048627, -22.30191 ], [ -55.048625, -22.301963 ], [ -55.048624, -22.301975 ], [ -55.04862, -22.301985 ], [ -55.048615, -22.301996 ], [ -55.048608, -22.302005 ], [ -55.0486, -22.302013 ], [ -55.04859, -22.302019 ], [ -55.048579, -22.302024 ], [ -55.048567, -22.302028 ], [ -55.048556, -22.302029 ], [ -55.048543, -22.302029 ], [ -55.048532, -22.302026 ], [ -55.04852, -22.302022 ], [ -55.048063, -22.301815 ], [ -55.048131, -22.301686 ], [ -55.048627, -22.30191 ] ] ] } },
{ "type": "Feature", "properties": { "id": 125087, "insc_imob": "00.18.01.11.010", "quadra_cartorio": "11", "lote_cartorio": "01", "matricula": "137124", "circunscricao": null, "zoneamento": null, "condominio": null, "area_geom": 564.4, "cnm": "062661.2.0137124-84" }, "geometry": { "type": "Polygon", "coordinates": [ [ [ -55.045905, -22.30099 ], [ -55.045734, -22.301318 ], [ -55.045612, -22.301262 ], [ -55.045782, -22.300935 ], [ -55.045905, -22.30099 ] ] ] } },
{ "type": "Feature", "properties": { "id": 125088, "insc_imob": "00.18.01.11.040", "quadra_cartorio": "11", "lote_cartorio": "04", "matricula": "137127", "circunscricao": null, "zoneamento": null, "condominio": null, "area_geom": 563.76, "cnm": "062661.2.0137127-75" }, "geometry": { "type": "Polygon", "coordinates": [ [ [ -55.045538, -22.300824 ], [ -55.045367, -22.301152 ], [ -55.045245, -22.301096 ], [ -55.045416, -22.300769 ], [ -55.045538, -22.300824 ] ] ] } },
{ "type": "Feature", "properties": { "id": 125089, "insc_imob": "00.18.01.11.050", "quadra_cartorio": "11", "lote_cartorio": "05", "matricula": "137128", "circunscricao": null, "zoneamento": null, "condominio": null, "area_geom": 563.55, "cnm": "062661.2.0137128-72" }, "geometry": { "type": "Polygon", "coordinates": [ [ [ -55.045416, -22.300769 ], [ -55.045245, -22.301096 ], [ -55.045123, -22.301041 ], [ -55.045294, -22.300714 ], [ -55.045416, -22.300769 ] ] ] } },
{ "type": "Feature", "properties": { "id": 125090, "insc_imob": "00.18.01.11.060", "quadra_cartorio": "11", "lote_cartorio": "06", "matricula": "137129", "circunscricao": null, "zoneamento": null, "condominio": null, "area_geom": 563.34, "cnm": "062661.2.0137129-69" }, "geometry": { "type": "Polygon", "coordinates": [ [ [ -55.045294, -22.300714 ], [ -55.045123, -22.301041 ], [ -55.045001, -22.300985 ], [ -55.045172, -22.300659 ], [ -55.045294, -22.300714 ] ] ] } },
{ "type": "Feature", "properties": { "id": 125094, "insc_imob": "00.18.01.02.030", "quadra_cartorio": "02", "lote_cartorio": "03", "matricula": "137030", "circunscricao": null, "zoneamento": null, "condominio": null, "area_geom": 549.8, "cnm": "062661.2.0137030-75" }, "geometry": { "type": "Polygon", "coordinates": [ [ [ -55.047511, -22.300248 ], [ -55.047575, -22.300239 ], [ -55.047649, -22.300273 ], [ -55.04748, -22.300598 ], [ -55.047357, -22.300543 ], [ -55.047511, -22.300248 ] ] ] } },
{ "type": "Feature", "properties": { "id": 125095, "insc_imob": "00.18.01.02.050", "quadra_cartorio": "02", "lote_cartorio": "05", "matricula": "137032", "circunscricao": null, "zoneamento": null, "condominio": null, "area_geom": 560.0, "cnm": "062661.2.0137032-69" }, "geometry": { "type": "Polygon", "coordinates": [ [ [ -55.047771, -22.300328 ], [ -55.047894, -22.300384 ], [ -55.047724, -22.300708 ], [ -55.047602, -22.300653 ], [ -55.047771, -22.300328 ] ] ] } },
{ "type": "Feature", "properties": { "id": 125096, "insc_imob": "00.18.01.02.060", "quadra_cartorio": "02", "lote_cartorio": "06", "matricula": "137033", "circunscricao": null, "zoneamento": null, "condominio": null, "area_geom": 458.74, "cnm": "062661.2.0137033-66" }, "geometry": { "type": "Polygon", "coordinates": [ [ [ -55.048, -22.30018 ], [ -55.047894, -22.300384 ], [ -55.047771, -22.300328 ], [ -55.047649, -22.300273 ], [ -55.047575, -22.300239 ], [ -55.048, -22.30018 ] ] ] } },
{ "type": "Feature", "properties": { "id": 125097, "insc_imob": "00.18.01.01.130", "quadra_cartorio": "01", "lote_cartorio": "13", "matricula": "137026", "circunscricao": null, "zoneamento": null, "condominio": null, "area_geom": 684.85, "cnm": "062661.2.0137026-87" }, "geometry": { "type": "Polygon", "coordinates": [ [ [ -55.048155, -22.300482 ], [ -55.048185, -22.300426 ], [ -55.048307, -22.300481 ], [ -55.048099, -22.300878 ], [ -55.047977, -22.300823 ], [ -55.048155, -22.300482 ] ] ] } },
{ "type": "Feature", "properties": { "id": 125098, "insc_imob": "00.18.01.01.140", "quadra_cartorio": "01", "lote_cartorio": "14", "matricula": "137027", "circunscricao": null, "zoneamento": null, "condominio": null, "area_geom": 684.85, "cnm": "062661.2.0137027-84" }, "geometry": { "type": "Polygon", "coordinates": [ [ [ -55.048307, -22.300481 ], [ -55.048429, -22.300536 ], [ -55.0484, -22.300592 ], [ -55.04834, -22.300706 ], [ -55.048281, -22.30082 ], [ -55.048221, -22.300933 ], [ -55.048099, -22.300878 ], [ -55.048307, -22.300481 ] ] ] } },
{ "type": "Feature", "properties": { "id": 125099, "insc_imob": "00.18.01.01.020", "quadra_cartorio": "01", "lote_cartorio": "02", "matricula": "137015", "circunscricao": null, "zoneamento": null, "condominio": null, "area_geom": 715.56, "cnm": "062661.2.0137015-23" }, "geometry": { "type": "Polygon", "coordinates": [ [ [ -55.048771, -22.300901 ], [ -55.048742, -22.301028 ], [ -55.048281, -22.30082 ], [ -55.04834, -22.300706 ], [ -55.048771, -22.300901 ] ] ] } },
{ "type": "Feature", "properties": { "id": 125100, "insc_imob": "00.18.01.01.030", "quadra_cartorio": "01", "lote_cartorio": "03", "matricula": "137016", "circunscricao": null, "zoneamento": null, "condominio": null, "area_geom": 669.97, "cnm": "062661.2.0137016-20" }, "geometry": { "type": "Polygon", "coordinates": [ [ [ -55.048804, -22.300775 ], [ -55.048771, -22.300901 ], [ -55.04834, -22.300706 ], [ -55.0484, -22.300592 ], [ -55.048804, -22.300775 ] ] ] } },
{ "type": "Feature", "properties": { "id": 125101, "insc_imob": "00.18.01.01.040", "quadra_cartorio": "01", "lote_cartorio": "04", "matricula": "137017", "circunscricao": null, "zoneamento": null, "condominio": null, "area_geom": 629.14, "cnm": "062661.2.0137017-17" }, "geometry": { "type": "Polygon", "coordinates": [ [ [ -55.048839, -22.300651 ], [ -55.048804, -22.300775 ], [ -55.0484, -22.300592 ], [ -55.048429, -22.300536 ], [ -55.048459, -22.300479 ], [ -55.048839, -22.300651 ] ] ] } },
{ "type": "Feature", "properties": { "id": 125102, "insc_imob": "00.18.01.01.050", "quadra_cartorio": "01", "lote_cartorio": "05", "matricula": "137018", "circunscricao": null, "zoneamento": null, "condominio": null, "area_geom": 593.02, "cnm": "062661.2.0137018-14" }, "geometry": { "type": "Polygon", "coordinates": [ [ [ -55.048878, -22.300527 ], [ -55.048839, -22.300651 ], [ -55.048459, -22.300479 ], [ -55.048518, -22.300365 ], [ -55.048878, -22.300527 ] ] ] } },
{ "type": "Feature", "properties": { "id": 125103, "insc_imob": "00.18.01.01.060", "quadra_cartorio": "01", "lote_cartorio": "06", "matricula": "137019", "circunscricao": null, "zoneamento": null, "condominio": null, "area_geom": 561.55, "cnm": "062661.2.0137019-11" }, "geometry": { "type": "Polygon", "coordinates": [ [ [ -55.048919, -22.300405 ], [ -55.048878, -22.300527 ], [ -55.048518, -22.300365 ], [ -55.048578, -22.300251 ], [ -55.048919, -22.300405 ] ] ] } },
{ "type": "Feature", "properties": { "id": 125104, "insc_imob": "00.18.01.01.070", "quadra_cartorio": "01", "lote_cartorio": "07", "matricula": "137020", "circunscricao": null, "zoneamento": null, "condominio": null, "area_geom": 534.67, "cnm": "062661.2.0137020-08" }, "geometry": { "type": "Polygon", "coordinates": [ [ [ -55.048963, -22.300285 ], [ -55.048919, -22.300405 ], [ -55.048578, -22.300251 ], [ -55.048637, -22.300137 ], [ -55.048963, -22.300285 ] ] ] } },
{ "type": "Feature", "properties": { "id": 125105, "insc_imob": "00.18.01.01.080", "quadra_cartorio": "01", "lote_cartorio": "08", "matricula": "137021", "circunscricao": null, "zoneamento": null, "condominio": null, "area_geom": 892.84, "cnm": "062661.2.0137021-05" }, "geometry": { "type": "Polygon", "coordinates": [ [ [ -55.048964, -22.299976 ], [ -55.048976, -22.299974 ], [ -55.048988, -22.299974 ], [ -55.049001, -22.299976 ], [ -55.049012, -22.29998 ], [ -55.049023, -22.299985 ], [ -55.049033, -22.299992 ], [ -55.049041, -22.300001 ], [ -55.049048, -22.300011 ], [ -55.049053, -22.300021 ], [ -55.049055, -22.300033 ], [ -55.049056, -22.300044 ], [ -55.049054, -22.300056 ], [ -55.049051, -22.300067 ], [ -55.049006, -22.300175 ], [ -55.048963, -22.300285 ], [ -55.048637, -22.300137 ], [ -55.048686, -22.300045 ], [ -55.048825, -22.300011 ], [ -55.048964, -22.299976 ] ] ] } },
{ "type": "Feature", "properties": { "id": 125106, "insc_imob": "00.18.01.01.090", "quadra_cartorio": "01", "lote_cartorio": "09", "matricula": "137022", "circunscricao": null, "zoneamento": null, "condominio": null, "area_geom": 766.79, "cnm": "062661.2.0137022-02" }, "geometry": { "type": "Polygon", "coordinates": [ [ [ -55.048515, -22.300083 ], [ -55.048686, -22.300045 ], [ -55.048637, -22.300137 ], [ -55.048578, -22.300251 ], [ -55.048518, -22.300365 ], [ -55.048459, -22.300479 ], [ -55.048429, -22.300536 ], [ -55.048307, -22.300481 ], [ -55.048515, -22.300083 ] ] ] } },
{ "type": "Feature", "properties": { "id": 125107, "insc_imob": "00.18.01.01.100", "quadra_cartorio": "01", "lote_cartorio": "10", "matricula": "137023", "circunscricao": null, "zoneamento": null, "condominio": null, "area_geom": 608.33, "cnm": "062661.2.0137023-96" }, "geometry": { "type": "Polygon", "coordinates": [ [ [ -55.048345, -22.300118 ], [ -55.048378, -22.300111 ], [ -55.048515, -22.300083 ], [ -55.048307, -22.300481 ], [ -55.048185, -22.300426 ], [ -55.048345, -22.300118 ] ] ] } },
{ "type": "Feature", "properties": { "id": 125108, "insc_imob": "00.18.01.01.110", "quadra_cartorio": "01", "lote_cartorio": "11", "matricula": "137024", "circunscricao": null, "zoneamento": null, "condominio": null, "area_geom": 552.92, "cnm": "062661.2.0137024-93" }, "geometry": { "type": "Polygon", "coordinates": [ [ [ -55.048178, -22.300149 ], [ -55.048345, -22.300118 ], [ -55.048185, -22.300426 ], [ -55.048155, -22.300482 ], [ -55.048033, -22.300427 ], [ -55.048178, -22.300149 ] ] ] } },
{ "type": "Feature", "properties": { "id": 125109, "insc_imob": "00.18.01.03.020", "quadra_cartorio": "03", "lote_cartorio": "02", "matricula": "137035", "circunscricao": null, "zoneamento": null, "condominio": null, "area_geom": 855.82, "cnm": "062661.2.0137035-60" }, "geometry": { "type": "Polygon", "coordinates": [ [ [ -55.048636, -22.301753 ], [ -55.048627, -22.30191 ], [ -55.048131, -22.301686 ], [ -55.048199, -22.301556 ], [ -55.048636, -22.301753 ] ] ] } },
{ "type": "Feature", "properties": { "id": 125110, "insc_imob": "00.18.01.03.030", "quadra_cartorio": "03", "lote_cartorio": "03", "matricula": "137036", "circunscricao": null, "zoneamento": null, "condominio": null, "area_geom": 752.57, "cnm": "062661.2.0137036-57" }, "geometry": { "type": "Polygon", "coordinates": [ [ [ -55.04865, -22.301599 ], [ -55.048636, -22.301753 ], [ -55.048199, -22.301556 ], [ -55.048233, -22.301491 ], [ -55.048267, -22.301426 ], [ -55.04865, -22.301599 ] ] ] } },
{ "type": "Feature", "properties": { "id": 125111, "insc_imob": "00.18.01.03.040", "quadra_cartorio": "03", "lote_cartorio": "04", "matricula": "137037", "circunscricao": null, "zoneamento": null, "condominio": null, "area_geom": 657.51, "cnm": "062661.2.0137037-54" }, "geometry": { "type": "Polygon", "coordinates": [ [ [ -55.048668, -22.301447 ], [ -55.04865, -22.301599 ], [ -55.048267, -22.301426 ], [ -55.048334, -22.301296 ], [ -55.048668, -22.301447 ] ] ] } },
{ "type": "Feature", "properties": { "id": 125112, "insc_imob": "00.18.01.03.050", "quadra_cartorio": "03", "lote_cartorio": "05", "matricula": "137038", "circunscricao": null, "zoneamento": null, "condominio": null, "area_geom": 570.38, "cnm": "062661.2.0137038-51" }, "geometry": { "type": "Polygon", "coordinates": [ [ [ -55.048691, -22.301296 ], [ -55.048668, -22.301447 ], [ -55.048334, -22.301296 ], [ -55.048402, -22.301166 ], [ -55.048691, -22.301296 ] ] ] } },
{ "type": "Feature", "properties": { "id": 125113, "insc_imob": "00.18.01.03.060", "quadra_cartorio": "03", "lote_cartorio": "06", "matricula": "137039", "circunscricao": null, "zoneamento": null, "condominio": null, "area_geom": 560.0, "cnm": "062661.2.0137039-48" }, "geometry": { "type": "Polygon", "coordinates": [ [ [ -55.04828, -22.30111 ], [ -55.048402, -22.301166 ], [ -55.048334, -22.301296 ], [ -55.048267, -22.301426 ], [ -55.048233, -22.301491 ], [ -55.04811, -22.301435 ], [ -55.04828, -22.30111 ] ] ] } },
{ "type": "Feature", "properties": { "id": 125114, "insc_imob": "00.18.01.03.070", "quadra_cartorio": "03", "lote_cartorio": "07", "matricula": "137040", "circunscricao": null, "zoneamento": null, "condominio": null, "area_geom": 560.0, "cnm": "062661.2.0137040-45" }, "geometry": { "type": "Polygon", "coordinates": [ [ [ -55.048158, -22.301055 ], [ -55.04828, -22.30111 ], [ -55.04811, -22.301435 ], [ -55.047988, -22.30138 ], [ -55.048158, -22.301055 ] ] ] } },
{ "type": "Feature", "properties": { "id": 125122, "insc_imob": "00.18.01.03.150", "quadra_cartorio": "03", "lote_cartorio": "15", "matricula": "137048", "circunscricao": null, "zoneamento": null, "condominio": null, "area_geom": 560.0, "cnm": "062661.2.0137048-21" }, "geometry": { "type": "Polygon", "coordinates": [ [ [ -55.04811, -22.301435 ], [ -55.048233, -22.301491 ], [ -55.048199, -22.301556 ], [ -55.048131, -22.301686 ], [ -55.048063, -22.301815 ], [ -55.047941, -22.30176 ], [ -55.04811, -22.301435 ] ] ] } },
{ "type": "Feature", "properties": { "id": 125123, "insc_imob": "00.18.01.04.010", "quadra_cartorio": "04", "lote_cartorio": "01", "matricula": "137049", "circunscricao": null, "zoneamento": null, "condominio": null, "area_geom": 560.0, "cnm": "062661.2.0137049-18" }, "geometry": { "type": "Polygon", "coordinates": [ [ [ -55.047538, -22.300775 ], [ -55.04766, -22.30083 ], [ -55.047491, -22.301155 ], [ -55.047369, -22.3011 ], [ -55.047538, -22.300775 ] ] ] } },
{ "type": "Feature", "properties": { "id": 125124, "insc_imob": "00.18.01.04.020", "quadra_cartorio": "04", "lote_cartorio": "02", "matricula": "137050", "circunscricao": null, "zoneamento": null, "condominio": null, "area_geom": 560.0, "cnm": "062661.2.0137050-15" }, "geometry": { "type": "Polygon", "coordinates": [ [ [ -55.047416, -22.30072 ], [ -55.047538, -22.300775 ], [ -55.047369, -22.3011 ], [ -55.047246, -22.301045 ], [ -55.047416, -22.30072 ] ] ] } },
{ "type": "Feature", "properties": { "id": 125125, "insc_imob": "00.18.01.04.030", "quadra_cartorio": "04", "lote_cartorio": "03", "matricula": "137051", "circunscricao": null, "zoneamento": null, "condominio": null, "area_geom": 560.0, "cnm": "062661.2.0137051-12" }, "geometry": { "type": "Polygon", "coordinates": [ [ [ -55.047416, -22.30072 ], [ -55.047246, -22.301045 ], [ -55.047124, -22.300989 ], [ -55.047294, -22.300665 ], [ -55.047416, -22.30072 ] ] ] } },
{ "type": "Feature", "properties": { "id": 125126, "insc_imob": "00.18.01.04.040", "quadra_cartorio": "04", "lote_cartorio": "04", "matricula": "137052", "circunscricao": null, "zoneamento": null, "condominio": null, "area_geom": 560.0, "cnm": "062661.2.0137052-09" }, "geometry": { "type": "Polygon", "coordinates": [ [ [ -55.047172, -22.300609 ], [ -55.047294, -22.300665 ], [ -55.047124, -22.300989 ], [ -55.047002, -22.300934 ], [ -55.047172, -22.300609 ] ] ] } },
{ "type": "Feature", "properties": { "id": 125127, "insc_imob": "00.18.01.04.050", "quadra_cartorio": "04", "lote_cartorio": "05", "matricula": "137053", "circunscricao": null, "zoneamento": null, "condominio": null, "area_geom": 560.0, "cnm": "062661.2.0137053-06" }, "geometry": { "type": "Polygon", "coordinates": [ [ [ -55.047049, -22.300554 ], [ -55.047172, -22.300609 ], [ -55.047002, -22.300934 ], [ -55.04688, -22.300879 ], [ -55.047049, -22.300554 ] ] ] } },
{ "type": "Feature", "properties": { "id": 125128, "insc_imob": "00.18.01.04.060", "quadra_cartorio": "04", "lote_cartorio": "06", "matricula": "137054", "circunscricao": null, "zoneamento": null, "condominio": null, "area_geom": 560.0, "cnm": "062661.2.0137054-03" }, "geometry": { "type": "Polygon", "coordinates": [ [ [ -55.046927, -22.300499 ], [ -55.047049, -22.300554 ], [ -55.04688, -22.300879 ], [ -55.046758, -22.300824 ], [ -55.046927, -22.300499 ] ] ] } },
{ "type": "Feature", "properties": { "id": 125129, "insc_imob": "00.18.01.04.070", "quadra_cartorio": "04", "lote_cartorio": "07", "matricula": "137055", "circunscricao": null, "zoneamento": null, "condominio": null, "area_geom": 560.0, "cnm": "062661.2.0137055-97" }, "geometry": { "type": "Polygon", "coordinates": [ [ [ -55.046805, -22.300444 ], [ -55.046927, -22.300499 ], [ -55.046758, -22.300824 ], [ -55.046635, -22.300768 ], [ -55.046805, -22.300444 ] ] ] } },
{ "type": "Feature", "properties": { "id": 125130, "insc_imob": "00.18.01.04.080", "quadra_cartorio": "04", "lote_cartorio": "08", "matricula": "137056", "circunscricao": null, "zoneamento": null, "condominio": null, "area_geom": 560.0, "cnm": "062661.2.0137056-94" }, "geometry": { "type": "Polygon", "coordinates": [ [ [ -55.046683, -22.300388 ], [ -55.046805, -22.300444 ], [ -55.046635, -22.300768 ], [ -55.046513, -22.300713 ], [ -55.046683, -22.300388 ] ] ] } },
{ "type": "Feature", "properties": { "id": 125131, "insc_imob": "00.18.01.04.090", "quadra_cartorio": "04", "lote_cartorio": "09", "matricula": "137057", "circunscricao": null, "zoneamento": null, "condominio": null, "area_geom": 560.0, "cnm": "062661.2.0137057-91" }, "geometry": { "type": "Polygon", "coordinates": [ [ [ -55.046561, -22.300333 ], [ -55.046683, -22.300388 ], [ -55.046513, -22.300713 ], [ -55.046391, -22.300658 ], [ -55.046561, -22.300333 ] ] ] } },
{ "type": "Feature", "properties": { "id": 125132, "insc_imob": "00.18.01.04.100", "quadra_cartorio": "04", "lote_cartorio": "10", "matricula": "137058", "circunscricao": null, "zoneamento": null, "condominio": null, "area_geom": 533.37, "cnm": "062661.2.0137058-88" }, "geometry": { "type": "Polygon", "coordinates": [ [ [ -55.046527, -22.300318 ], [ -55.046561, -22.300333 ], [ -55.046391, -22.300658 ], [ -55.046269, -22.300603 ], [ -55.046416, -22.300321 ], [ -55.046527, -22.300318 ] ] ] } },
{ "type": "Feature", "properties": { "id": 125133, "insc_imob": "00.18.01.04.140", "quadra_cartorio": "04", "lote_cartorio": "14", "matricula": "137062", "circunscricao": null, "zoneamento": null, "condominio": null, "area_geom": 560.0, "cnm": "062661.2.0137062-76" }, "geometry": { "type": "Polygon", "coordinates": [ [ [ -55.046635, -22.300768 ], [ -55.046758, -22.300824 ], [ -55.046588, -22.301149 ], [ -55.046466, -22.301093 ], [ -55.046635, -22.300768 ] ] ] } },
{ "type": "Feature", "properties": { "id": 125134, "insc_imob": "00.18.01.04.130", "quadra_cartorio": "04", "lote_cartorio": "13", "matricula": "137061", "circunscricao": null, "zoneamento": null, "condominio": null, "area_geom": 560.0, "cnm": "062661.2.0137061-79" }, "geometry": { "type": "Polygon", "coordinates": [ [ [ -55.046513, -22.300713 ], [ -55.046635, -22.300768 ], [ -55.046466, -22.301093 ], [ -55.046344, -22.301038 ], [ -55.046513, -22.300713 ] ] ] } },
{ "type": "Feature", "properties": { "id": 125135, "insc_imob": "00.18.01.04.120", "quadra_cartorio": "04", "lote_cartorio": "12", "matricula": "137060", "circunscricao": null, "zoneamento": null, "condominio": null, "area_geom": 560.0, "cnm": "062661.2.0137060-82" }, "geometry": { "type": "Polygon", "coordinates": [ [ [ -55.046391, -22.300658 ], [ -55.046513, -22.300713 ], [ -55.046344, -22.301038 ], [ -55.046221, -22.300983 ], [ -55.046391, -22.300658 ] ] ] } },
{ "type": "Feature", "properties": { "id": 125136, "insc_imob": "00.18.01.04.110", "quadra_cartorio": "04", "lote_cartorio": "11", "matricula": "137059", "circunscricao": null, "zoneamento": null, "condominio": null, "area_geom": 560.0, "cnm": "062661.2.0137059-85" }, "geometry": { "type": "Polygon", "coordinates": [ [ [ -55.046269, -22.300603 ], [ -55.046391, -22.300658 ], [ -55.046221, -22.300983 ], [ -55.046099, -22.300928 ], [ -55.046269, -22.300603 ] ] ] } },
{ "type": "Feature", "properties": { "id": 125137, "insc_imob": "00.18.01.04.150", "quadra_cartorio": "04", "lote_cartorio": "15", "matricula": "137063", "circunscricao": null, "zoneamento": null, "condominio": null, "area_geom": 560.0, "cnm": "062661.2.0137063-73" }, "geometry": { "type": "Polygon", "coordinates": [ [ [ -55.046758, -22.300824 ], [ -55.04688, -22.300879 ], [ -55.04671, -22.301204 ], [ -55.046588, -22.301149 ], [ -55.046758, -22.300824 ] ] ] } },
{ "type": "Feature", "properties": { "id": 125138, "insc_imob": "00.18.01.04.190", "quadra_cartorio": "04", "lote_cartorio": "19", "matricula": "137067", "circunscricao": null, "zoneamento": null, "condominio": null, "area_geom": 560.0, "cnm": "062661.2.0137067-61" }, "geometry": { "type": "Polygon", "coordinates": [ [ [ -55.047369, -22.3011 ], [ -55.047199, -22.301425 ], [ -55.047077, -22.30137 ], [ -55.047246, -22.301045 ], [ -55.047369, -22.3011 ] ] ] } },
{ "type": "Feature", "properties": { "id": 125139, "insc_imob": "00.18.01.04.200", "quadra_cartorio": "04", "lote_cartorio": "20", "matricula": "137068", "circunscricao": null, "zoneamento": null, "condominio": null, "area_geom": 560.0, "cnm": "062661.2.0137068-58" }, "geometry": { "type": "Polygon", "coordinates": [ [ [ -55.047491, -22.301155 ], [ -55.047342, -22.301441 ], [ -55.047321, -22.30148 ], [ -55.047199, -22.301425 ], [ -55.047369, -22.3011 ], [ -55.047491, -22.301155 ] ] ] } },
{ "type": "Feature", "properties": { "id": 125140, "insc_imob": "00.18.01.05.020", "quadra_cartorio": "05", "lote_cartorio": "02", "matricula": "137070", "circunscricao": null, "zoneamento": null, "condominio": null, "area_geom": 560.0, "cnm": "062661.2.0137070-52" }, "geometry": { "type": "Polygon", "coordinates": [ [ [ -55.046016, -22.300488 ], [ -55.046138, -22.300543 ], [ -55.045968, -22.300868 ], [ -55.045846, -22.300813 ], [ -55.046016, -22.300488 ] ] ] } },
{ "type": "Feature", "properties": { "id": 125141, "insc_imob": "00.18.01.05.030", "quadra_cartorio": "05", "lote_cartorio": "03", "matricula": "137071", "circunscricao": null, "zoneamento": null, "condominio": null, "area_geom": 560.0, "cnm": "062661.2.0137071-49" }, "geometry": { "type": "Polygon", "coordinates": [ [ [ -55.045894, -22.300433 ], [ -55.046016, -22.300488 ], [ -55.045846, -22.300813 ], [ -55.045724, -22.300758 ], [ -55.045894, -22.300433 ] ] ] } },
{ "type": "Feature", "properties": { "id": 125142, "insc_imob": "00.18.01.05.040", "quadra_cartorio": "05", "lote_cartorio": "04", "matricula": "137072", "circunscricao": null, "zoneamento": null, "condominio": null, "area_geom": 560.0, "cnm": "062661.2.0137072-46" }, "geometry": { "type": "Polygon", "coordinates": [ [ [ -55.045771, -22.300378 ], [ -55.045894, -22.300433 ], [ -55.045724, -22.300758 ], [ -55.045602, -22.300703 ], [ -55.045771, -22.300378 ] ] ] } },
{ "type": "Feature", "properties": { "id": 125143, "insc_imob": "00.18.01.05.050", "quadra_cartorio": "05", "lote_cartorio": "05", "matricula": "137073", "circunscricao": null, "zoneamento": null, "condominio": null, "area_geom": 632.36, "cnm": "062661.2.0137073-43" }, "geometry": { "type": "Polygon", "coordinates": [ [ [ -55.045658, -22.300306 ], [ -55.045807, -22.30031 ], [ -55.045771, -22.300378 ], [ -55.045602, -22.300703 ], [ -55.04548, -22.300647 ], [ -55.045658, -22.300306 ] ] ] } },
{ "type": "Feature", "properties": { "id": 125144, "insc_imob": "00.18.01.05.060", "quadra_cartorio": "05", "lote_cartorio": "06", "matricula": "137074", "circunscricao": null, "zoneamento": null, "condominio": null, "area_geom": 579.91, "cnm": "062661.2.0137074-40" }, "geometry": { "type": "Polygon", "coordinates": [ [ [ -55.045498, -22.300302 ], [ -55.045658, -22.300306 ], [ -55.04548, -22.300647 ], [ -55.045349, -22.300588 ], [ -55.045498, -22.300302 ] ] ] } },
{ "type": "Feature", "properties": { "id": 125145, "insc_imob": "00.18.01.05.070", "quadra_cartorio": "05", "lote_cartorio": "07", "matricula": "137075", "circunscricao": null, "zoneamento": null, "condominio": null, "area_geom": 547.94, "cnm": "062661.2.0137075-37" }, "geometry": { "type": "Polygon", "coordinates": [ [ [ -55.045324, -22.300284 ], [ -55.045498, -22.300302 ], [ -55.045349, -22.300588 ], [ -55.0452, -22.300521 ], [ -55.045324, -22.300284 ] ] ] } },
{ "type": "Feature", "properties": { "id": 125146, "insc_imob": "00.18.01.05.080", "quadra_cartorio": "05", "lote_cartorio": "08", "matricula": "137076", "circunscricao": null, "zoneamento": null, "condominio": null, "area_geom": 1111.52, "cnm": "062661.2.0137076-34" }, "geometry": { "type": "Polygon", "coordinates": [ [ [ -55.045324, -22.300284 ], [ -55.0452, -22.300521 ], [ -55.044693, -22.300292 ], [ -55.044688, -22.300289 ], [ -55.044683, -22.300285 ], [ -55.044679, -22.30028 ], [ -55.044675, -22.300275 ], [ -55.044673, -22.30027 ], [ -55.044672, -22.300264 ], [ -55.044672, -22.300258 ], [ -55.044672, -22.300252 ], [ -55.044674, -22.300246 ], [ -55.044677, -22.300241 ], [ -55.044681, -22.300236 ], [ -55.044686, -22.300232 ], [ -55.044691, -22.300228 ], [ -55.044697, -22.300226 ], [ -55.044703, -22.300224 ], [ -55.04471, -22.300223 ], [ -55.044716, -22.300224 ], [ -55.045324, -22.300284 ] ] ] } },
{ "type": "Feature", "properties": { "id": 125147, "insc_imob": "00.18.01.07.070", "quadra_cartorio": "07", "lote_cartorio": "07", "matricula": "137092", "circunscricao": null, "zoneamento": null, "condominio": null, "area_geom": 616.93, "cnm": "062661.2.0137092-83" }, "geometry": { "type": "Polygon", "coordinates": [ [ [ -55.050355, -22.302942 ], [ -55.050175, -22.303288 ], [ -55.050109, -22.303301 ], [ -55.050034, -22.303267 ], [ -55.050216, -22.302919 ], [ -55.050355, -22.302942 ] ] ] } },
{ "type": "Feature", "properties": { "id": 125148, "insc_imob": "00.18.01.08.010", "quadra_cartorio": "08", "lote_cartorio": "01", "matricula": "137094", "circunscricao": null, "zoneamento": null, "condominio": null, "area_geom": 571.25, "cnm": "062661.2.0137094-77" }, "geometry": { "type": "Polygon", "coordinates": [ [ [ -55.049841, -22.30277 ], [ -55.049963, -22.302825 ], [ -55.04979, -22.303157 ], [ -55.049668, -22.303101 ], [ -55.049841, -22.30277 ] ] ] } },
{ "type": "Feature", "properties": { "id": 125149, "insc_imob": "00.18.01.08.020", "quadra_cartorio": "08", "lote_cartorio": "02", "matricula": "137095", "circunscricao": null, "zoneamento": null, "condominio": null, "area_geom": 571.06, "cnm": "062661.2.0137095-74" }, "geometry": { "type": "Polygon", "coordinates": [ [ [ -55.049719, -22.302715 ], [ -55.049841, -22.30277 ], [ -55.049668, -22.303101 ], [ -55.049546, -22.303046 ], [ -55.049719, -22.302715 ] ] ] } },
{ "type": "Feature", "properties": { "id": 125150, "insc_imob": "00.18.01.08.030", "quadra_cartorio": "08", "lote_cartorio": "03", "matricula": "137096", "circunscricao": null, "zoneamento": null, "condominio": null, "area_geom": 570.87, "cnm": "062661.2.0137096-71" }, "geometry": { "type": "Polygon", "coordinates": [ [ [ -55.049597, -22.302659 ], [ -55.049719, -22.302715 ], [ -55.049546, -22.303046 ], [ -55.049424, -22.302991 ], [ -55.049597, -22.302659 ] ] ] } },
{ "type": "Feature", "properties": { "id": 125151, "insc_imob": "00.18.01.08.040", "quadra_cartorio": "08", "lote_cartorio": "04", "matricula": "137097", "circunscricao": null, "zoneamento": null, "condominio": null, "area_geom": 570.67, "cnm": "062661.2.0137097-68" }, "geometry": { "type": "Polygon", "coordinates": [ [ [ -55.049474, -22.302604 ], [ -55.049597, -22.302659 ], [ -55.049424, -22.302991 ], [ -55.049302, -22.302935 ], [ -55.049474, -22.302604 ] ] ] } },
{ "type": "Feature", "properties": { "id": 125152, "insc_imob": "00.18.01.08.050", "quadra_cartorio": "08", "lote_cartorio": "05", "matricula": "137098", "circunscricao": null, "zoneamento": null, "condominio": null, "area_geom": 570.48, "cnm": "062661.2.0137098-65" }, "geometry": { "type": "Polygon", "coordinates": [ [ [ -55.049352, -22.302549 ], [ -55.049474, -22.302604 ], [ -55.049302, -22.302935 ], [ -55.049179, -22.30288 ], [ -55.049352, -22.302549 ] ] ] } },
{ "type": "Feature", "properties": { "id": 125180, "insc_imob": "00.18.01.11.090", "quadra_cartorio": "11", "lote_cartorio": "09", "matricula": "137132", "circunscricao": null, "zoneamento": null, "condominio": null, "area_geom": 551.47, "cnm": "062661.2.0137132-60" }, "geometry": { "type": "Polygon", "coordinates": [ [ [ -55.04491, -22.30054 ], [ -55.044784, -22.30078 ], [ -55.044629, -22.300498 ], [ -55.044629, -22.300414 ], [ -55.044629, -22.300413 ], [ -55.04491, -22.30054 ] ] ] } },
{ "type": "Feature", "properties": { "id": 125181, "insc_imob": "00.18.01.07.010", "quadra_cartorio": "07", "lote_cartorio": "01", "matricula": "137086", "circunscricao": null, "zoneamento": null, "condominio": null, "area_geom": 520.39, "cnm": "062661.2.0137086-04" }, "geometry": { "type": "Polygon", "coordinates": [ [ [ -55.051271, -22.302764 ], [ -55.05137, -22.303051 ], [ -55.051217, -22.303081 ], [ -55.051123, -22.302809 ], [ -55.051271, -22.302764 ] ] ] } },
{ "type": "Feature", "properties": { "id": 125182, "insc_imob": "00.18.01.07.020", "quadra_cartorio": "07", "lote_cartorio": "02", "matricula": "137087", "circunscricao": null, "zoneamento": null, "condominio": null, "area_geom": 494.85, "cnm": "062661.2.0137087-98" }, "geometry": { "type": "Polygon", "coordinates": [ [ [ -55.051123, -22.302809 ], [ -55.051217, -22.303081 ], [ -55.051065, -22.303112 ], [ -55.050976, -22.302853 ], [ -55.051123, -22.302809 ] ] ] } },
{ "type": "Feature", "properties": { "id": 125183, "insc_imob": "00.18.01.06.010", "quadra_cartorio": "06", "lote_cartorio": "01", "matricula": "137077", "circunscricao": null, "zoneamento": null, "condominio": null, "area_geom": 689.03, "cnm": "062661.2.0137077-31" }, "geometry": { "type": "Polygon", "coordinates": [ [ [ -55.052588, -22.302373 ], [ -55.052697, -22.302788 ], [ -55.052572, -22.302813 ], [ -55.052436, -22.302418 ], [ -55.052588, -22.302373 ] ] ] } },
{ "type": "Feature", "properties": { "id": 125184, "insc_imob": "00.18.01.06.080", "quadra_cartorio": "06", "lote_cartorio": "08", "matricula": "137084", "circunscricao": null, "zoneamento": null, "condominio": null, "area_geom": 515.39, "cnm": "062661.2.0137084-10" }, "geometry": { "type": "Polygon", "coordinates": [ [ [ -55.05177, -22.302972 ], [ -55.051637, -22.302998 ], [ -55.05153, -22.302687 ], [ -55.05166, -22.302649 ], [ -55.05177, -22.302972 ] ] ] } },
{ "type": "Feature", "properties": { "id": 125185, "insc_imob": "00.18.01.06.020", "quadra_cartorio": "06", "lote_cartorio": "02", "matricula": "137078", "circunscricao": null, "zoneamento": null, "condominio": null, "area_geom": 632.69, "cnm": "062661.2.0137078-28" }, "geometry": { "type": "Polygon", "coordinates": [ [ [ -55.052436, -22.302418 ], [ -55.052572, -22.302813 ], [ -55.052438, -22.302839 ], [ -55.052307, -22.302456 ], [ -55.052436, -22.302418 ] ] ] } },
{ "type": "Feature", "properties": { "id": 125186, "insc_imob": "00.18.01.06.030", "quadra_cartorio": "06", "lote_cartorio": "03", "matricula": "137079", "circunscricao": null, "zoneamento": null, "condominio": null, "area_geom": 613.14, "cnm": "062661.2.0137079-25" }, "geometry": { "type": "Polygon", "coordinates": [ [ [ -55.052307, -22.302456 ], [ -55.052438, -22.302839 ], [ -55.052305, -22.302866 ], [ -55.052177, -22.302495 ], [ -55.052307, -22.302456 ] ] ] } },
{ "type": "Feature", "properties": { "id": 125187, "insc_imob": "00.18.01.06.050", "quadra_cartorio": "06", "lote_cartorio": "05", "matricula": "137081", "circunscricao": null, "zoneamento": null, "condominio": null, "area_geom": 574.04, "cnm": "062661.2.0137081-19" }, "geometry": { "type": "Polygon", "coordinates": [ [ [ -55.052171, -22.302892 ], [ -55.052037, -22.302919 ], [ -55.051918, -22.302572 ], [ -55.052048, -22.302533 ], [ -55.052171, -22.302892 ] ] ] } },
{ "type": "Feature", "properties": { "id": 125188, "insc_imob": "00.18.01.06.060", "quadra_cartorio": "06", "lote_cartorio": "06", "matricula": "137082", "circunscricao": null, "zoneamento": null, "condominio": null, "area_geom": 554.49, "cnm": "062661.2.0137082-16" }, "geometry": { "type": "Polygon", "coordinates": [ [ [ -55.051918, -22.302572 ], [ -55.052037, -22.302919 ], [ -55.051904, -22.302945 ], [ -55.051789, -22.30261 ], [ -55.051918, -22.302572 ] ] ] } },
{ "type": "Feature", "properties": { "id": 125189, "insc_imob": "00.18.01.06.070", "quadra_cartorio": "06", "lote_cartorio": "07", "matricula": "137083", "circunscricao": null, "zoneamento": null, "condominio": null, "area_geom": 534.94, "cnm": "062661.2.0137083-13" }, "geometry": { "type": "Polygon", "coordinates": [ [ [ -55.051789, -22.30261 ], [ -55.051904, -22.302945 ], [ -55.05177, -22.302972 ], [ -55.05166, -22.302649 ], [ -55.051789, -22.30261 ] ] ] } },
{ "type": "Feature", "properties": { "id": 125190, "insc_imob": "00.18.01.06.090", "quadra_cartorio": "06", "lote_cartorio": "09", "matricula": "137085", "circunscricao": null, "zoneamento": null, "condominio": null, "area_geom": 495.84, "cnm": "062661.2.0137085-07" }, "geometry": { "type": "Polygon", "coordinates": [ [ [ -55.05153, -22.302687 ], [ -55.051637, -22.302998 ], [ -55.051503, -22.303025 ], [ -55.051401, -22.302726 ], [ -55.05153, -22.302687 ] ] ] } },
{ "type": "Feature", "properties": { "id": 125191, "insc_imob": "00.18.01.08.100", "quadra_cartorio": "08", "lote_cartorio": "10", "matricula": "137103", "circunscricao": null, "zoneamento": null, "condominio": null, "area_geom": 569.53, "cnm": "062661.2.0137103-50" }, "geometry": { "type": "Polygon", "coordinates": [ [ [ -55.048741, -22.302273 ], [ -55.048863, -22.302328 ], [ -55.048691, -22.302658 ], [ -55.048569, -22.302603 ], [ -55.048741, -22.302273 ] ] ] } },
{ "type": "Feature", "properties": { "id": 125192, "insc_imob": "00.18.01.08.0A0", "quadra_cartorio": "08", "lote_cartorio": "A", "matricula": "164446", "circunscricao": null, "zoneamento": null, "condominio": null, "area_geom": 571.34, "cnm": "062661.2.0164446-83" }, "geometry": { "type": "Polygon", "coordinates": [ [ [ -55.049963, -22.302825 ], [ -55.050085, -22.30288 ], [ -55.049912, -22.303212 ], [ -55.04979, -22.303157 ], [ -55.049963, -22.302825 ] ] ] } }
]
}
