{
"type": "FeatureCollection",
"name": "lotes_fiscais",
"xy_coordinate_resolution": 1e-006,
"features": [
{ "type": "Feature", "properties": { "id": 82400, "insc_imob": "00.16.33.20.150", "quadra_cartorio": null, "lote_cartorio": "QUINHÃO II, III E V", "matricula": "160694", "circunscricao": "2º CIRCUNSCRIÇÃO", "zoneamento": "ZOE - ZONA DE OCUPAÇÃO ESPECIAL", "condominio": null, "area_geom": 37807.8, "cnm": "062661.2.0160694-87" }, "geometry": { "type": "Polygon", "coordinates": [ [ [ -54.926596, -22.212004 ], [ -54.926516, -22.212564 ], [ -54.926438, -22.2131 ], [ -54.923841, -22.212974 ], [ -54.924053, -22.211538 ], [ -54.926596, -22.212004 ] ] ] } },
{ "type": "Feature", "properties": { "id": 81796, "insc_imob": "00.16.31.60.", "quadra_cartorio": null, "lote_cartorio": null, "matricula": null, "circunscricao": "2º CIRCUNSCRIÇÃO", "zoneamento": "ZEIA - ZONA ESPECIAL DE INTERESSE AMBIENTAL", "condominio": null, "area_geom": 11109.42, "cnm": null }, "geometry": { "type": "Polygon", "coordinates": [ [ [ -54.920489, -22.211467 ], [ -54.920305, -22.211931 ], [ -54.918992, -22.211491 ], [ -54.917788, -22.211095 ], [ -54.917813, -22.211067 ], [ -54.917875, -22.211032 ], [ -54.917931, -22.211013 ], [ -54.918016, -22.211008 ], [ -54.918085, -22.211017 ], [ -54.91819, -22.211041 ], [ -54.918272, -22.211056 ], [ -54.918347, -22.211061 ], [ -54.918396, -22.211059 ], [ -54.918443, -22.211054 ], [ -54.918477, -22.211048 ], [ -54.918554, -22.211023 ], [ -54.918657, -22.210985 ], [ -54.918753, -22.210967 ], [ -54.918869, -22.210972 ], [ -54.918936, -22.210985 ], [ -54.918985, -22.211004 ], [ -54.919039, -22.211032 ], [ -54.919174, -22.211103 ], [ -54.91937, -22.211197 ], [ -54.919656, -22.211288 ], [ -54.919886, -22.211348 ], [ -54.920243, -22.21141 ], [ -54.920505, -22.211436 ], [ -54.920488, -22.211467 ], [ -54.920489, -22.211467 ] ] ] } },
{ "type": "Feature", "properties": { "id": 56605, "insc_imob": "00.16.22.01.010", "quadra_cartorio": null, "lote_cartorio": "P/QUINHAO", "matricula": "149974", "circunscricao": "2º CIRCUNSCRIÇÃO", "zoneamento": "ZOE - ZONA DE OCUPAÇÃO ESPECIAL", "condominio": null, "area_geom": 27936.73, "cnm": "062661.2.0149974-43" }, "geometry": { "type": "Polygon", "coordinates": [ [ [ -54.924635, -22.203908 ], [ -54.925319, -22.204672 ], [ -54.922088, -22.204727 ], [ -54.922064, -22.204795 ], [ -54.921453, -22.204018 ], [ -54.924635, -22.203908 ] ] ] } },
{ "type": "Feature", "properties": { "id": 82523, "insc_imob": "00.16.21.99.005", "quadra_cartorio": null, "lote_cartorio": "CHÁCARA MEU CANTINHO QUINHÃO A", "matricula": "17654-2RI", "circunscricao": "2º CIRCUNSCRIÇÃO", "zoneamento": "ZOE - ZONA DE OCUPAÇÃO ESPECIAL", "condominio": null, "area_geom": 22709.1, "cnm": "164368.2.0017654-05" }, "geometry": { "type": "Polygon", "coordinates": [ [ [ -54.915647, -22.202119 ], [ -54.915483, -22.200969 ], [ -54.917598, -22.200695 ], [ -54.918009, -22.201386 ], [ -54.916132, -22.201731 ], [ -54.916114, -22.202011 ], [ -54.915647, -22.202119 ] ] ] } },
{ "type": "Feature", "properties": { "id": 124014, "insc_imob": "00.16.13.01.020", "quadra_cartorio": "00", "lote_cartorio": "GLEBA B - P/ FAZENDA AZULÃO E COQUEIRO", "matricula": "11583-2RI", "circunscricao": "2º CIRCUNSCRIÇÃO", "zoneamento": "ZOE - ZONA DE OCUPAÇÃO ESPECIAL", "condominio": null, "area_geom": 101547.11, "cnm": "164368.2.0011583-79" }, "geometry": { "type": "Polygon", "coordinates": [ [ [ -54.932609, -22.201081 ], [ -54.929032, -22.196699 ], [ -54.928613, -22.196001 ], [ -54.928738, -22.195883 ], [ -54.929258, -22.195953 ], [ -54.932751, -22.196582 ], [ -54.932808, -22.196592 ], [ -54.932023, -22.199761 ], [ -54.932718, -22.20062 ], [ -54.932609, -22.201081 ] ] ] } },
{ "type": "Feature", "properties": { "id": 122315, "insc_imob": "00.16.12.13.011.000", "quadra_cartorio": null, "lote_cartorio": "ÁREA AB", "matricula": "154109", "circunscricao": null, "zoneamento": "ZOE - ZONA DE OCUPAÇÃO ESPECIAL", "condominio": null, "area_geom": 4624.83, "cnm": "062661.2.0154109-54" }, "geometry": { "type": "Polygon", "coordinates": [ [ [ -54.924362, -22.194581 ], [ -54.924875, -22.195165 ], [ -54.924875, -22.195165 ], [ -54.924465, -22.195483 ], [ -54.923946, -22.194894 ], [ -54.924362, -22.194581 ] ] ] } },
{ "type": "Feature", "properties": { "id": 123742, "insc_imob": "00.16.12.17.050.000", "quadra_cartorio": "P/ QUINHÃO VI", "lote_cartorio": "05", "matricula": "161717", "circunscricao": null, "zoneamento": "ZOE - ZONA DE OCUPAÇÃO ESPECIAL", "condominio": null, "area_geom": 750.0, "cnm": "062661.2.0161717-25" }, "geometry": { "type": "Polygon", "coordinates": [ [ [ -54.923637, -22.194828 ], [ -54.923413, -22.195 ], [ -54.923259, -22.194826 ], [ -54.923484, -22.194654 ], [ -54.923637, -22.194828 ] ] ] } },
{ "type": "Feature", "properties": { "id": 123737, "insc_imob": "00.16.12.15.030.000", "quadra_cartorio": "P/ QUINHÃO VI", "lote_cartorio": "03", "matricula": "161715", "circunscricao": null, "zoneamento": "ZOE - ZONA DE OCUPAÇÃO ESPECIAL", "condominio": null, "area_geom": 750.0, "cnm": "062661.2.0161715-31" }, "geometry": { "type": "Polygon", "coordinates": [ [ [ -54.923945, -22.195177 ], [ -54.92372, -22.195349 ], [ -54.923566, -22.195175 ], [ -54.923791, -22.195003 ], [ -54.923945, -22.195177 ] ] ] } },
{ "type": "Feature", "properties": { "id": 127199, "insc_imob": "00.16.41.01.001", "quadra_cartorio": null, "lote_cartorio": "FAZENDA COQUEIRO P/02", "matricula": "5894-2RI", "circunscricao": "2º CIRCUNSCRIÇÃO", "zoneamento": null, "condominio": null, "area_geom": 19998.02, "cnm": "164368.2.0005894-74" }, "geometry": { "type": "Polygon", "coordinates": [ [ [ -54.918879, -22.217339 ], [ -54.919524, -22.217528 ], [ -54.919256, -22.220334 ], [ -54.919219, -22.220335 ], [ -54.918931, -22.220427 ], [ -54.91874, -22.220542 ], [ -54.918826, -22.218269 ], [ -54.918878, -22.217368 ], [ -54.918879, -22.217339 ] ] ] } },
{ "type": "Feature", "properties": { "id": 124015, "insc_imob": "00.16.13.01.010", "quadra_cartorio": "00", "lote_cartorio": "GLEBA A - P/ FAZENDA AZULÃO E COQUEIRO ", "matricula": "11582-2RI", "circunscricao": "2º CIRCUNSCRIÇÃO", "zoneamento": "ZOE - ZONA DE OCUPAÇÃO ESPECIAL", "condominio": null, "area_geom": 779719.23, "cnm": "164368.2.0011582-82" }, "geometry": { "type": "Polygon", "coordinates": [ [ [ -54.932609, -22.201081 ], [ -54.932718, -22.20062 ], [ -54.932023, -22.199761 ], [ -54.932808, -22.196592 ], [ -54.932751, -22.196582 ], [ -54.929258, -22.195953 ], [ -54.928738, -22.195883 ], [ -54.928643, -22.195586 ], [ -54.928311, -22.195521 ], [ -54.928269, -22.195497 ], [ -54.92772, -22.194887 ], [ -54.927489, -22.194686 ], [ -54.927282, -22.19453 ], [ -54.927065, -22.194348 ], [ -54.92671, -22.194008 ], [ -54.92637, -22.193717 ], [ -54.926208, -22.193589 ], [ -54.925722, -22.193251 ], [ -54.925515, -22.1931 ], [ -54.925338, -22.192946 ], [ -54.925184, -22.192798 ], [ -54.925422, -22.192742 ], [ -54.925433, -22.192632 ], [ -54.940999, -22.195562 ], [ -54.941848, -22.200118 ], [ -54.932845, -22.20137 ], [ -54.932609, -22.201081 ] ] ] } },
{ "type": "Feature", "properties": { "id": 22734, "insc_imob": "00.16.12.20.010", "quadra_cartorio": null, "lote_cartorio": null, "matricula": "8817-2RI", "circunscricao": "2º CIRCUNSCRIÇÃO", "zoneamento": "ZOE - ZONA DE OCUPAÇÃO ESPECIAL", "condominio": null, "area_geom": 3022785.35, "cnm": "164368.2.0008817-35" }, "geometry": { "type": "Polygon", "coordinates": [ [ [ -54.915372, -22.193276 ], [ -54.921227, -22.192518 ], [ -54.921645, -22.192993 ], [ -54.922014, -22.193412 ], [ -54.922152, -22.193569 ], [ -54.922284, -22.193719 ], [ -54.922644, -22.194127 ], [ -54.922798, -22.194302 ], [ -54.923105, -22.194651 ], [ -54.923259, -22.194826 ], [ -54.923413, -22.195 ], [ -54.923566, -22.195175 ], [ -54.92372, -22.195349 ], [ -54.923904, -22.195559 ], [ -54.924089, -22.195768 ], [ -54.924314, -22.195596 ], [ -54.924465, -22.195483 ], [ -54.924877, -22.195167 ], [ -54.925481, -22.194709 ], [ -54.926293, -22.194094 ], [ -54.926776, -22.194593 ], [ -54.946827, -22.219052 ], [ -54.942385, -22.224014 ], [ -54.919201, -22.197634 ], [ -54.915372, -22.193276 ] ] ] } },
{ "type": "Feature", "properties": { "id": 123739, "insc_imob": "00.16.12.17.010.000", "quadra_cartorio": "P/ QUINHÃO VI", "lote_cartorio": "01", "matricula": "161713", "circunscricao": null, "zoneamento": "ZOE - ZONA DE OCUPAÇÃO ESPECIAL", "condominio": null, "area_geom": 900.0, "cnm": "062661.2.0161713-37" }, "geometry": { "type": "Polygon", "coordinates": [ [ [ -54.923904, -22.195559 ], [ -54.924129, -22.195387 ], [ -54.924314, -22.195596 ], [ -54.924089, -22.195768 ], [ -54.923904, -22.195559 ] ] ] } },
{ "type": "Feature", "properties": { "id": 123736, "insc_imob": "00.16.12.17.120.000", "quadra_cartorio": "P/ QUINHÃO VI", "lote_cartorio": "12", "matricula": "161724", "circunscricao": null, "zoneamento": "ZOE - ZONA DE OCUPAÇÃO ESPECIAL", "condominio": null, "area_geom": 1800.0, "cnm": "062661.2.0161724-04" }, "geometry": { "type": "Polygon", "coordinates": [ [ [ -54.922014, -22.193412 ], [ -54.921645, -22.192993 ], [ -54.92187, -22.192821 ], [ -54.922239, -22.19324 ], [ -54.922014, -22.193412 ] ] ] } },
{ "type": "Feature", "properties": { "id": 123735, "insc_imob": "00.16.12.17.130.000", "quadra_cartorio": "P/ QUINHÃO VI", "lote_cartorio": "13", "matricula": "161725", "circunscricao": null, "zoneamento": "ZOE - ZONA DE OCUPAÇÃO ESPECIAL", "condominio": null, "area_geom": 1770.13, "cnm": "062661.2.0161725-98" }, "geometry": { "type": "Polygon", "coordinates": [ [ [ -54.921227, -22.192518 ], [ -54.921563, -22.192472 ], [ -54.92187, -22.192821 ], [ -54.921645, -22.192993 ], [ -54.921227, -22.192518 ] ] ] } },
{ "type": "Feature", "properties": { "id": 123738, "insc_imob": "00.16.12.17.020.000", "quadra_cartorio": "P/ QUINHÃO VI", "lote_cartorio": "02", "matricula": "161714", "circunscricao": null, "zoneamento": "ZOE - ZONA DE OCUPAÇÃO ESPECIAL", "condominio": null, "area_geom": 900.0, "cnm": "062661.2.0161714-34" }, "geometry": { "type": "Polygon", "coordinates": [ [ [ -54.92372, -22.195349 ], [ -54.923945, -22.195177 ], [ -54.924016, -22.195258 ], [ -54.924129, -22.195387 ], [ -54.923904, -22.195559 ], [ -54.92372, -22.195349 ] ] ] } },
{ "type": "Feature", "properties": { "id": 123746, "insc_imob": "00.16.12.17.090.000", "quadra_cartorio": "P/ QUINHÃO VI", "lote_cartorio": "09", "matricula": "161721", "circunscricao": null, "zoneamento": "ZOE - ZONA DE OCUPAÇÃO ESPECIAL", "condominio": null, "area_geom": 1755.0, "cnm": "062661.2.0161721-13" }, "geometry": { "type": "Polygon", "coordinates": [ [ [ -54.922644, -22.194127 ], [ -54.922284, -22.193719 ], [ -54.922509, -22.193547 ], [ -54.922714, -22.19378 ], [ -54.922869, -22.193956 ], [ -54.922644, -22.194127 ] ] ] } },
{ "type": "Feature", "properties": { "id": 123740, "insc_imob": "00.16.12.17.070.000", "quadra_cartorio": "P/ QUINHÃO VI", "lote_cartorio": "07", "matricula": "161719", "circunscricao": null, "zoneamento": "ZOE - ZONA DE OCUPAÇÃO ESPECIAL", "condominio": null, "area_geom": 1500.0, "cnm": "062661.2.0161719-19" }, "geometry": { "type": "Polygon", "coordinates": [ [ [ -54.923105, -22.194651 ], [ -54.922798, -22.194302 ], [ -54.923023, -22.19413 ], [ -54.923248, -22.194386 ], [ -54.92333, -22.194479 ], [ -54.923105, -22.194651 ] ] ] } },
{ "type": "Feature", "properties": { "id": 123747, "insc_imob": "00.16.12.17.080.000", "quadra_cartorio": "P/ QUINHÃO VI", "lote_cartorio": "08", "matricula": "161720", "circunscricao": null, "zoneamento": "ZOE - ZONA DE OCUPAÇÃO ESPECIAL", "condominio": null, "area_geom": 750.0, "cnm": "062661.2.0161720-16" }, "geometry": { "type": "Polygon", "coordinates": [ [ [ -54.923023, -22.19413 ], [ -54.922798, -22.194302 ], [ -54.922644, -22.194127 ], [ -54.922869, -22.193956 ], [ -54.922938, -22.194034 ], [ -54.923023, -22.19413 ] ] ] } },
{ "type": "Feature", "properties": { "id": 123741, "insc_imob": "00.16.12.17.060.000", "quadra_cartorio": "P/ QUINHÃO VI", "lote_cartorio": "06", "matricula": "161718", "circunscricao": null, "zoneamento": "ZOE - ZONA DE OCUPAÇÃO ESPECIAL", "condominio": null, "area_geom": 750.0, "cnm": "062661.2.0161718-22" }, "geometry": { "type": "Polygon", "coordinates": [ [ [ -54.923484, -22.194654 ], [ -54.923259, -22.194826 ], [ -54.923105, -22.194651 ], [ -54.92333, -22.194479 ], [ -54.923408, -22.194568 ], [ -54.923484, -22.194654 ] ] ] } },
{ "type": "Feature", "properties": { "id": 123744, "insc_imob": "00.16.12.17.110.000", "quadra_cartorio": "P/ QUINHÃO VI", "lote_cartorio": "11", "matricula": "161723", "circunscricao": null, "zoneamento": "ZOE - ZONA DE OCUPAÇÃO ESPECIAL", "condominio": null, "area_geom": 675.0, "cnm": "062661.2.0161723-07" }, "geometry": { "type": "Polygon", "coordinates": [ [ [ -54.922152, -22.193569 ], [ -54.922014, -22.193412 ], [ -54.922239, -22.19324 ], [ -54.922298, -22.193308 ], [ -54.922377, -22.193397 ], [ -54.922152, -22.193569 ] ] ] } },
{ "type": "Feature", "properties": { "id": 123745, "insc_imob": "00.16.12.17.100.000", "quadra_cartorio": "P/ QUINHÃO VI", "lote_cartorio": "10", "matricula": "161722", "circunscricao": null, "zoneamento": "ZOE - ZONA DE OCUPAÇÃO ESPECIAL", "condominio": null, "area_geom": 645.0, "cnm": "062661.2.0161722-10" }, "geometry": { "type": "Polygon", "coordinates": [ [ [ -54.922284, -22.193719 ], [ -54.922152, -22.193569 ], [ -54.922377, -22.193397 ], [ -54.922403, -22.193427 ], [ -54.922509, -22.193547 ], [ -54.922284, -22.193719 ] ] ] } },
{ "type": "Feature", "properties": { "id": 127609, "insc_imob": "00.16.12.13.900.000", "quadra_cartorio": null, "lote_cartorio": "QUINHÃO VI", "matricula": "158621", "circunscricao": "2º CIRCUNSCRIÇÃO", "zoneamento": "ZOE - ZONA DE OCUPAÇÃO ESPECIAL", "condominio": null, "area_geom": 6160.86, "cnm": "062661.2.0158621-98" }, "geometry": { "type": "Polygon", "coordinates": [ [ [ -54.925798, -22.193745 ], [ -54.926293, -22.194094 ], [ -54.925481, -22.194709 ], [ -54.925479, -22.194708 ], [ -54.925111, -22.19429 ], [ -54.92511, -22.194289 ], [ -54.925798, -22.193745 ], [ -54.925798, -22.193745 ] ] ] } },
{ "type": "Feature", "properties": { "id": 32532, "insc_imob": "00.16.12.15.011.000", "quadra_cartorio": null, "lote_cartorio": "ÁREA B", "matricula": "133060", "circunscricao": "2º CIRCUNSCRIÇÃO", "zoneamento": "ZOE - ZONA DE OCUPAÇÃO ESPECIAL", "condominio": null, "area_geom": 8837.82, "cnm": "062661.2.0133060-54" }, "geometry": { "type": "Polygon", "coordinates": [ [ [ -54.921791, -22.192446 ], [ -54.924465, -22.195483 ], [ -54.924314, -22.195596 ], [ -54.924129, -22.195387 ], [ -54.924016, -22.195258 ], [ -54.923945, -22.195177 ], [ -54.923791, -22.195003 ], [ -54.923637, -22.194828 ], [ -54.923484, -22.194654 ], [ -54.923408, -22.194568 ], [ -54.92333, -22.194479 ], [ -54.923248, -22.194386 ], [ -54.923023, -22.19413 ], [ -54.922938, -22.194034 ], [ -54.922869, -22.193956 ], [ -54.922714, -22.19378 ], [ -54.922509, -22.193547 ], [ -54.922403, -22.193427 ], [ -54.922377, -22.193397 ], [ -54.922298, -22.193308 ], [ -54.922239, -22.19324 ], [ -54.92187, -22.192821 ], [ -54.921562, -22.192472 ], [ -54.921787, -22.192442 ], [ -54.921791, -22.192446 ] ] ] } },
{ "type": "Feature", "properties": { "id": 50422, "insc_imob": "00.16.12.13.060.000", "quadra_cartorio": null, "lote_cartorio": "QUINHÃO VI", "matricula": "158622", "circunscricao": "2º CIRCUNSCRIÇÃO", "zoneamento": "ZOE - ZONA DE OCUPAÇÃO ESPECIAL", "condominio": null, "area_geom": 63835.95, "cnm": "062661.2.0158622-95" }, "geometry": { "type": "Polygon", "coordinates": [ [ [ -54.925481, -22.194709 ], [ -54.924877, -22.195167 ], [ -54.924362, -22.194581 ], [ -54.923946, -22.194894 ], [ -54.921791, -22.192446 ], [ -54.922728, -22.192278 ], [ -54.924705, -22.192821 ], [ -54.925049, -22.193169 ], [ -54.925478, -22.193515 ], [ -54.925798, -22.193745 ], [ -54.925798, -22.193745 ], [ -54.92511, -22.194289 ], [ -54.925111, -22.19429 ], [ -54.925479, -22.194708 ], [ -54.925481, -22.194709 ] ] ] } },
{ "type": "Feature", "properties": { "id": 123743, "insc_imob": "00.16.12.17.040.000", "quadra_cartorio": "P/ QUINHÃO VI", "lote_cartorio": "04", "matricula": "161716", "circunscricao": null, "zoneamento": "ZOE - ZONA DE OCUPAÇÃO ESPECIAL", "condominio": null, "area_geom": 750.0, "cnm": "062661.2.0161716-28" }, "geometry": { "type": "Polygon", "coordinates": [ [ [ -54.923791, -22.195003 ], [ -54.923566, -22.195175 ], [ -54.923413, -22.195 ], [ -54.923637, -22.194828 ], [ -54.923791, -22.195003 ] ] ] } },
{ "type": "Feature", "properties": { "id": 129473, "insc_imob": "00.16.21.99.001", "quadra_cartorio": null, "lote_cartorio": "CHÁCARA MEU CANTINHO", "matricula": "16329-2RI", "circunscricao": "2º CIRCUNSCRIÇÃO", "zoneamento": null, "condominio": null, "area_geom": 97701.13, "cnm": "164368.2.0016329-03" }, "geometry": { "type": "Polygon", "coordinates": [ [ [ -54.918067, -22.201431 ], [ -54.917338, -22.205179 ], [ -54.917213, -22.205445 ], [ -54.916229, -22.204564 ], [ -54.915572, -22.20654 ], [ -54.914578, -22.206375 ], [ -54.914315, -22.205027 ], [ -54.915176, -22.204438 ], [ -54.915258, -22.20486 ], [ -54.916087, -22.204645 ], [ -54.915765, -22.204052 ], [ -54.91595, -22.203606 ], [ -54.915688, -22.202164 ], [ -54.916164, -22.20206 ], [ -54.916181, -22.201775 ], [ -54.918067, -22.201431 ] ] ] } },
{ "type": "Feature", "properties": { "id": 81761, "insc_imob": "00.16.31.80.300", "quadra_cartorio": null, "lote_cartorio": "QUINHÃO C", "matricula": "130152", "circunscricao": "2º CIRCUNSCRIÇÃO", "zoneamento": "ZEIA - ZONA ESPECIAL DE INTERESSE AMBIENTAL", "condominio": null, "area_geom": 23298.31, "cnm": "062661.2.0130152-48" }, "geometry": { "type": "Polygon", "coordinates": [ [ [ -54.918886, -22.207983 ], [ -54.918577, -22.208769 ], [ -54.916151, -22.208342 ], [ -54.916463, -22.207555 ], [ -54.918886, -22.207983 ] ] ] } },
{ "type": "Feature", "properties": { "id": 81762, "insc_imob": "00.16.31.70.500", "quadra_cartorio": null, "lote_cartorio": "QUINHÃO 1000A", "matricula": "132750", "circunscricao": "2º CIRCUNSCRIÇÃO", "zoneamento": "ZEIA - ZONA ESPECIAL DE INTERESSE AMBIENTAL", "condominio": null, "area_geom": 22917.14, "cnm": "062661.2.0132750-14" }, "geometry": { "type": "Polygon", "coordinates": [ [ [ -54.918248, -22.209609 ], [ -54.91792, -22.210443 ], [ -54.91792, -22.210443 ], [ -54.916899, -22.210099 ], [ -54.915625, -22.209673 ], [ -54.915907, -22.208961 ], [ -54.918248, -22.209609 ] ] ] } },
{ "type": "Feature", "properties": { "id": 81763, "insc_imob": "00.16.31.60.700", "quadra_cartorio": null, "lote_cartorio": "QUINHÃO 700", "matricula": "116396", "circunscricao": "2º CIRCUNSCRIÇÃO", "zoneamento": "ZEIA - ZONA ESPECIAL DE INTERESSE AMBIENTAL", "condominio": null, "area_geom": 18294.7, "cnm": "062661.2.0116396-91" }, "geometry": { "type": "Polygon", "coordinates": [ [ [ -54.920305, -22.211931 ], [ -54.919879, -22.213009 ], [ -54.918566, -22.212568 ], [ -54.918992, -22.211491 ], [ -54.920305, -22.211931 ] ] ] } },
{ "type": "Feature", "properties": { "id": 81764, "insc_imob": "00.16.31.60.600", "quadra_cartorio": null, "lote_cartorio": "QUINHÃO 600", "matricula": "116395", "circunscricao": "2º CIRCUNSCRIÇÃO", "zoneamento": "ZEIA - ZONA ESPECIAL DE INTERESSE AMBIENTAL", "condominio": null, "area_geom": 16719.51, "cnm": "062661.2.0116395-94" }, "geometry": { "type": "Polygon", "coordinates": [ [ [ -54.917367, -22.212166 ], [ -54.917788, -22.211095 ], [ -54.917792, -22.21109 ], [ -54.918992, -22.211491 ], [ -54.918566, -22.212568 ], [ -54.917703, -22.212279 ], [ -54.917367, -22.212166 ] ] ] } },
{ "type": "Feature", "properties": { "id": 81765, "insc_imob": "00.16.31.30.300", "quadra_cartorio": null, "lote_cartorio": "QUINHÃO 03C", "matricula": "72756", "circunscricao": "2º CIRCUNSCRIÇÃO", "zoneamento": "ZEIA - ZONA ESPECIAL DE INTERESSE AMBIENTAL", "condominio": null, "area_geom": 22285.23, "cnm": "062661.2.0072756-61" }, "geometry": { "type": "Polygon", "coordinates": [ [ [ -54.917258, -22.212129 ], [ -54.916236, -22.211787 ], [ -54.916899, -22.210099 ], [ -54.91792, -22.210443 ], [ -54.917258, -22.212129 ] ] ] } },
{ "type": "Feature", "properties": { "id": 81766, "insc_imob": "00.16.31.30.200", "quadra_cartorio": null, "lote_cartorio": "QUINHÃO 03D", "matricula": "72758", "circunscricao": "2º CIRCUNSCRIÇÃO", "zoneamento": "ZEIA - ZONA ESPECIAL DE INTERESSE AMBIENTAL", "condominio": null, "area_geom": 23734.73, "cnm": "062661.2.0072758-55" }, "geometry": { "type": "Polygon", "coordinates": [ [ [ -54.916899, -22.210099 ], [ -54.916236, -22.211787 ], [ -54.916107, -22.212115 ], [ -54.915197, -22.211809 ], [ -54.915986, -22.209794 ], [ -54.916899, -22.210099 ] ] ] } },
{ "type": "Feature", "properties": { "id": 81767, "insc_imob": "00.16.31.30.100", "quadra_cartorio": null, "lote_cartorio": "QUINHÃO 03B", "matricula": "72757", "circunscricao": "2º CIRCUNSCRIÇÃO", "zoneamento": "ZEIA - ZONA ESPECIAL DE INTERESSE AMBIENTAL", "condominio": null, "area_geom": 23828.64, "cnm": "062661.2.0072757-58" }, "geometry": { "type": "Polygon", "coordinates": [ [ [ -54.915986, -22.209794 ], [ -54.915269, -22.211625 ], [ -54.915197, -22.211809 ], [ -54.914285, -22.211502 ], [ -54.915063, -22.209498 ], [ -54.915067, -22.209486 ], [ -54.915625, -22.209673 ], [ -54.915986, -22.209794 ] ] ] } },
{ "type": "Feature", "properties": { "id": 81768, "insc_imob": "00.16.31.20.100", "quadra_cartorio": null, "lote_cartorio": "QUINHÃO 02A", "matricula": "70413", "circunscricao": "2º CIRCUNSCRIÇÃO", "zoneamento": "ZEIA - ZONA ESPECIAL DE INTERESSE AMBIENTAL", "condominio": null, "area_geom": 19948.69, "cnm": "062661.2.0070413-09" }, "geometry": { "type": "Polygon", "coordinates": [ [ [ -54.916063, -22.212218 ], [ -54.915732, -22.213067 ], [ -54.913911, -22.212458 ], [ -54.914243, -22.21161 ], [ -54.916063, -22.212218 ] ] ] } },
{ "type": "Feature", "properties": { "id": 81769, "insc_imob": "00.16.31.20.200", "quadra_cartorio": null, "lote_cartorio": "QUINHÃO 02B", "matricula": "70414", "circunscricao": "2º CIRCUNSCRIÇÃO", "zoneamento": "ZEIA - ZONA ESPECIAL DE INTERESSE AMBIENTAL", "condominio": null, "area_geom": 19956.4, "cnm": "062661.2.0070414-06" }, "geometry": { "type": "Polygon", "coordinates": [ [ [ -54.915402, -22.213916 ], [ -54.913581, -22.213308 ], [ -54.913911, -22.212458 ], [ -54.915732, -22.213067 ], [ -54.915402, -22.213916 ] ] ] } },
{ "type": "Feature", "properties": { "id": 81770, "insc_imob": "00.16.31.20.300", "quadra_cartorio": null, "lote_cartorio": "QUINHÃO 02C", "matricula": "70415", "circunscricao": "2º CIRCUNSCRIÇÃO", "zoneamento": "ZEIA - ZONA ESPECIAL DE INTERESSE AMBIENTAL", "condominio": null, "area_geom": 19936.39, "cnm": "062661.2.0070415-03" }, "geometry": { "type": "Polygon", "coordinates": [ [ [ -54.915402, -22.213916 ], [ -54.915072, -22.214765 ], [ -54.913253, -22.214156 ], [ -54.913581, -22.213308 ], [ -54.915402, -22.213916 ] ] ] } },
{ "type": "Feature", "properties": { "id": 81771, "insc_imob": "00.16.31.20.400", "quadra_cartorio": null, "lote_cartorio": "QUINHÃO 02D", "matricula": "70416", "circunscricao": "2º CIRCUNSCRIÇÃO", "zoneamento": "ZEIA - ZONA ESPECIAL DE INTERESSE AMBIENTAL", "condominio": null, "area_geom": 19974.09, "cnm": "062661.2.0070416-97" }, "geometry": { "type": "Polygon", "coordinates": [ [ [ -54.913252, -22.214157 ], [ -54.915072, -22.214765 ], [ -54.914742, -22.215614 ], [ -54.912915, -22.215004 ], [ -54.913252, -22.214157 ] ] ] } },
{ "type": "Feature", "properties": { "id": 81772, "insc_imob": "00.16.31.50.400", "quadra_cartorio": null, "lote_cartorio": "QUINHÃO 400", "matricula": "116393", "circunscricao": "2º CIRCUNSCRIÇÃO", "zoneamento": "ZEIA - ZONA ESPECIAL DE INTERESSE AMBIENTAL", "condominio": null, "area_geom": 19869.85, "cnm": "062661.2.0116393-03" }, "geometry": { "type": "Polygon", "coordinates": [ [ [ -54.920718, -22.21329 ], [ -54.920521, -22.214243 ], [ -54.920364, -22.214912 ], [ -54.919206, -22.215136 ], [ -54.920011, -22.213053 ], [ -54.920718, -22.21329 ] ] ] } },
{ "type": "Feature", "properties": { "id": 81773, "insc_imob": "00.16.31.50.300", "quadra_cartorio": null, "lote_cartorio": "QUINHÃO 300", "matricula": "116392", "circunscricao": "2º CIRCUNSCRIÇÃO", "zoneamento": "ZEIA - ZONA ESPECIAL DE INTERESSE AMBIENTAL", "condominio": null, "area_geom": 23644.3, "cnm": "062661.2.0116392-06" }, "geometry": { "type": "Polygon", "coordinates": [ [ [ -54.919972, -22.213155 ], [ -54.919206, -22.215136 ], [ -54.918194, -22.215331 ], [ -54.919147, -22.212878 ], [ -54.919972, -22.213155 ] ] ] } },
{ "type": "Feature", "properties": { "id": 81774, "insc_imob": "00.16.31.50.200", "quadra_cartorio": null, "lote_cartorio": "QUINHÃO 200", "matricula": "116391", "circunscricao": "2º CIRCUNSCRIÇÃO", "zoneamento": "ZEIA - ZONA ESPECIAL DE INTERESSE AMBIENTAL", "condominio": null, "area_geom": 20000.0, "cnm": "062661.2.0116391-09" }, "geometry": { "type": "Polygon", "coordinates": [ [ [ -54.918487, -22.214576 ], [ -54.917575, -22.21427 ], [ -54.918235, -22.212572 ], [ -54.919147, -22.212878 ], [ -54.918487, -22.214576 ] ] ] } },
{ "type": "Feature", "properties": { "id": 81775, "insc_imob": "00.16.31.50.100", "quadra_cartorio": null, "lote_cartorio": "QUINHÃO 100", "matricula": "79929", "circunscricao": "2º CIRCUNSCRIÇÃO", "zoneamento": "ZEIA - ZONA ESPECIAL DE INTERESSE AMBIENTAL", "condominio": null, "area_geom": 20000.05, "cnm": "062661.2.0079929-76" }, "geometry": { "type": "Polygon", "coordinates": [ [ [ -54.918235, -22.212572 ], [ -54.917575, -22.21427 ], [ -54.916662, -22.213964 ], [ -54.917323, -22.212266 ], [ -54.918235, -22.212572 ] ] ] } },
{ "type": "Feature", "properties": { "id": 81776, "insc_imob": "00.16.31.50.500", "quadra_cartorio": null, "lote_cartorio": "QUINHÃO 500", "matricula": "116394", "circunscricao": "2º CIRCUNSCRIÇÃO", "zoneamento": "ZEIA - ZONA ESPECIAL DE INTERESSE AMBIENTAL", "condominio": null, "area_geom": 32503.75, "cnm": "062661.2.0116394-97" }, "geometry": { "type": "Polygon", "coordinates": [ [ [ -54.918487, -22.214576 ], [ -54.918194, -22.215331 ], [ -54.915829, -22.215788 ], [ -54.916513, -22.21403 ], [ -54.916623, -22.214066 ], [ -54.916662, -22.213964 ], [ -54.918487, -22.214576 ] ] ] } },
{ "type": "Feature", "properties": { "id": 81780, "insc_imob": "00.16.31.50.600", "quadra_cartorio": null, "lote_cartorio": "QUINHÃO X", "matricula": "77396", "circunscricao": "2º CIRCUNSCRIÇÃO", "zoneamento": "ZEIA - ZONA ESPECIAL DE INTERESSE AMBIENTAL", "condominio": null, "area_geom": 23761.3, "cnm": "062661.2.0077396-12" }, "geometry": { "type": "Polygon", "coordinates": [ [ [ -54.914716, -22.215999 ], [ -54.915601, -22.213724 ], [ -54.916513, -22.21403 ], [ -54.915829, -22.215788 ], [ -54.914716, -22.215999 ] ] ] } },
{ "type": "Feature", "properties": { "id": 81781, "insc_imob": "00.16.31.40.100", "quadra_cartorio": null, "lote_cartorio": "QUINHÃO Y", "matricula": "77395", "circunscricao": "2º CIRCUNSCRIÇÃO", "zoneamento": "ZEIA - ZONA ESPECIAL DE INTERESSE AMBIENTAL", "condominio": null, "area_geom": 20000.03, "cnm": "062661.2.0077395-15" }, "geometry": { "type": "Polygon", "coordinates": [ [ [ -54.917213, -22.21223 ], [ -54.916553, -22.213928 ], [ -54.915641, -22.213622 ], [ -54.916301, -22.211924 ], [ -54.917213, -22.21223 ] ] ] } },
{ "type": "Feature", "properties": { "id": 81782, "insc_imob": "00.16.31.20.500", "quadra_cartorio": null, "lote_cartorio": "QUINHÃO 02", "matricula": "70417", "circunscricao": "2º CIRCUNSCRIÇÃO", "zoneamento": "ZEIA - ZONA ESPECIAL DE INTERESSE AMBIENTAL", "condominio": null, "area_geom": 21958.52, "cnm": "062661.2.0070417-94" }, "geometry": { "type": "Polygon", "coordinates": [ [ [ -54.914742, -22.215614 ], [ -54.914582, -22.216025 ], [ -54.91234, -22.21645 ], [ -54.912915, -22.215004 ], [ -54.914742, -22.215614 ] ] ] } },
{ "type": "Feature", "properties": { "id": 81783, "insc_imob": "00.16.31.10.600", "quadra_cartorio": null, "lote_cartorio": "QUINHÃO 01", "matricula": "70423", "circunscricao": "2º CIRCUNSCRIÇÃO", "zoneamento": "ZEIA - ZONA ESPECIAL DE INTERESSE AMBIENTAL", "condominio": null, "area_geom": 21086.16, "cnm": "062661.2.0070423-76" }, "geometry": { "type": "Polygon", "coordinates": [ [ [ -54.910549, -22.216789 ], [ -54.910553, -22.216771 ], [ -54.910557, -22.216757 ], [ -54.910563, -22.216732 ], [ -54.910585, -22.216651 ], [ -54.910603, -22.21659 ], [ -54.910615, -22.216554 ], [ -54.910635, -22.21649 ], [ -54.910653, -22.21644 ], [ -54.910663, -22.21641 ], [ -54.910674, -22.216381 ], [ -54.910683, -22.216353 ], [ -54.910703, -22.216299 ], [ -54.910718, -22.216259 ], [ -54.91073, -22.216227 ], [ -54.910741, -22.216197 ], [ -54.910755, -22.216157 ], [ -54.910767, -22.216125 ], [ -54.910781, -22.216085 ], [ -54.910797, -22.21604 ], [ -54.910808, -22.216009 ], [ -54.910813, -22.215997 ], [ -54.910827, -22.215953 ], [ -54.910842, -22.21591 ], [ -54.910846, -22.215897 ], [ -54.910851, -22.215882 ], [ -54.910855, -22.21587 ], [ -54.910858, -22.215859 ], [ -54.910861, -22.21585 ], [ -54.910865, -22.215838 ], [ -54.910869, -22.215826 ], [ -54.910887, -22.215766 ], [ -54.910908, -22.215693 ], [ -54.910928, -22.215621 ], [ -54.910947, -22.215548 ], [ -54.910961, -22.215489 ], [ -54.910998, -22.215327 ], [ -54.91102, -22.215214 ], [ -54.912507, -22.215719 ], [ -54.912206, -22.216475 ], [ -54.910549, -22.216789 ] ] ] } },
{ "type": "Feature", "properties": { "id": 81784, "insc_imob": "00.16.31.10.500", "quadra_cartorio": null, "lote_cartorio": "QUINHÃO E", "matricula": "70422", "circunscricao": "2º CIRCUNSCRIÇÃO", "zoneamento": "ZEIA - ZONA ESPECIAL DE INTERESSE AMBIENTAL", "condominio": null, "area_geom": 20732.23, "cnm": "062661.2.0070422-79" }, "geometry": { "type": "Polygon", "coordinates": [ [ [ -54.912507, -22.215719 ], [ -54.91102, -22.215214 ], [ -54.911031, -22.215152 ], [ -54.91104, -22.215097 ], [ -54.911051, -22.215032 ], [ -54.911059, -22.214981 ], [ -54.911063, -22.214958 ], [ -54.911068, -22.214929 ], [ -54.911074, -22.214896 ], [ -54.911078, -22.21487 ], [ -54.911086, -22.214829 ], [ -54.911092, -22.214794 ], [ -54.911101, -22.214749 ], [ -54.911109, -22.21471 ], [ -54.911116, -22.214682 ], [ -54.911123, -22.21465 ], [ -54.911134, -22.214604 ], [ -54.91114, -22.214581 ], [ -54.911148, -22.214555 ], [ -54.911159, -22.214515 ], [ -54.911168, -22.214487 ], [ -54.911177, -22.214462 ], [ -54.911183, -22.214442 ], [ -54.911189, -22.214426 ], [ -54.911196, -22.214407 ], [ -54.911205, -22.214385 ], [ -54.911212, -22.214365 ], [ -54.911218, -22.214352 ], [ -54.911229, -22.214326 ], [ -54.91124, -22.214301 ], [ -54.911255, -22.214272 ], [ -54.91128, -22.214224 ], [ -54.911317, -22.214162 ], [ -54.912911, -22.214703 ], [ -54.912806, -22.214967 ], [ -54.912507, -22.215719 ] ] ] } },
{ "type": "Feature", "properties": { "id": 81785, "insc_imob": "00.16.31.10.400", "quadra_cartorio": null, "lote_cartorio": "QUINHÃO D", "matricula": "70421", "circunscricao": "2º CIRCUNSCRIÇÃO", "zoneamento": "ZEIA - ZONA ESPECIAL DE INTERESSE AMBIENTAL", "condominio": null, "area_geom": 19917.73, "cnm": "062661.2.0070421-82" }, "geometry": { "type": "Polygon", "coordinates": [ [ [ -54.913344, -22.2136 ], [ -54.913143, -22.21412 ], [ -54.912911, -22.214703 ], [ -54.911317, -22.214162 ], [ -54.911355, -22.214105 ], [ -54.911411, -22.214034 ], [ -54.911452, -22.213986 ], [ -54.911517, -22.213916 ], [ -54.911581, -22.213851 ], [ -54.911651, -22.21378 ], [ -54.911718, -22.213713 ], [ -54.911832, -22.213592 ], [ -54.911884, -22.213532 ], [ -54.911956, -22.213438 ], [ -54.912005, -22.213367 ], [ -54.912062, -22.21327 ], [ -54.912105, -22.21318 ], [ -54.913344, -22.2136 ] ] ] } },
{ "type": "Feature", "properties": { "id": 81786, "insc_imob": "00.16.31.10.300", "quadra_cartorio": null, "lote_cartorio": "QUINHÃO C", "matricula": "70420", "circunscricao": "2º CIRCUNSCRIÇÃO", "zoneamento": "ZEIA - ZONA ESPECIAL DE INTERESSE AMBIENTAL", "condominio": null, "area_geom": 22422.42, "cnm": "062661.2.0070420-85" }, "geometry": { "type": "Polygon", "coordinates": [ [ [ -54.912183, -22.212929 ], [ -54.912188, -22.212932 ], [ -54.912215, -22.212888 ], [ -54.912198, -22.212868 ], [ -54.912202, -22.212851 ], [ -54.912215, -22.212798 ], [ -54.912241, -22.212704 ], [ -54.912257, -22.212652 ], [ -54.912273, -22.212609 ], [ -54.912303, -22.212539 ], [ -54.912324, -22.212493 ], [ -54.912377, -22.212399 ], [ -54.912401, -22.21236 ], [ -54.912407, -22.212351 ], [ -54.912425, -22.212324 ], [ -54.912462, -22.212267 ], [ -54.912508, -22.212199 ], [ -54.912558, -22.212124 ], [ -54.912613, -22.212036 ], [ -54.912641, -22.211987 ], [ -54.912677, -22.211917 ], [ -54.9127, -22.211864 ], [ -54.912712, -22.211834 ], [ -54.912722, -22.211804 ], [ -54.913888, -22.212199 ], [ -54.913344, -22.2136 ], [ -54.912105, -22.21318 ], [ -54.91212, -22.213142 ], [ -54.912135, -22.213098 ], [ -54.91215, -22.21305 ], [ -54.912175, -22.212958 ], [ -54.912183, -22.212929 ] ] ] } },
{ "type": "Feature", "properties": { "id": 81787, "insc_imob": "00.16.31.10.200", "quadra_cartorio": null, "lote_cartorio": "QUINHÃO B", "matricula": "70419", "circunscricao": "2º CIRCUNSCRIÇÃO", "zoneamento": "ZEIA - ZONA ESPECIAL DE INTERESSE AMBIENTAL", "condominio": null, "area_geom": 20725.02, "cnm": "062661.2.0070419-88" }, "geometry": { "type": "Polygon", "coordinates": [ [ [ -54.913888, -22.212199 ], [ -54.912722, -22.211804 ], [ -54.912738, -22.211743 ], [ -54.91275, -22.21169 ], [ -54.912755, -22.211662 ], [ -54.912762, -22.211616 ], [ -54.912767, -22.211568 ], [ -54.912772, -22.211525 ], [ -54.912776, -22.211476 ], [ -54.91278, -22.211433 ], [ -54.912786, -22.211357 ], [ -54.912789, -22.21133 ], [ -54.912793, -22.211294 ], [ -54.912802, -22.211225 ], [ -54.912807, -22.211194 ], [ -54.912816, -22.21115 ], [ -54.91283, -22.211092 ], [ -54.912844, -22.211051 ], [ -54.912854, -22.211021 ], [ -54.912864, -22.210996 ], [ -54.912878, -22.210962 ], [ -54.912894, -22.210928 ], [ -54.912915, -22.210884 ], [ -54.912935, -22.210847 ], [ -54.912959, -22.210803 ], [ -54.912989, -22.21075 ], [ -54.913009, -22.210715 ], [ -54.913028, -22.210683 ], [ -54.913067, -22.210616 ], [ -54.913096, -22.210565 ], [ -54.913126, -22.210509 ], [ -54.914383, -22.210935 ], [ -54.913888, -22.212199 ] ] ] } },
{ "type": "Feature", "properties": { "id": 81788, "insc_imob": "00.16.31.10.100", "quadra_cartorio": null, "lote_cartorio": "QUINHÃO A", "matricula": "70418", "circunscricao": "2º CIRCUNSCRIÇÃO", "zoneamento": "ZEIA - ZONA ESPECIAL DE INTERESSE AMBIENTAL", "condominio": null, "area_geom": 21198.45, "cnm": "062661.2.0070418-91" }, "geometry": { "type": "Polygon", "coordinates": [ [ [ -54.914964, -22.209452 ], [ -54.914383, -22.210935 ], [ -54.913126, -22.210509 ], [ -54.913131, -22.210499 ], [ -54.913154, -22.210453 ], [ -54.913169, -22.210421 ], [ -54.913184, -22.21039 ], [ -54.913194, -22.210368 ], [ -54.913206, -22.210342 ], [ -54.913213, -22.210326 ], [ -54.913228, -22.210293 ], [ -54.913237, -22.210272 ], [ -54.913249, -22.210247 ], [ -54.913261, -22.21022 ], [ -54.913268, -22.210203 ], [ -54.913279, -22.210181 ], [ -54.913296, -22.210143 ], [ -54.913301, -22.210134 ], [ -54.913314, -22.210105 ], [ -54.913327, -22.210081 ], [ -54.913334, -22.210065 ], [ -54.913351, -22.210034 ], [ -54.91337, -22.209999 ], [ -54.913382, -22.209978 ], [ -54.913397, -22.209954 ], [ -54.913409, -22.209933 ], [ -54.913432, -22.209899 ], [ -54.913452, -22.20987 ], [ -54.913465, -22.209853 ], [ -54.913478, -22.209837 ], [ -54.9135, -22.209809 ], [ -54.913529, -22.209777 ], [ -54.913546, -22.209758 ], [ -54.913553, -22.209751 ], [ -54.91358, -22.209724 ], [ -54.913601, -22.209704 ], [ -54.91361, -22.209695 ], [ -54.913631, -22.209677 ], [ -54.913654, -22.209656 ], [ -54.913671, -22.209641 ], [ -54.913684, -22.20963 ], [ -54.913707, -22.209611 ], [ -54.913734, -22.209588 ], [ -54.913767, -22.209561 ], [ -54.913797, -22.209535 ], [ -54.91388, -22.209465 ], [ -54.913969, -22.209382 ], [ -54.914008, -22.20934 ], [ -54.91404, -22.209302 ], [ -54.914065, -22.209269 ], [ -54.914084, -22.20924 ], [ -54.914097, -22.209217 ], [ -54.914111, -22.209193 ], [ -54.914119, -22.209174 ], [ -54.914122, -22.209166 ], [ -54.914964, -22.209452 ] ] ] } },
{ "type": "Feature", "properties": { "id": 81794, "insc_imob": "00.16.31.", "quadra_cartorio": null, "lote_cartorio": null, "matricula": "112353", "circunscricao": "2º CIRCUNSCRIÇÃO", "zoneamento": "ZEIA - ZONA ESPECIAL DE INTERESSE AMBIENTAL", "condominio": null, "area_geom": 58307.25, "cnm": "062661.2.0112353-95" }, "geometry": { "type": "Polygon", "coordinates": [ [ [ -54.916752, -22.206822 ], [ -54.915625, -22.209673 ], [ -54.914122, -22.209166 ], [ -54.914129, -22.209149 ], [ -54.914135, -22.209135 ], [ -54.914135, -22.209135 ], [ -54.914139, -22.20912 ], [ -54.914144, -22.209099 ], [ -54.914149, -22.209082 ], [ -54.914153, -22.209067 ], [ -54.914155, -22.209055 ], [ -54.914159, -22.209023 ], [ -54.914161, -22.209009 ], [ -54.914163, -22.208996 ], [ -54.914165, -22.208973 ], [ -54.914166, -22.208946 ], [ -54.914168, -22.208922 ], [ -54.914168, -22.208907 ], [ -54.914167, -22.208891 ], [ -54.914167, -22.208868 ], [ -54.914167, -22.208846 ], [ -54.914166, -22.208823 ], [ -54.914165, -22.208801 ], [ -54.914164, -22.208768 ], [ -54.914163, -22.208748 ], [ -54.914161, -22.208723 ], [ -54.914159, -22.208687 ], [ -54.914157, -22.208663 ], [ -54.914155, -22.20863 ], [ -54.914154, -22.208612 ], [ -54.914153, -22.208582 ], [ -54.914152, -22.208565 ], [ -54.914151, -22.208541 ], [ -54.914151, -22.208512 ], [ -54.914151, -22.208491 ], [ -54.914151, -22.208457 ], [ -54.914153, -22.208428 ], [ -54.914155, -22.208399 ], [ -54.914156, -22.208381 ], [ -54.914159, -22.20836 ], [ -54.914163, -22.208338 ], [ -54.914165, -22.20832 ], [ -54.914167, -22.208307 ], [ -54.914173, -22.208285 ], [ -54.914181, -22.208252 ], [ -54.914185, -22.208235 ], [ -54.914189, -22.208224 ], [ -54.914203, -22.208185 ], [ -54.914209, -22.208165 ], [ -54.914219, -22.208142 ], [ -54.914239, -22.208097 ], [ -54.914239, -22.208097 ], [ -54.914258, -22.208059 ], [ -54.914272, -22.20803 ], [ -54.914296, -22.207989 ], [ -54.91431, -22.207964 ], [ -54.91433, -22.20793 ], [ -54.91435, -22.207898 ], [ -54.914366, -22.207873 ], [ -54.914391, -22.207833 ], [ -54.914419, -22.20779 ], [ -54.914434, -22.207768 ], [ -54.914462, -22.207725 ], [ -54.914484, -22.207691 ], [ -54.914507, -22.207654 ], [ -54.914547, -22.20759 ], [ -54.914576, -22.207539 ], [ -54.914604, -22.207487 ], [ -54.914632, -22.207432 ], [ -54.914652, -22.207385 ], [ -54.914669, -22.20734 ], [ -54.914688, -22.207288 ], [ -54.914703, -22.207233 ], [ -54.914726, -22.207156 ], [ -54.914743, -22.207102 ], [ -54.914757, -22.207061 ], [ -54.914769, -22.207033 ], [ -54.914797, -22.206978 ], [ -54.914822, -22.206937 ], [ -54.914845, -22.20691 ], [ -54.91487, -22.20688 ], [ -54.914915, -22.206839 ], [ -54.914958, -22.206805 ], [ -54.914989, -22.206782 ], [ -54.915011, -22.206766 ], [ -54.915062, -22.206732 ], [ -54.915123, -22.206692 ], [ -54.915183, -22.206652 ], [ -54.915235, -22.206615 ], [ -54.915296, -22.206567 ], [ -54.916752, -22.206822 ] ] ] } },
{ "type": "Feature", "properties": { "id": 81795, "insc_imob": "00.16.31.60.800", "quadra_cartorio": null, "lote_cartorio": "QUINHÃO 800", "matricula": "116397", "circunscricao": "2º CIRCUNSCRIÇÃO", "zoneamento": "ZEIA - ZONA ESPECIAL DE INTERESSE AMBIENTAL", "condominio": null, "area_geom": 19525.95, "cnm": "062661.2.0116397-88" }, "geometry": { "type": "Polygon", "coordinates": [ [ [ -54.921338, -22.2114 ], [ -54.921339, -22.211405 ], [ -54.92134, -22.211411 ], [ -54.921341, -22.211417 ], [ -54.921342, -22.211423 ], [ -54.921342, -22.211429 ], [ -54.921342, -22.211435 ], [ -54.921341, -22.211441 ], [ -54.921341, -22.211448 ], [ -54.92134, -22.211454 ], [ -54.921261, -22.211973 ], [ -54.921143, -22.212753 ], [ -54.921129, -22.212848 ], [ -54.920853, -22.212824 ], [ -54.920761, -22.213217 ], [ -54.920734, -22.213215 ], [ -54.920718, -22.21329 ], [ -54.919879, -22.213009 ], [ -54.920488, -22.211468 ], [ -54.921338, -22.2114 ] ] ] } },
{ "type": "Feature", "properties": { "id": 82930, "insc_imob": "00.16.31.80.400", "quadra_cartorio": null, "lote_cartorio": "QUINHÃO D", "matricula": "130153", "circunscricao": "2º CIRCUNSCRIÇÃO", "zoneamento": "ZEIA - ZONA ESPECIAL DE INTERESSE AMBIENTAL", "condominio": null, "area_geom": 29137.66, "cnm": "062661.2.0130153-45" }, "geometry": { "type": "Polygon", "coordinates": [ [ [ -54.921831, -22.208502 ], [ -54.921709, -22.20932 ], [ -54.918577, -22.208769 ], [ -54.918886, -22.207983 ], [ -54.921831, -22.208502 ] ] ] } },
{ "type": "Feature", "properties": { "id": 82931, "insc_imob": "00.16.31.70.400", "quadra_cartorio": null, "lote_cartorio": "QUINHÃO 900C", "matricula": "118997", "circunscricao": "2º CIRCUNSCRIÇÃO", "zoneamento": "ZEIA - ZONA ESPECIAL DE INTERESSE AMBIENTAL", "condominio": null, "area_geom": 14367.07, "cnm": "062661.2.0118997-48" }, "geometry": { "type": "Polygon", "coordinates": [ [ [ -54.918378, -22.210969 ], [ -54.918367, -22.21097 ], [ -54.918348, -22.210971 ], [ -54.918285, -22.210967 ], [ -54.918272, -22.210964 ], [ -54.918103, -22.210928 ], [ -54.91802, -22.210917 ], [ -54.917911, -22.210924 ], [ -54.917846, -22.210946 ], [ -54.918031, -22.210477 ], [ -54.91792, -22.210443 ], [ -54.91792, -22.210443 ], [ -54.91792, -22.210443 ], [ -54.918577, -22.208769 ], [ -54.919119, -22.208864 ], [ -54.918378, -22.210969 ] ] ] } },
{ "type": "Feature", "properties": { "id": 82932, "insc_imob": "00.16.31.80.100", "quadra_cartorio": null, "lote_cartorio": "QUINHÃO A", "matricula": "130150", "circunscricao": "2º CIRCUNSCRIÇÃO", "zoneamento": "ZEIA - ZONA ESPECIAL DE INTERESSE AMBIENTAL", "condominio": null, "area_geom": 25703.33, "cnm": "062661.2.0130150-54" }, "geometry": { "type": "Polygon", "coordinates": [ [ [ -54.918886, -22.207983 ], [ -54.919175, -22.207247 ], [ -54.921946, -22.207734 ], [ -54.921831, -22.208502 ], [ -54.918886, -22.207983 ] ] ] } },
{ "type": "Feature", "properties": { "id": 82933, "insc_imob": "00.16.31.80.200", "quadra_cartorio": null, "lote_cartorio": "QUINHÃO B", "matricula": "130151", "circunscricao": "2º CIRCUNSCRIÇÃO", "zoneamento": "ZEIA - ZONA ESPECIAL DE INTERESSE AMBIENTAL", "condominio": null, "area_geom": 21718.58, "cnm": "062661.2.0130151-51" }, "geometry": { "type": "Polygon", "coordinates": [ [ [ -54.916463, -22.207555 ], [ -54.916752, -22.206822 ], [ -54.919175, -22.207247 ], [ -54.918886, -22.207983 ], [ -54.916463, -22.207555 ] ] ] } },
{ "type": "Feature", "properties": { "id": 82934, "insc_imob": "00.16.31.70.100", "quadra_cartorio": null, "lote_cartorio": "QUINHÃO 900", "matricula": "118998", "circunscricao": "2º CIRCUNSCRIÇÃO", "zoneamento": "ZEIA - ZONA ESPECIAL DE INTERESSE AMBIENTAL", "condominio": null, "area_geom": 32948.23, "cnm": "062661.2.0118998-45" }, "geometry": { "type": "Polygon", "coordinates": [ [ [ -54.920389, -22.209088 ], [ -54.921627, -22.209305 ], [ -54.92153, -22.209954 ], [ -54.921525, -22.209984 ], [ -54.921343, -22.211206 ], [ -54.921315, -22.211223 ], [ -54.921286, -22.211239 ], [ -54.921257, -22.211253 ], [ -54.921246, -22.211257 ], [ -54.921226, -22.211265 ], [ -54.921214, -22.211269 ], [ -54.921195, -22.211275 ], [ -54.92118, -22.211278 ], [ -54.921049, -22.211309 ], [ -54.920975, -22.211322 ], [ -54.920822, -22.211344 ], [ -54.920705, -22.211347 ], [ -54.920674, -22.211348 ], [ -54.920581, -22.211346 ], [ -54.92051, -22.211345 ], [ -54.920499, -22.211344 ], [ -54.920328, -22.211327 ], [ -54.920239, -22.211317 ], [ -54.919928, -22.211263 ], [ -54.919908, -22.211259 ], [ -54.919891, -22.211255 ], [ -54.920389, -22.209088 ] ] ] } },
{ "type": "Feature", "properties": { "id": 82936, "insc_imob": "00.16.31.70.300", "quadra_cartorio": null, "lote_cartorio": "QUINHÃO 900B", "matricula": "118996", "circunscricao": "2º CIRCUNSCRIÇÃO", "zoneamento": "ZEIA - ZONA ESPECIAL DE INTERESSE AMBIENTAL", "condominio": null, "area_geom": 16381.63, "cnm": "062661.2.0118996-51" }, "geometry": { "type": "Polygon", "coordinates": [ [ [ -54.919165, -22.210995 ], [ -54.919144, -22.210983 ], [ -54.919062, -22.21094 ], [ -54.919027, -22.210923 ], [ -54.919008, -22.210915 ], [ -54.918965, -22.210898 ], [ -54.918935, -22.210892 ], [ -54.918881, -22.210882 ], [ -54.91884, -22.21088 ], [ -54.918746, -22.210876 ], [ -54.918629, -22.210898 ], [ -54.91852, -22.210938 ], [ -54.918452, -22.21096 ], [ -54.918405, -22.210967 ], [ -54.918387, -22.210969 ], [ -54.918378, -22.210969 ], [ -54.919119, -22.208864 ], [ -54.919729, -22.208971 ], [ -54.919165, -22.210995 ] ] ] } },
{ "type": "Feature", "properties": { "id": 82937, "insc_imob": "00.16.31.70.200", "quadra_cartorio": null, "lote_cartorio": "QUINHÃO 900A", "matricula": "118995", "circunscricao": "2º CIRCUNSCRIÇÃO", "zoneamento": "ZEIA - ZONA ESPECIAL DE INTERESSE AMBIENTAL", "condominio": null, "area_geom": 17876.35, "cnm": "062661.2.0118995-54" }, "geometry": { "type": "Polygon", "coordinates": [ [ [ -54.919729, -22.208971 ], [ -54.920389, -22.209088 ], [ -54.919891, -22.211255 ], [ -54.919816, -22.211236 ], [ -54.919672, -22.211197 ], [ -54.919408, -22.211113 ], [ -54.91925, -22.211038 ], [ -54.91922, -22.211024 ], [ -54.919165, -22.210995 ], [ -54.919729, -22.208971 ] ] ] } },
{ "type": "Feature", "properties": { "id": 82938, "insc_imob": "00.16.31.70.600", "quadra_cartorio": null, "lote_cartorio": "QUINHÃO 1000B", "matricula": "132749", "circunscricao": "2º CIRCUNSCRIÇÃO", "zoneamento": "ZEIA - ZONA ESPECIAL DE INTERESSE AMBIENTAL", "condominio": null, "area_geom": 21612.3, "cnm": "062661.2.0132749-17" }, "geometry": { "type": "Polygon", "coordinates": [ [ [ -54.915907, -22.208961 ], [ -54.916151, -22.208342 ], [ -54.918577, -22.208769 ], [ -54.918248, -22.209609 ], [ -54.915907, -22.208961 ] ] ] } }
]
}
