{
"type": "FeatureCollection",
"name": "lotes_fiscais",
"xy_coordinate_resolution": 1e-006,
"features": [
{ "type": "Feature", "properties": { "id": 79916, "insc_imob": "01.01.22.12.020", "quadra_cartorio": "12", "lote_cartorio": "B3", "matricula": "79097", "circunscricao": "1º CIRCUNSCRIÇÃO", "zoneamento": null, "condominio": null, "area_geom": 39981.66, "cnm": "062661.2.0079097-50" }, "geometry": { "type": "Polygon", "coordinates": [ [ [ -54.778575, -22.312221 ], [ -54.779043, -22.310468 ], [ -54.780926, -22.310906 ], [ -54.78046, -22.312656 ], [ -54.778575, -22.312221 ] ] ] } },
{ "type": "Feature", "properties": { "id": 84262, "insc_imob": "01.01.12.02.190", "quadra_cartorio": "4A", "lote_cartorio": "19", "matricula": "59530", "circunscricao": "1º CIRCUNSCRIÇÃO", "zoneamento": null, "condominio": null, "area_geom": 2147.5, "cnm": "062661.2.0059530-66" }, "geometry": { "type": "Polygon", "coordinates": [ [ [ -54.778903, -22.308947 ], [ -54.779003, -22.30857 ], [ -54.779474, -22.308678 ], [ -54.779374, -22.309055 ], [ -54.778903, -22.308947 ] ] ] } },
{ "type": "Feature", "properties": { "id": 82500, "insc_imob": "01.01.12.02.010", "quadra_cartorio": "4A", "lote_cartorio": "14", "matricula": "59525", "circunscricao": "1º CIRCUNSCRIÇÃO", "zoneamento": null, "condominio": null, "area_geom": 2160.73, "cnm": "062661.2.0059525-81" }, "geometry": { "type": "Polygon", "coordinates": [ [ [ -54.783807, -22.309263 ], [ -54.78371, -22.309648 ], [ -54.783243, -22.309541 ], [ -54.783344, -22.309157 ], [ -54.783807, -22.309263 ] ] ] } },
{ "type": "Feature", "properties": { "id": 82522, "insc_imob": "01.01.12.02.180", "quadra_cartorio": "4A", "lote_cartorio": "18", "matricula": "59529", "circunscricao": "1º CIRCUNSCRIÇÃO", "zoneamento": null, "condominio": null, "area_geom": 2146.81, "cnm": "062661.2.0059529-69" }, "geometry": { "type": "Polygon", "coordinates": [ [ [ -54.779003, -22.30857 ], [ -54.778903, -22.308947 ], [ -54.778432, -22.308839 ], [ -54.778531, -22.308463 ], [ -54.779003, -22.30857 ] ] ] } },
{ "type": "Feature", "properties": { "id": 97857, "insc_imob": "01.01.01.01.180", "quadra_cartorio": "01", "lote_cartorio": "03", "matricula": "69445", "circunscricao": "1º CIRCUNSCRIÇÃO", "zoneamento": null, "condominio": null, "area_geom": 19941.12, "cnm": "062661.2.0069445-03" }, "geometry": { "type": "Polygon", "coordinates": [ [ [ -54.772445, -22.304415 ], [ -54.771993, -22.306166 ], [ -54.77105, -22.305952 ], [ -54.771503, -22.304202 ], [ -54.772445, -22.304415 ] ] ] } },
{ "type": "Feature", "properties": { "id": 103943, "insc_imob": "01.01.22.11.012", "quadra_cartorio": "11", "lote_cartorio": "01B", "matricula": "137810", "circunscricao": "1º CIRCUNSCRIÇÃO", "zoneamento": null, "condominio": null, "area_geom": 10207.64, "cnm": "062661.2.0137810-63" }, "geometry": { "type": "Polygon", "coordinates": [ [ [ -54.775749, -22.311531 ], [ -54.774815, -22.311324 ], [ -54.775042, -22.310445 ], [ -54.77598, -22.310654 ], [ -54.776005, -22.310659 ], [ -54.775778, -22.311537 ], [ -54.775749, -22.311531 ] ] ] } },
{ "type": "Feature", "properties": { "id": 98613, "insc_imob": "01.01.12.12.250", "quadra_cartorio": "4B", "lote_cartorio": "25", "matricula": "59564", "circunscricao": "1º CIRCUNSCRIÇÃO", "zoneamento": null, "condominio": null, "area_geom": 2148.39, "cnm": "062661.2.0059564-61" }, "geometry": { "type": "Polygon", "coordinates": [ [ [ -54.782036, -22.310338 ], [ -54.781938, -22.310715 ], [ -54.781466, -22.310609 ], [ -54.781564, -22.310232 ], [ -54.782036, -22.310338 ] ] ] } },
{ "type": "Feature", "properties": { "id": 99793, "insc_imob": "01.01.12.04.010", "quadra_cartorio": "07", "lote_cartorio": "05", "matricula": "24819-MÃE", "circunscricao": "1º CIRCUNSCRIÇÃO", "zoneamento": null, "condominio": null, "area_geom": 10411.37, "cnm": "062661.2.0024819-21" }, "geometry": { "type": "Polygon", "coordinates": [ [ [ -54.788961, -22.311469 ], [ -54.789188, -22.310587 ], [ -54.789994, -22.310764 ], [ -54.790109, -22.311724 ], [ -54.789433, -22.311574 ], [ -54.788961, -22.311469 ] ] ] } },
{ "type": "Feature", "properties": { "id": 99794, "insc_imob": "01.01.12.04.020", "quadra_cartorio": "07", "lote_cartorio": "04", "matricula": "24819-MÃE", "circunscricao": "1º CIRCUNSCRIÇÃO", "zoneamento": null, "condominio": null, "area_geom": 5020.99, "cnm": "062661.2.0024819-21" }, "geometry": { "type": "Polygon", "coordinates": [ [ [ -54.789188, -22.310587 ], [ -54.788961, -22.311469 ], [ -54.788489, -22.311365 ], [ -54.788716, -22.310484 ], [ -54.789188, -22.310587 ] ] ] } },
{ "type": "Feature", "properties": { "id": 99795, "insc_imob": "01.01.12.04.040", "quadra_cartorio": "07", "lote_cartorio": "02", "matricula": "24819-MÃE", "circunscricao": "1º CIRCUNSCRIÇÃO", "zoneamento": null, "condominio": null, "area_geom": 5008.78, "cnm": "062661.2.0024819-21" }, "geometry": { "type": "Polygon", "coordinates": [ [ [ -54.788244, -22.31038 ], [ -54.788017, -22.31126 ], [ -54.787545, -22.311155 ], [ -54.787771, -22.310276 ], [ -54.788244, -22.31038 ] ] ] } },
{ "type": "Feature", "properties": { "id": 112267, "insc_imob": "01.01.01.01.200", "quadra_cartorio": "01", "lote_cartorio": "01", "matricula": "57464", "circunscricao": "1º CIRCUNSCRIÇÃO", "zoneamento": null, "condominio": null, "area_geom": 13977.09, "cnm": "062661.2.0057464-56" }, "geometry": { "type": "Polygon", "coordinates": [ [ [ -54.770108, -22.305738 ], [ -54.76939, -22.305576 ], [ -54.769955, -22.303852 ], [ -54.77056, -22.303989 ], [ -54.770108, -22.305738 ] ] ] } },
{ "type": "Feature", "properties": { "id": 112266, "insc_imob": "01.01.01.01.080", "quadra_cartorio": null, "lote_cartorio": "03", "matricula": null, "circunscricao": "1º CIRCUNSCRIÇÃO", "zoneamento": null, "condominio": null, "area_geom": 19991.93, "cnm": null }, "geometry": { "type": "Polygon", "coordinates": [ [ [ -54.780477, -22.308091 ], [ -54.78093, -22.306338 ], [ -54.781873, -22.306549 ], [ -54.781873, -22.306551 ], [ -54.78142, -22.308305 ], [ -54.780477, -22.308091 ] ] ] } },
{ "type": "Feature", "properties": { "id": 4421, "insc_imob": "01.01.01.01.140", "quadra_cartorio": null, "lote_cartorio": "07", "matricula": "149345", "circunscricao": "1º CIRCUNSCRIÇÃO", "zoneamento": null, "condominio": null, "area_geom": 19963.3, "cnm": "062661.2.0149345-87" }, "geometry": { "type": "Polygon", "coordinates": [ [ [ -54.776216, -22.305269 ], [ -54.775764, -22.307022 ], [ -54.774821, -22.306808 ], [ -54.775274, -22.305056 ], [ -54.776216, -22.305269 ] ] ] } },
{ "type": "Feature", "properties": { "id": 10379, "insc_imob": "01.01.12.02.260", "quadra_cartorio": null, "lote_cartorio": "26", "matricula": "59537", "circunscricao": "1º CIRCUNSCRIÇÃO", "zoneamento": null, "condominio": null, "area_geom": 2148.85, "cnm": "062661.2.0059537-45" }, "geometry": { "type": "Polygon", "coordinates": [ [ [ -54.782771, -22.309433 ], [ -54.782672, -22.30981 ], [ -54.782201, -22.309702 ], [ -54.7823, -22.309325 ], [ -54.782771, -22.309433 ] ] ] } },
{ "type": "Feature", "properties": { "id": 10380, "insc_imob": "01.01.12.02.270", "quadra_cartorio": null, "lote_cartorio": "27", "matricula": "59538", "circunscricao": "1º CIRCUNSCRIÇÃO", "zoneamento": null, "condominio": null, "area_geom": 2149.54, "cnm": "062661.2.0059538-42" }, "geometry": { "type": "Polygon", "coordinates": [ [ [ -54.783243, -22.309541 ], [ -54.783143, -22.309918 ], [ -54.782672, -22.30981 ], [ -54.782771, -22.309433 ], [ -54.783243, -22.309541 ] ] ] } },
{ "type": "Feature", "properties": { "id": 9555, "insc_imob": "01.01.12.12.100", "quadra_cartorio": null, "lote_cartorio": "05", "matricula": "59544", "circunscricao": "1º CIRCUNSCRIÇÃO", "zoneamento": null, "condominio": null, "area_geom": 2162.79, "cnm": "062661.2.0059544-24" }, "geometry": { "type": "Polygon", "coordinates": [ [ [ -54.778735, -22.309594 ], [ -54.778834, -22.309215 ], [ -54.779305, -22.309321 ], [ -54.779207, -22.309701 ], [ -54.778735, -22.309594 ] ] ] } },
{ "type": "Feature", "properties": { "id": 76837, "insc_imob": "01.01.12.03.060", "quadra_cartorio": "05", "lote_cartorio": "01", "matricula": null, "circunscricao": "1º CIRCUNSCRIÇÃO", "zoneamento": null, "condominio": null, "area_geom": 2146.54, "cnm": null }, "geometry": { "type": "Polygon", "coordinates": [ [ [ -54.784135, -22.309761 ], [ -54.784232, -22.309384 ], [ -54.784704, -22.309489 ], [ -54.784607, -22.309866 ], [ -54.784135, -22.309761 ] ] ] } },
{ "type": "Feature", "properties": { "id": 124676, "insc_imob": "01.01.01.01.021", "quadra_cartorio": "01", "lote_cartorio": "17A", "matricula": "062661.2.0167793-33", "circunscricao": null, "zoneamento": null, "condominio": null, "area_geom": 63466.63, "cnm": "062661.2.0626612-06" }, "geometry": { "type": "Polygon", "coordinates": [ [ [ -54.78769, -22.307866 ], [ -54.787236, -22.309624 ], [ -54.784248, -22.308946 ], [ -54.784701, -22.30719 ], [ -54.78769, -22.307866 ] ] ] } },
{ "type": "Feature", "properties": { "id": 127163, "insc_imob": "01.01.11.21.030", "quadra_cartorio": "10", "lote_cartorio": "RE", "matricula": "168527-1RI", "circunscricao": "1º CIRCUNSCRIÇÃO", "zoneamento": null, "condominio": null, "area_geom": 11175.63, "cnm": "062661.2.0168527-62" }, "geometry": { "type": "Polygon", "coordinates": [ [ [ -54.766359, -22.310724 ], [ -54.766705, -22.310801 ], [ -54.766888, -22.310376 ], [ -54.767249, -22.310456 ], [ -54.766916, -22.311749 ], [ -54.766914, -22.311752 ], [ -54.766913, -22.311755 ], [ -54.766911, -22.311757 ], [ -54.766908, -22.31176 ], [ -54.766905, -22.311762 ], [ -54.766901, -22.311765 ], [ -54.766897, -22.311766 ], [ -54.766892, -22.311767 ], [ -54.766889, -22.311767 ], [ -54.766883, -22.311767 ], [ -54.76634, -22.311646 ], [ -54.766293, -22.311639 ], [ -54.766247, -22.311626 ], [ -54.766203, -22.311606 ], [ -54.766164, -22.31158 ], [ -54.766129, -22.311549 ], [ -54.766099, -22.311513 ], [ -54.766076, -22.311474 ], [ -54.766059, -22.311432 ], [ -54.766049, -22.311388 ], [ -54.766046, -22.311343 ], [ -54.766051, -22.311298 ], [ -54.766062, -22.311254 ], [ -54.766359, -22.310724 ] ] ] } },
{ "type": "Feature", "properties": { "id": 5290, "insc_imob": "01.01.12.04.090", "quadra_cartorio": null, "lote_cartorio": "09", "matricula": "24819-MÃE", "circunscricao": "1º CIRCUNSCRIÇÃO", "zoneamento": null, "condominio": null, "area_geom": 5000.0, "cnm": "062661.2.0024819-21" }, "geometry": { "type": "Polygon", "coordinates": [ [ [ -54.788961, -22.311469 ], [ -54.788734, -22.312347 ], [ -54.788262, -22.312243 ], [ -54.788489, -22.311365 ], [ -54.788961, -22.311469 ] ] ] } },
{ "type": "Feature", "properties": { "id": 5291, "insc_imob": "01.01.12.03.050", "quadra_cartorio": null, "lote_cartorio": "02", "matricula": "24819-MÃE", "circunscricao": "1º CIRCUNSCRIÇÃO", "zoneamento": null, "condominio": null, "area_geom": 2147.5, "cnm": "062661.2.0024819-21" }, "geometry": { "type": "Polygon", "coordinates": [ [ [ -54.784607, -22.309866 ], [ -54.784704, -22.309489 ], [ -54.785176, -22.309594 ], [ -54.785079, -22.309971 ], [ -54.784607, -22.309866 ] ] ] } },
{ "type": "Feature", "properties": { "id": 81497, "insc_imob": "01.01.33.01.010", "quadra_cartorio": null, "lote_cartorio": "REMANESCENTE", "matricula": "24819-MÃE", "circunscricao": "1º CIRCUNSCRIÇÃO", "zoneamento": null, "condominio": null, "area_geom": 897581.04, "cnm": "062661.2.0024819-21" }, "geometry": { "type": "Polygon", "coordinates": [ [ [ -54.782285, -22.320495 ], [ -54.769549, -22.31784 ], [ -54.770815, -22.313123 ], [ -54.771248, -22.313224 ], [ -54.771825, -22.311075 ], [ -54.780973, -22.3132 ], [ -54.781908, -22.318443 ], [ -54.782285, -22.320495 ] ] ] } },
{ "type": "Feature", "properties": { "id": 97854, "insc_imob": "01.01.12.03.100", "quadra_cartorio": null, "lote_cartorio": "10", "matricula": "24819-MÃE", "circunscricao": "1º CIRCUNSCRIÇÃO", "zoneamento": null, "condominio": null, "area_geom": 2148.16, "cnm": "062661.2.0024819-21" }, "geometry": { "type": "Polygon", "coordinates": [ [ [ -54.785454, -22.310453 ], [ -54.785551, -22.310076 ], [ -54.786023, -22.31018 ], [ -54.785926, -22.310558 ], [ -54.785454, -22.310453 ] ] ] } },
{ "type": "Feature", "properties": { "id": 98869, "insc_imob": "01.01.12.03.090", "quadra_cartorio": null, "lote_cartorio": "09", "matricula": "24819-MÃE", "circunscricao": "1º CIRCUNSCRIÇÃO", "zoneamento": null, "condominio": null, "area_geom": 2147.7, "cnm": "062661.2.0024819-21" }, "geometry": { "type": "Polygon", "coordinates": [ [ [ -54.784982, -22.310348 ], [ -54.785079, -22.309971 ], [ -54.785551, -22.310076 ], [ -54.785454, -22.310453 ], [ -54.784982, -22.310348 ] ] ] } },
{ "type": "Feature", "properties": { "id": 103918, "insc_imob": "01.01.12.03.070", "quadra_cartorio": null, "lote_cartorio": "07", "matricula": "24819-MÃE", "circunscricao": "1º CIRCUNSCRIÇÃO", "zoneamento": null, "condominio": null, "area_geom": 2147.48, "cnm": "062661.2.0024819-21" }, "geometry": { "type": "Polygon", "coordinates": [ [ [ -54.784607, -22.309866 ], [ -54.78451, -22.310243 ], [ -54.784038, -22.310138 ], [ -54.784135, -22.309761 ], [ -54.784607, -22.309866 ] ] ] } },
{ "type": "Feature", "properties": { "id": 103926, "insc_imob": "01.01.12.03.080", "quadra_cartorio": null, "lote_cartorio": "08", "matricula": "24819-MÃE", "circunscricao": "1º CIRCUNSCRIÇÃO", "zoneamento": null, "condominio": null, "area_geom": 2147.83, "cnm": "062661.2.0024819-21" }, "geometry": { "type": "Polygon", "coordinates": [ [ [ -54.78451, -22.310243 ], [ -54.784607, -22.309866 ], [ -54.785079, -22.309971 ], [ -54.784982, -22.310348 ], [ -54.78451, -22.310243 ] ] ] } },
{ "type": "Feature", "properties": { "id": 103928, "insc_imob": "01.01.12.04.030", "quadra_cartorio": null, "lote_cartorio": "03", "matricula": "24819-MÃE", "circunscricao": "1º CIRCUNSCRIÇÃO", "zoneamento": null, "condominio": null, "area_geom": 5014.89, "cnm": "062661.2.0024819-21" }, "geometry": { "type": "Polygon", "coordinates": [ [ [ -54.788716, -22.310484 ], [ -54.788489, -22.311365 ], [ -54.788017, -22.31126 ], [ -54.788244, -22.31038 ], [ -54.788716, -22.310484 ] ] ] } },
{ "type": "Feature", "properties": { "id": 103962, "insc_imob": "01.01.01.01.150", "quadra_cartorio": null, "lote_cartorio": "06", "matricula": "24819-MÃE", "circunscricao": "1º CIRCUNSCRIÇÃO", "zoneamento": null, "condominio": null, "area_geom": 19957.77, "cnm": "062661.2.0024819-21" }, "geometry": { "type": "Polygon", "coordinates": [ [ [ -54.775274, -22.305056 ], [ -54.774821, -22.306808 ], [ -54.773878, -22.306594 ], [ -54.774331, -22.304842 ], [ -54.775274, -22.305056 ] ] ] } },
{ "type": "Feature", "properties": { "id": 113416, "insc_imob": "01.01.12.04.050", "quadra_cartorio": null, "lote_cartorio": "01", "matricula": "24819-MÃE", "circunscricao": "1º CIRCUNSCRIÇÃO", "zoneamento": null, "condominio": null, "area_geom": 5000.18, "cnm": "062661.2.0024819-21" }, "geometry": { "type": "Polygon", "coordinates": [ [ [ -54.787292, -22.310199 ], [ -54.787305, -22.310182 ], [ -54.787327, -22.310179 ], [ -54.787771, -22.310276 ], [ -54.787545, -22.311155 ], [ -54.787073, -22.31105 ], [ -54.787292, -22.310199 ] ] ] } },
{ "type": "Feature", "properties": { "id": 54038, "insc_imob": "01.01.12.02.210", "quadra_cartorio": "4A", "lote_cartorio": "21", "matricula": "59532", "circunscricao": "1º CIRCUNSCRIÇÃO", "zoneamento": null, "condominio": null, "area_geom": 2147.68, "cnm": "062661.2.0059532-60" }, "geometry": { "type": "Polygon", "coordinates": [ [ [ -54.779845, -22.309163 ], [ -54.779945, -22.308786 ], [ -54.780416, -22.308894 ], [ -54.780316, -22.309271 ], [ -54.779845, -22.309163 ] ] ] } },
{ "type": "Feature", "properties": { "id": 54486, "insc_imob": "01.01.12.04.060", "quadra_cartorio": "07", "lote_cartorio": "06", "matricula": "60830", "circunscricao": "1º CIRCUNSCRIÇÃO", "zoneamento": null, "condominio": null, "area_geom": 4995.03, "cnm": "062661.2.0060830-46" }, "geometry": { "type": "Polygon", "coordinates": [ [ [ -54.786875, -22.311935 ], [ -54.786857, -22.311923 ], [ -54.786854, -22.311902 ], [ -54.787073, -22.31105 ], [ -54.787545, -22.311155 ], [ -54.787319, -22.312033 ], [ -54.786875, -22.311935 ] ] ] } },
{ "type": "Feature", "properties": { "id": 54849, "insc_imob": "01.01.12.04.100", "quadra_cartorio": "07", "lote_cartorio": "10", "matricula": "24819-MÃE", "circunscricao": "1º CIRCUNSCRIÇÃO", "zoneamento": null, "condominio": null, "area_geom": 5004.32, "cnm": "062661.2.0024819-21" }, "geometry": { "type": "Polygon", "coordinates": [ [ [ -54.788734, -22.312347 ], [ -54.788961, -22.311469 ], [ -54.789433, -22.311574 ], [ -54.789207, -22.312452 ], [ -54.788734, -22.312347 ] ] ] } },
{ "type": "Feature", "properties": { "id": 54850, "insc_imob": "01.01.01.01.090", "quadra_cartorio": "01", "lote_cartorio": "12", "matricula": "61682", "circunscricao": "1º CIRCUNSCRIÇÃO", "zoneamento": null, "condominio": null, "area_geom": 19988.46, "cnm": "062661.2.0061682-12" }, "geometry": { "type": "Polygon", "coordinates": [ [ [ -54.779534, -22.307877 ], [ -54.779988, -22.306123 ], [ -54.780931, -22.306335 ], [ -54.78093, -22.306338 ], [ -54.780477, -22.308091 ], [ -54.779534, -22.307877 ] ] ] } },
{ "type": "Feature", "properties": { "id": 57269, "insc_imob": "01.01.11.22.090", "quadra_cartorio": "08", "lote_cartorio": "09", "matricula": "143573", "circunscricao": "1º CIRCUNSCRIÇÃO", "zoneamento": null, "condominio": null, "area_geom": 2106.5, "cnm": "062661.2.0143573-40" }, "geometry": { "type": "Polygon", "coordinates": [ [ [ -54.767907, -22.310978 ], [ -54.767439, -22.310873 ], [ -54.767533, -22.3105 ], [ -54.768002, -22.310604 ], [ -54.767907, -22.310978 ] ] ] } },
{ "type": "Feature", "properties": { "id": 59535, "insc_imob": "01.01.12.02.150", "quadra_cartorio": "4A", "lote_cartorio": "15", "matricula": "59526", "circunscricao": "1º CIRCUNSCRIÇÃO", "zoneamento": null, "condominio": null, "area_geom": 2136.06, "cnm": "062661.2.0059526-78" }, "geometry": { "type": "Polygon", "coordinates": [ [ [ -54.777589, -22.308247 ], [ -54.77749, -22.308623 ], [ -54.777019, -22.308515 ], [ -54.777122, -22.30814 ], [ -54.777589, -22.308247 ] ] ] } },
{ "type": "Feature", "properties": { "id": 61041, "insc_imob": "01.01.12.02.100", "quadra_cartorio": "4A", "lote_cartorio": "05", "matricula": "59516", "circunscricao": "1º CIRCUNSCRIÇÃO", "zoneamento": null, "condominio": null, "area_geom": 2161.73, "cnm": "062661.2.0059516-11" }, "geometry": { "type": "Polygon", "coordinates": [ [ [ -54.779003, -22.30857 ], [ -54.779103, -22.308191 ], [ -54.779574, -22.308299 ], [ -54.779474, -22.308678 ], [ -54.779003, -22.30857 ] ] ] } },
{ "type": "Feature", "properties": { "id": 70809, "insc_imob": "01.01.12.02.020", "quadra_cartorio": "4A", "lote_cartorio": "13", "matricula": "59524", "circunscricao": "1º CIRCUNSCRIÇÃO", "zoneamento": null, "condominio": null, "area_geom": 2184.41, "cnm": "062661.2.0059524-84" }, "geometry": { "type": "Polygon", "coordinates": [ [ [ -54.782771, -22.309433 ], [ -54.782873, -22.30905 ], [ -54.783344, -22.309157 ], [ -54.783243, -22.309541 ], [ -54.782771, -22.309433 ] ] ] } },
{ "type": "Feature", "properties": { "id": 74253, "insc_imob": "01.01.12.03.020", "quadra_cartorio": "05", "lote_cartorio": "05", "matricula": "54841", "circunscricao": "1º CIRCUNSCRIÇÃO", "zoneamento": null, "condominio": null, "area_geom": 2145.28, "cnm": "062661.2.0054841-68" }, "geometry": { "type": "Polygon", "coordinates": [ [ [ -54.786023, -22.31018 ], [ -54.78612, -22.309803 ], [ -54.786591, -22.309908 ], [ -54.786495, -22.310285 ], [ -54.786023, -22.31018 ] ] ] } },
{ "type": "Feature", "properties": { "id": 74254, "insc_imob": "01.01.11.21.011", "quadra_cartorio": "10", "lote_cartorio": "02-A", "matricula": "95460", "circunscricao": "1º CIRCUNSCRIÇÃO", "zoneamento": null, "condominio": null, "area_geom": 3117.18, "cnm": "062661.2.0095460-43" }, "geometry": { "type": "Polygon", "coordinates": [ [ [ -54.766809, -22.309919 ], [ -54.766811, -22.309917 ], [ -54.766814, -22.309914 ], [ -54.766817, -22.309912 ], [ -54.76682, -22.309911 ], [ -54.766824, -22.30991 ], [ -54.766827, -22.309909 ], [ -54.766831, -22.309909 ], [ -54.766835, -22.30991 ], [ -54.76733, -22.310017 ], [ -54.767335, -22.310019 ], [ -54.767339, -22.310021 ], [ -54.767343, -22.310024 ], [ -54.767347, -22.310027 ], [ -54.76735, -22.310031 ], [ -54.767352, -22.310035 ], [ -54.767353, -22.31004 ], [ -54.767354, -22.310045 ], [ -54.767354, -22.310049 ], [ -54.767249, -22.310456 ], [ -54.766888, -22.310376 ], [ -54.766591, -22.31031 ], [ -54.766809, -22.309919 ] ] ] } },
{ "type": "Feature", "properties": { "id": 75050, "insc_imob": "01.01.12.02.250", "quadra_cartorio": "4A", "lote_cartorio": "25", "matricula": "59536", "circunscricao": "1º CIRCUNSCRIÇÃO", "zoneamento": null, "condominio": null, "area_geom": 2147.34, "cnm": "062661.2.0059536-48" }, "geometry": { "type": "Polygon", "coordinates": [ [ [ -54.7823, -22.309325 ], [ -54.782201, -22.309702 ], [ -54.78173, -22.309594 ], [ -54.781829, -22.309218 ], [ -54.7823, -22.309325 ] ] ] } },
{ "type": "Feature", "properties": { "id": 77094, "insc_imob": "01.01.11.22.060", "quadra_cartorio": "08", "lote_cartorio": "R", "matricula": "68618", "circunscricao": "1º CIRCUNSCRIÇÃO", "zoneamento": null, "condominio": null, "area_geom": 25991.4, "cnm": "062661.2.0068618-59" }, "geometry": { "type": "Polygon", "coordinates": [ [ [ -54.770736, -22.311613 ], [ -54.770264, -22.311507 ], [ -54.769792, -22.311402 ], [ -54.769322, -22.311295 ], [ -54.768849, -22.311189 ], [ -54.768378, -22.311083 ], [ -54.768474, -22.31071 ], [ -54.768573, -22.310328 ], [ -54.769045, -22.310432 ], [ -54.769517, -22.310536 ], [ -54.769989, -22.310641 ], [ -54.770461, -22.310745 ], [ -54.770932, -22.310849 ], [ -54.771409, -22.310955 ], [ -54.771307, -22.311342 ], [ -54.771208, -22.311718 ], [ -54.770736, -22.311613 ] ] ] } },
{ "type": "Feature", "properties": { "id": 77226, "insc_imob": "01.01.01.01.190", "quadra_cartorio": "01", "lote_cartorio": "02", "matricula": "54569", "circunscricao": "1º CIRCUNSCRIÇÃO", "zoneamento": null, "condominio": null, "area_geom": 19925.52, "cnm": "062661.2.0054569-11" }, "geometry": { "type": "Polygon", "coordinates": [ [ [ -54.771503, -22.304202 ], [ -54.77105, -22.305952 ], [ -54.770108, -22.305738 ], [ -54.77056, -22.303989 ], [ -54.771503, -22.304202 ] ] ] } },
{ "type": "Feature", "properties": { "id": 77919, "insc_imob": "01.01.22.11.040", "quadra_cartorio": "11", "lote_cartorio": "04", "matricula": "59502", "circunscricao": "1º CIRCUNSCRIÇÃO", "zoneamento": null, "condominio": null, "area_geom": 19790.83, "cnm": "062661.2.0059502-53" }, "geometry": { "type": "Polygon", "coordinates": [ [ [ -54.771993, -22.310697 ], [ -54.772445, -22.308941 ], [ -54.77338, -22.309149 ], [ -54.772927, -22.310905 ], [ -54.771993, -22.310697 ] ] ] } },
{ "type": "Feature", "properties": { "id": 80899, "insc_imob": "01.01.12.02.040", "quadra_cartorio": "4A", "lote_cartorio": "11", "matricula": "59522", "circunscricao": "1º CIRCUNSCRIÇÃO", "zoneamento": null, "condominio": null, "area_geom": 2180.2, "cnm": "062661.2.0059522-90" }, "geometry": { "type": "Polygon", "coordinates": [ [ [ -54.782401, -22.308943 ], [ -54.7823, -22.309325 ], [ -54.781829, -22.309218 ], [ -54.78193, -22.308835 ], [ -54.782401, -22.308943 ] ] ] } },
{ "type": "Feature", "properties": { "id": 81591, "insc_imob": "01.01.33.01.013", "quadra_cartorio": "00", "lote_cartorio": "AREA 03", "matricula": "103537", "circunscricao": "1º CIRCUNSCRIÇÃO", "zoneamento": null, "condominio": null, "area_geom": 18328.34, "cnm": "062661.2.0103537-62" }, "geometry": { "type": "Polygon", "coordinates": [ [ [ -54.765099, -22.311953 ], [ -54.765765, -22.312003 ], [ -54.764952, -22.313341 ], [ -54.76424, -22.314326 ], [ -54.763716, -22.313915 ], [ -54.76477, -22.312535 ], [ -54.765099, -22.311953 ] ] ] } },
{ "type": "Feature", "properties": { "id": 81592, "insc_imob": "01.01.33.01.012", "quadra_cartorio": "00", "lote_cartorio": "AREA 02", "matricula": "103536", "circunscricao": "1º CIRCUNSCRIÇÃO", "zoneamento": null, "condominio": null, "area_geom": 99950.29, "cnm": "062661.2.0103536-65" }, "geometry": { "type": "Polygon", "coordinates": [ [ [ -54.765765, -22.312003 ], [ -54.765765, -22.312003 ], [ -54.768055, -22.312513 ], [ -54.766152, -22.316452 ], [ -54.76424, -22.314326 ], [ -54.764952, -22.313341 ], [ -54.765765, -22.312003 ] ] ] } },
{ "type": "Feature", "properties": { "id": 81593, "insc_imob": "01.01.33.01.011", "quadra_cartorio": "00", "lote_cartorio": "AREA 01", "matricula": "103535", "circunscricao": "1º CIRCUNSCRIÇÃO", "zoneamento": null, "condominio": null, "area_geom": 182610.74, "cnm": "062661.2.0103535-68" }, "geometry": { "type": "Polygon", "coordinates": [ [ [ -54.768055, -22.312513 ], [ -54.768055, -22.312513 ], [ -54.770809, -22.313125 ], [ -54.769586, -22.31788 ], [ -54.766956, -22.317346 ], [ -54.766152, -22.316452 ], [ -54.768055, -22.312513 ] ] ] } },
{ "type": "Feature", "properties": { "id": 82162, "insc_imob": "01.01.12.02.120", "quadra_cartorio": "4A", "lote_cartorio": "03", "matricula": "59514", "circunscricao": "1º CIRCUNSCRIÇÃO", "zoneamento": null, "condominio": null, "area_geom": 2156.16, "cnm": "062661.2.0059514-17" }, "geometry": { "type": "Polygon", "coordinates": [ [ [ -54.77806, -22.308355 ], [ -54.77816, -22.307977 ], [ -54.778631, -22.308084 ], [ -54.778531, -22.308463 ], [ -54.77806, -22.308355 ] ] ] } },
{ "type": "Feature", "properties": { "id": 82843, "insc_imob": "01.01.22.12.060", "quadra_cartorio": "12", "lote_cartorio": "D1", "matricula": "162788", "circunscricao": "1º CIRCUNSCRIÇÃO", "zoneamento": null, "condominio": null, "area_geom": 1699.43, "cnm": "062661.2.0162788-13" }, "geometry": { "type": "Polygon", "coordinates": [ [ [ -54.782668, -22.311308 ], [ -54.78262, -22.311479 ], [ -54.782761, -22.311511 ], [ -54.782691, -22.311779 ], [ -54.782316, -22.311693 ], [ -54.782433, -22.311255 ], [ -54.782668, -22.311308 ] ] ] } },
{ "type": "Feature", "properties": { "id": 82844, "insc_imob": "01.01.22.12.150", "quadra_cartorio": "12", "lote_cartorio": "D6", "matricula": "162793", "circunscricao": "1º CIRCUNSCRIÇÃO", "zoneamento": null, "condominio": null, "area_geom": 1992.86, "cnm": "062661.2.0162793-95" }, "geometry": { "type": "Polygon", "coordinates": [ [ [ -54.782691, -22.311779 ], [ -54.782576, -22.312218 ], [ -54.7822, -22.312131 ], [ -54.782316, -22.311693 ], [ -54.782691, -22.311779 ] ] ] } },
{ "type": "Feature", "properties": { "id": 82845, "insc_imob": "01.01.22.12.070", "quadra_cartorio": "12", "lote_cartorio": "D2", "matricula": "162789", "circunscricao": "1º CIRCUNSCRIÇÃO", "zoneamento": null, "condominio": null, "area_geom": 3998.0, "cnm": "062661.2.0162789-10" }, "geometry": { "type": "Polygon", "coordinates": [ [ [ -54.782433, -22.311255 ], [ -54.7822, -22.312131 ], [ -54.781822, -22.312046 ], [ -54.782055, -22.311169 ], [ -54.782433, -22.311255 ] ] ] } },
{ "type": "Feature", "properties": { "id": 82846, "insc_imob": "01.01.22.12.080", "quadra_cartorio": "12", "lote_cartorio": "D3", "matricula": "162790", "circunscricao": "1º CIRCUNSCRIÇÃO", "zoneamento": null, "condominio": null, "area_geom": 4000.3, "cnm": "062661.2.0162790-07" }, "geometry": { "type": "Polygon", "coordinates": [ [ [ -54.782055, -22.311169 ], [ -54.781822, -22.312046 ], [ -54.781445, -22.311959 ], [ -54.781679, -22.311083 ], [ -54.782055, -22.311169 ] ] ] } },
{ "type": "Feature", "properties": { "id": 82847, "insc_imob": "01.01.22.12.090", "quadra_cartorio": "12", "lote_cartorio": "D4", "matricula": "162791", "circunscricao": "1º CIRCUNSCRIÇÃO", "zoneamento": null, "condominio": null, "area_geom": 3995.15, "cnm": "062661.2.0162791-04" }, "geometry": { "type": "Polygon", "coordinates": [ [ [ -54.781679, -22.311083 ], [ -54.781445, -22.311959 ], [ -54.781068, -22.311874 ], [ -54.781301, -22.310998 ], [ -54.781679, -22.311083 ] ] ] } },
{ "type": "Feature", "properties": { "id": 82848, "insc_imob": "01.01.22.12.100", "quadra_cartorio": "12", "lote_cartorio": "D5", "matricula": "162792", "circunscricao": "1º CIRCUNSCRIÇÃO", "zoneamento": null, "condominio": null, "area_geom": 3995.15, "cnm": "062661.2.0162792-98" }, "geometry": { "type": "Polygon", "coordinates": [ [ [ -54.781301, -22.310998 ], [ -54.781068, -22.311874 ], [ -54.780691, -22.311789 ], [ -54.780924, -22.310913 ], [ -54.781301, -22.310998 ] ] ] } },
{ "type": "Feature", "properties": { "id": 82849, "insc_imob": "01.01.22.12.140", "quadra_cartorio": "12", "lote_cartorio": "D7", "matricula": "162794", "circunscricao": "1º CIRCUNSCRIÇÃO", "zoneamento": null, "condominio": null, "area_geom": 4839.45, "cnm": "062661.2.0162794-92" }, "geometry": { "type": "Polygon", "coordinates": [ [ [ -54.782576, -22.312218 ], [ -54.7825, -22.312502 ], [ -54.781088, -22.312177 ], [ -54.781163, -22.311895 ], [ -54.782576, -22.312218 ] ] ] } },
{ "type": "Feature", "properties": { "id": 82850, "insc_imob": "01.01.22.12.110", "quadra_cartorio": "12", "lote_cartorio": "D10", "matricula": "162797", "circunscricao": "1º CIRCUNSCRIÇÃO", "zoneamento": null, "condominio": null, "area_geom": 4986.13, "cnm": "062661.2.0162797-83" }, "geometry": { "type": "Polygon", "coordinates": [ [ [ -54.781163, -22.311895 ], [ -54.780929, -22.312775 ], [ -54.78046, -22.312656 ], [ -54.780691, -22.311789 ], [ -54.781163, -22.311895 ] ] ] } },
{ "type": "Feature", "properties": { "id": 82851, "insc_imob": "01.01.22.12.120", "quadra_cartorio": "12", "lote_cartorio": "D9", "matricula": "162796", "circunscricao": "1º CIRCUNSCRIÇÃO", "zoneamento": null, "condominio": null, "area_geom": 5135.01, "cnm": "062661.2.0162796-86" }, "geometry": { "type": "Polygon", "coordinates": [ [ [ -54.782424, -22.312792 ], [ -54.782344, -22.31309 ], [ -54.780929, -22.312775 ], [ -54.78101, -22.312472 ], [ -54.782424, -22.312792 ] ] ] } },
{ "type": "Feature", "properties": { "id": 82852, "insc_imob": "01.01.22.12.130", "quadra_cartorio": "12", "lote_cartorio": "D8", "matricula": "162795", "circunscricao": "1º CIRCUNSCRIÇÃO", "zoneamento": null, "condominio": null, "area_geom": 4995.91, "cnm": "062661.2.0162795-89" }, "geometry": { "type": "Polygon", "coordinates": [ [ [ -54.7825, -22.312502 ], [ -54.782423, -22.312791 ], [ -54.78101, -22.312472 ], [ -54.781088, -22.312177 ], [ -54.7825, -22.312502 ] ] ] } },
{ "type": "Feature", "properties": { "id": 83178, "insc_imob": "01.01.12.02.200", "quadra_cartorio": "4A", "lote_cartorio": "20", "matricula": "59531", "circunscricao": "1º CIRCUNSCRIÇÃO", "zoneamento": null, "condominio": null, "area_geom": 2146.07, "cnm": "062661.2.0059531-63" }, "geometry": { "type": "Polygon", "coordinates": [ [ [ -54.779374, -22.309055 ], [ -54.779474, -22.308678 ], [ -54.779945, -22.308786 ], [ -54.779845, -22.309163 ], [ -54.779374, -22.309055 ] ] ] } },
{ "type": "Feature", "properties": { "id": 83935, "insc_imob": "01.01.12.02.050", "quadra_cartorio": "4A", "lote_cartorio": "10", "matricula": "59521", "circunscricao": "1º CIRCUNSCRIÇÃO", "zoneamento": null, "condominio": null, "area_geom": 2177.57, "cnm": "062661.2.0059521-93" }, "geometry": { "type": "Polygon", "coordinates": [ [ [ -54.781358, -22.30911 ], [ -54.781459, -22.308728 ], [ -54.78193, -22.308835 ], [ -54.781829, -22.309218 ], [ -54.781358, -22.30911 ] ] ] } },
{ "type": "Feature", "properties": { "id": 83936, "insc_imob": "01.01.12.02.130", "quadra_cartorio": "4A", "lote_cartorio": "02", "matricula": "59513", "circunscricao": "1º CIRCUNSCRIÇÃO", "zoneamento": null, "condominio": null, "area_geom": 2151.67, "cnm": "062661.2.0059513-20" }, "geometry": { "type": "Polygon", "coordinates": [ [ [ -54.777589, -22.308247 ], [ -54.777689, -22.30787 ], [ -54.77816, -22.307977 ], [ -54.77806, -22.308355 ], [ -54.777589, -22.308247 ] ] ] } },
{ "type": "Feature", "properties": { "id": 83937, "insc_imob": "01.01.01.01.130", "quadra_cartorio": "01", "lote_cartorio": "08", "matricula": "149346", "circunscricao": "1º CIRCUNSCRIÇÃO", "zoneamento": null, "condominio": null, "area_geom": 19958.97, "cnm": "062661.2.0149346-84" }, "geometry": { "type": "Polygon", "coordinates": [ [ [ -54.777159, -22.305482 ], [ -54.776706, -22.307236 ], [ -54.775764, -22.307022 ], [ -54.776216, -22.305269 ], [ -54.777159, -22.305482 ] ] ] } },
{ "type": "Feature", "properties": { "id": 84527, "insc_imob": "01.01.12.04.110", "quadra_cartorio": "07", "lote_cartorio": "11", "matricula": "24819-MÃE", "circunscricao": "1º CIRCUNSCRIÇÃO", "zoneamento": null, "condominio": null, "area_geom": 8952.98, "cnm": "062661.2.0024819-21" }, "geometry": { "type": "Polygon", "coordinates": [ [ [ -54.789207, -22.312452 ], [ -54.789433, -22.311574 ], [ -54.790109, -22.311724 ], [ -54.790222, -22.312678 ], [ -54.789207, -22.312452 ] ] ] } },
{ "type": "Feature", "properties": { "id": 85412, "insc_imob": "01.01.01.01.050", "quadra_cartorio": "01", "lote_cartorio": "16", "matricula": "63349", "circunscricao": "1º CIRCUNSCRIÇÃO", "zoneamento": null, "condominio": null, "area_geom": 19982.17, "cnm": "062661.2.0063349-55" }, "geometry": { "type": "Polygon", "coordinates": [ [ [ -54.783305, -22.308733 ], [ -54.783758, -22.306979 ], [ -54.784701, -22.30719 ], [ -54.784701, -22.307193 ], [ -54.784248, -22.308946 ], [ -54.783305, -22.308733 ] ] ] } },
{ "type": "Feature", "properties": { "id": 85559, "insc_imob": "01.01.12.12.170", "quadra_cartorio": "4B", "lote_cartorio": "17", "matricula": "59556", "circunscricao": "1º CIRCUNSCRIÇÃO", "zoneamento": null, "condominio": null, "area_geom": 2144.21, "cnm": "062661.2.0059556-85" }, "geometry": { "type": "Polygon", "coordinates": [ [ [ -54.777694, -22.309758 ], [ -54.777792, -22.309382 ], [ -54.778264, -22.309488 ], [ -54.778166, -22.309865 ], [ -54.777694, -22.309758 ] ] ] } },
{ "type": "Feature", "properties": { "id": 85699, "insc_imob": "01.01.01.01.160", "quadra_cartorio": "01", "lote_cartorio": "05", "matricula": "59982", "circunscricao": "1º CIRCUNSCRIÇÃO", "zoneamento": null, "condominio": null, "area_geom": 19942.32, "cnm": "062661.2.0059982-68" }, "geometry": { "type": "Polygon", "coordinates": [ [ [ -54.774331, -22.304842 ], [ -54.773878, -22.306594 ], [ -54.772936, -22.30638 ], [ -54.773388, -22.304629 ], [ -54.774331, -22.304842 ] ] ] } },
{ "type": "Feature", "properties": { "id": 94910, "insc_imob": "01.01.33.01.010", "quadra_cartorio": "00", "lote_cartorio": "REMANESCENTE", "matricula": "24819-MÃE", "circunscricao": "1º CIRCUNSCRIÇÃO", "zoneamento": null, "condominio": null, "area_geom": 850901.21, "cnm": "062661.2.0024819-21" }, "geometry": { "type": "Polygon", "coordinates": [ [ [ -54.780973, -22.3132 ], [ -54.792016, -22.315773 ], [ -54.793021, -22.322711 ], [ -54.792594, -22.322638 ], [ -54.784947, -22.321001 ], [ -54.782285, -22.320495 ], [ -54.781908, -22.318443 ], [ -54.780973, -22.3132 ] ] ] } },
{ "type": "Feature", "properties": { "id": 94949, "insc_imob": "01.01.22.14.020", "quadra_cartorio": "13", "lote_cartorio": "ÚNICO", "matricula": "149850", "circunscricao": "1º CIRCUNSCRIÇÃO", "zoneamento": null, "condominio": null, "area_geom": 156529.4, "cnm": "062661.2.0149850-27" }, "geometry": { "type": "Polygon", "coordinates": [ [ [ -54.790244, -22.313049 ], [ -54.790453, -22.314953 ], [ -54.782726, -22.313189 ], [ -54.783199, -22.311439 ], [ -54.790244, -22.313049 ] ] ] } },
{ "type": "Feature", "properties": { "id": 95663, "insc_imob": "01.01.01.01.070", "quadra_cartorio": null, "lote_cartorio": "04", "matricula": "59391", "circunscricao": "1º CIRCUNSCRIÇÃO", "zoneamento": null, "condominio": null, "area_geom": 19982.14, "cnm": "062661.2.0059391-95" }, "geometry": { "type": "Polygon", "coordinates": [ [ [ -54.78142, -22.308305 ], [ -54.781873, -22.306551 ], [ -54.782816, -22.306762 ], [ -54.782815, -22.306765 ], [ -54.782362, -22.308519 ], [ -54.78142, -22.308305 ] ] ] } },
{ "type": "Feature", "properties": { "id": 98614, "insc_imob": "01.01.12.12.260", "quadra_cartorio": "4B", "lote_cartorio": "26", "matricula": "59565", "circunscricao": "1º CIRCUNSCRIÇÃO", "zoneamento": null, "condominio": null, "area_geom": 2147.8, "cnm": "062661.2.0059565-58" }, "geometry": { "type": "Polygon", "coordinates": [ [ [ -54.781938, -22.310715 ], [ -54.782036, -22.310338 ], [ -54.782507, -22.310445 ], [ -54.782409, -22.310822 ], [ -54.781938, -22.310715 ] ] ] } },
{ "type": "Feature", "properties": { "id": 98615, "insc_imob": "01.01.12.13.010", "quadra_cartorio": "06", "lote_cartorio": "06", "matricula": "60036", "circunscricao": "1º CIRCUNSCRIÇÃO", "zoneamento": null, "condominio": null, "area_geom": 2147.72, "cnm": "062661.2.0060036-03" }, "geometry": { "type": "Polygon", "coordinates": [ [ [ -54.786237, -22.311289 ], [ -54.786334, -22.310912 ], [ -54.786807, -22.311017 ], [ -54.78671, -22.311394 ], [ -54.786237, -22.311289 ] ] ] } },
{ "type": "Feature", "properties": { "id": 98616, "insc_imob": "01.01.12.13.020", "quadra_cartorio": "06", "lote_cartorio": "05", "matricula": "60035", "circunscricao": "1º CIRCUNSCRIÇÃO", "zoneamento": null, "condominio": null, "area_geom": 2145.27, "cnm": "062661.2.0060035-06" }, "geometry": { "type": "Polygon", "coordinates": [ [ [ -54.785766, -22.311184 ], [ -54.785863, -22.310807 ], [ -54.786334, -22.310912 ], [ -54.786237, -22.311289 ], [ -54.785766, -22.311184 ] ] ] } },
{ "type": "Feature", "properties": { "id": 98731, "insc_imob": "01.01.12.13.040", "quadra_cartorio": "06", "lote_cartorio": "03", "matricula": "62457", "circunscricao": "1º CIRCUNSCRIÇÃO", "zoneamento": null, "condominio": null, "area_geom": 2146.89, "cnm": "062661.2.0062457-15" }, "geometry": { "type": "Polygon", "coordinates": [ [ [ -54.784822, -22.310975 ], [ -54.784918, -22.310597 ], [ -54.78539, -22.310702 ], [ -54.785294, -22.311079 ], [ -54.784822, -22.310975 ] ] ] } },
{ "type": "Feature", "properties": { "id": 98750, "insc_imob": "01.01.12.12.130", "quadra_cartorio": "4B", "lote_cartorio": "02", "matricula": "59541", "circunscricao": "1º CIRCUNSCRIÇÃO", "zoneamento": null, "condominio": null, "area_geom": 2151.67, "cnm": "062661.2.0059541-33" }, "geometry": { "type": "Polygon", "coordinates": [ [ [ -54.777321, -22.309275 ], [ -54.777419, -22.308898 ], [ -54.77789, -22.309003 ], [ -54.777792, -22.309382 ], [ -54.777321, -22.309275 ] ] ] } },
{ "type": "Feature", "properties": { "id": 98870, "insc_imob": "01.01.22.12.050", "quadra_cartorio": "12", "lote_cartorio": "F", "matricula": "59508", "circunscricao": "1º CIRCUNSCRIÇÃO", "zoneamento": null, "condominio": null, "area_geom": 30813.24, "cnm": "062661.2.0059508-35" }, "geometry": { "type": "Polygon", "coordinates": [ [ [ -54.777633, -22.312005 ], [ -54.77618, -22.31167 ], [ -54.776651, -22.309918 ], [ -54.778101, -22.310252 ], [ -54.777633, -22.312005 ] ] ] } },
{ "type": "Feature", "properties": { "id": 98907, "insc_imob": "01.01.12.03.030", "quadra_cartorio": "05", "lote_cartorio": "04", "matricula": "24919", "circunscricao": "1º CIRCUNSCRIÇÃO", "zoneamento": null, "condominio": null, "area_geom": 2147.91, "cnm": "062661.2.0024919-12" }, "geometry": { "type": "Polygon", "coordinates": [ [ [ -54.785551, -22.310076 ], [ -54.785648, -22.309698 ], [ -54.78612, -22.309803 ], [ -54.786023, -22.31018 ], [ -54.785551, -22.310076 ] ] ] } },
{ "type": "Feature", "properties": { "id": 99796, "insc_imob": "01.01.12.04.070", "quadra_cartorio": "07", "lote_cartorio": "07", "matricula": "24819-MÃE", "circunscricao": "1º CIRCUNSCRIÇÃO", "zoneamento": null, "condominio": null, "area_geom": 4997.59, "cnm": "062661.2.0024819-21" }, "geometry": { "type": "Polygon", "coordinates": [ [ [ -54.788017, -22.31126 ], [ -54.787791, -22.312138 ], [ -54.787319, -22.312033 ], [ -54.787545, -22.311155 ], [ -54.788017, -22.31126 ] ] ] } },
{ "type": "Feature", "properties": { "id": 99798, "insc_imob": "01.01.12.03.040", "quadra_cartorio": "05", "lote_cartorio": "03", "matricula": "24819-MÃE", "circunscricao": "1º CIRCUNSCRIÇÃO", "zoneamento": null, "condominio": null, "area_geom": 2146.89, "cnm": "062661.2.0024819-21" }, "geometry": { "type": "Polygon", "coordinates": [ [ [ -54.785079, -22.309971 ], [ -54.785176, -22.309594 ], [ -54.785648, -22.309698 ], [ -54.785551, -22.310076 ], [ -54.785079, -22.309971 ] ] ] } },
{ "type": "Feature", "properties": { "id": 99971, "insc_imob": "01.01.12.04.080", "quadra_cartorio": "07", "lote_cartorio": "08", "matricula": "24819-MÃE", "circunscricao": "1º CIRCUNSCRIÇÃO", "zoneamento": null, "condominio": null, "area_geom": 4997.59, "cnm": "062661.2.0024819-21" }, "geometry": { "type": "Polygon", "coordinates": [ [ [ -54.788489, -22.311365 ], [ -54.788262, -22.312243 ], [ -54.787791, -22.312138 ], [ -54.788017, -22.31126 ], [ -54.788489, -22.311365 ] ] ] } },
{ "type": "Feature", "properties": { "id": 100354, "insc_imob": "01.01.22.11.011", "quadra_cartorio": "11", "lote_cartorio": "01A", "matricula": "137809", "circunscricao": "1º CIRCUNSCRIÇÃO", "zoneamento": null, "condominio": null, "area_geom": 10199.02, "cnm": "062661.2.0137809-66" }, "geometry": { "type": "Polygon", "coordinates": [ [ [ -54.77598, -22.310654 ], [ -54.775042, -22.310445 ], [ -54.775267, -22.309567 ], [ -54.776211, -22.309777 ], [ -54.77623, -22.309781 ], [ -54.776005, -22.310659 ], [ -54.77598, -22.310654 ] ] ] } },
{ "type": "Feature", "properties": { "id": 100474, "insc_imob": "01.01.01.01.120", "quadra_cartorio": "01", "lote_cartorio": "09", "matricula": "62941", "circunscricao": "1º CIRCUNSCRIÇÃO", "zoneamento": null, "condominio": null, "area_geom": 19964.55, "cnm": "062661.2.0062941-18" }, "geometry": { "type": "Polygon", "coordinates": [ [ [ -54.778102, -22.305696 ], [ -54.777649, -22.307449 ], [ -54.776706, -22.307236 ], [ -54.777159, -22.305482 ], [ -54.778102, -22.305696 ] ] ] } },
{ "type": "Feature", "properties": { "id": 100599, "insc_imob": "01.01.12.12.050", "quadra_cartorio": "4B", "lote_cartorio": "10", "matricula": "59549", "circunscricao": "1º CIRCUNSCRIÇÃO", "zoneamento": null, "condominio": null, "area_geom": 2177.57, "cnm": "062661.2.0059549-09" }, "geometry": { "type": "Polygon", "coordinates": [ [ [ -54.781093, -22.310126 ], [ -54.781192, -22.309744 ], [ -54.781664, -22.30985 ], [ -54.781564, -22.310232 ], [ -54.781093, -22.310126 ] ] ] } },
{ "type": "Feature", "properties": { "id": 100649, "insc_imob": "01.01.11.22.070", "quadra_cartorio": "08", "lote_cartorio": "02", "matricula": "143571", "circunscricao": "1º CIRCUNSCRIÇÃO", "zoneamento": null, "condominio": null, "area_geom": 2173.27, "cnm": "062661.2.0143571-46" }, "geometry": { "type": "Polygon", "coordinates": [ [ [ -54.768002, -22.310604 ], [ -54.768101, -22.310223 ], [ -54.768573, -22.310328 ], [ -54.768474, -22.31071 ], [ -54.768002, -22.310604 ] ] ] } },
{ "type": "Feature", "properties": { "id": 100710, "insc_imob": "01.01.12.13.120", "quadra_cartorio": "06", "lote_cartorio": "12", "matricula": "60038", "circunscricao": "1º CIRCUNSCRIÇÃO", "zoneamento": null, "condominio": null, "area_geom": 2149.46, "cnm": "062661.2.0060038-94" }, "geometry": { "type": "Polygon", "coordinates": [ [ [ -54.786141, -22.311666 ], [ -54.786237, -22.311289 ], [ -54.78671, -22.311394 ], [ -54.786613, -22.311771 ], [ -54.786141, -22.311666 ] ] ] } },
{ "type": "Feature", "properties": { "id": 100852, "insc_imob": "01.01.12.12.080", "quadra_cartorio": "4B", "lote_cartorio": "07", "matricula": "59546", "circunscricao": "1º CIRCUNSCRIÇÃO", "zoneamento": null, "condominio": null, "area_geom": 2165.93, "cnm": "062661.2.0059546-18" }, "geometry": { "type": "Polygon", "coordinates": [ [ [ -54.779678, -22.309807 ], [ -54.779777, -22.309427 ], [ -54.780249, -22.309532 ], [ -54.78015, -22.309913 ], [ -54.779678, -22.309807 ] ] ] } },
{ "type": "Feature", "properties": { "id": 100896, "insc_imob": "01.01.12.12.020", "quadra_cartorio": "4B", "lote_cartorio": "13", "matricula": "59552", "circunscricao": "1º CIRCUNSCRIÇÃO", "zoneamento": null, "condominio": null, "area_geom": 2184.41, "cnm": "062661.2.0059552-97" }, "geometry": { "type": "Polygon", "coordinates": [ [ [ -54.783079, -22.310167 ], [ -54.782979, -22.310551 ], [ -54.782507, -22.310445 ], [ -54.782607, -22.310061 ], [ -54.783079, -22.310167 ] ] ] } },
{ "type": "Feature", "properties": { "id": 100982, "insc_imob": "01.01.11.02.010", "quadra_cartorio": "02", "lote_cartorio": null, "matricula": "54484", "circunscricao": "1º CIRCUNSCRIÇÃO", "zoneamento": null, "condominio": null, "area_geom": 188921.08, "cnm": "062661.2.0054484-72" }, "geometry": { "type": "Polygon", "coordinates": [ [ [ -54.767067, -22.309628 ], [ -54.769165, -22.305886 ], [ -54.772557, -22.306635 ], [ -54.77155, -22.310618 ], [ -54.767067, -22.309628 ] ] ] } },
{ "type": "Feature", "properties": { "id": 101203, "insc_imob": "01.01.12.02.090", "quadra_cartorio": "4A", "lote_cartorio": "06", "matricula": "59517", "circunscricao": "1º CIRCUNSCRIÇÃO", "zoneamento": null, "condominio": null, "area_geom": 2165.34, "cnm": "062661.2.0059517-08" }, "geometry": { "type": "Polygon", "coordinates": [ [ [ -54.779474, -22.308678 ], [ -54.779574, -22.308299 ], [ -54.780046, -22.308406 ], [ -54.779945, -22.308786 ], [ -54.779474, -22.308678 ] ] ] } },
{ "type": "Feature", "properties": { "id": 101204, "insc_imob": "01.01.22.12.040", "quadra_cartorio": "12", "lote_cartorio": "E", "matricula": "59507", "circunscricao": "1º CIRCUNSCRIÇÃO", "zoneamento": null, "condominio": null, "area_geom": 19991.94, "cnm": "062661.2.0059507-38" }, "geometry": { "type": "Polygon", "coordinates": [ [ [ -54.777633, -22.312005 ], [ -54.778101, -22.310252 ], [ -54.779043, -22.310468 ], [ -54.778575, -22.312221 ], [ -54.777633, -22.312005 ] ] ] } },
{ "type": "Feature", "properties": { "id": 101206, "insc_imob": "01.01.11.22.080", "quadra_cartorio": "08", "lote_cartorio": "01", "matricula": "143570", "circunscricao": "1º CIRCUNSCRIÇÃO", "zoneamento": null, "condominio": null, "area_geom": 2159.21, "cnm": "062661.2.0143570-49" }, "geometry": { "type": "Polygon", "coordinates": [ [ [ -54.767533, -22.3105 ], [ -54.767629, -22.310119 ], [ -54.768101, -22.310223 ], [ -54.768002, -22.310604 ], [ -54.767533, -22.3105 ] ] ] } },
{ "type": "Feature", "properties": { "id": 101294, "insc_imob": "01.01.12.02.240", "quadra_cartorio": "4A", "lote_cartorio": "24", "matricula": "59535", "circunscricao": "1º CIRCUNSCRIÇÃO", "zoneamento": null, "condominio": null, "area_geom": 2146.86, "cnm": "062661.2.0059535-51" }, "geometry": { "type": "Polygon", "coordinates": [ [ [ -54.781259, -22.309486 ], [ -54.781358, -22.30911 ], [ -54.781829, -22.309218 ], [ -54.78173, -22.309594 ], [ -54.781259, -22.309486 ] ] ] } },
{ "type": "Feature", "properties": { "id": 101698, "insc_imob": "01.01.12.12.240", "quadra_cartorio": "4B", "lote_cartorio": "24", "matricula": "59563", "circunscricao": "1º CIRCUNSCRIÇÃO", "zoneamento": null, "condominio": null, "area_geom": 2146.87, "cnm": "062661.2.0059563-64" }, "geometry": { "type": "Polygon", "coordinates": [ [ [ -54.780994, -22.310503 ], [ -54.781093, -22.310126 ], [ -54.781564, -22.310232 ], [ -54.781466, -22.310609 ], [ -54.780994, -22.310503 ] ] ] } },
{ "type": "Feature", "properties": { "id": 101736, "insc_imob": "01.01.12.12.090", "quadra_cartorio": "4B", "lote_cartorio": "06", "matricula": "59545", "circunscricao": "1º CIRCUNSCRIÇÃO", "zoneamento": null, "condominio": null, "area_geom": 2165.35, "cnm": "062661.2.0059545-21" }, "geometry": { "type": "Polygon", "coordinates": [ [ [ -54.779207, -22.309701 ], [ -54.779305, -22.309321 ], [ -54.779777, -22.309427 ], [ -54.779678, -22.309807 ], [ -54.779207, -22.309701 ] ] ] } },
{ "type": "Feature", "properties": { "id": 101748, "insc_imob": "01.01.01.01.110", "quadra_cartorio": "01", "lote_cartorio": "10", "matricula": "61680", "circunscricao": "1º CIRCUNSCRIÇÃO", "zoneamento": null, "condominio": null, "area_geom": 19970.13, "cnm": "062661.2.0061680-18" }, "geometry": { "type": "Polygon", "coordinates": [ [ [ -54.779045, -22.305909 ], [ -54.778592, -22.307663 ], [ -54.777649, -22.307449 ], [ -54.778102, -22.305696 ], [ -54.779045, -22.305909 ] ] ] } },
{ "type": "Feature", "properties": { "id": 102207, "insc_imob": "01.01.12.02.280", "quadra_cartorio": "4A", "lote_cartorio": "28", "matricula": "59539", "circunscricao": "1º CIRCUNSCRIÇÃO", "zoneamento": null, "condominio": null, "area_geom": 2139.71, "cnm": "062661.2.0059539-39" }, "geometry": { "type": "Polygon", "coordinates": [ [ [ -54.78371, -22.309648 ], [ -54.783614, -22.310026 ], [ -54.783143, -22.309918 ], [ -54.783243, -22.309541 ], [ -54.78371, -22.309648 ] ] ] } },
{ "type": "Feature", "properties": { "id": 102208, "insc_imob": "01.01.12.03.010", "quadra_cartorio": "05", "lote_cartorio": "06", "matricula": "54842", "circunscricao": "1º CIRCUNSCRIÇÃO", "zoneamento": null, "condominio": null, "area_geom": 2147.73, "cnm": "062661.2.0054842-65" }, "geometry": { "type": "Polygon", "coordinates": [ [ [ -54.786495, -22.310285 ], [ -54.786591, -22.309908 ], [ -54.787064, -22.310013 ], [ -54.786967, -22.31039 ], [ -54.786495, -22.310285 ] ] ] } },
{ "type": "Feature", "properties": { "id": 102307, "insc_imob": "01.01.11.21.012", "quadra_cartorio": "10", "lote_cartorio": "02-B", "matricula": "95459", "circunscricao": "1º CIRCUNSCRIÇÃO", "zoneamento": null, "condominio": null, "area_geom": 1711.68, "cnm": "062661.2.0095459-46" }, "geometry": { "type": "Polygon", "coordinates": [ [ [ -54.766359, -22.310724 ], [ -54.766591, -22.31031 ], [ -54.766888, -22.310376 ], [ -54.766705, -22.310801 ], [ -54.766626, -22.310783 ], [ -54.766438, -22.310742 ], [ -54.766359, -22.310724 ] ] ] } },
{ "type": "Feature", "properties": { "id": 102673, "insc_imob": "01.01.22.12.009", "quadra_cartorio": "12", "lote_cartorio": "A", "matricula": "59503", "circunscricao": "1º CIRCUNSCRIÇÃO", "zoneamento": null, "condominio": null, "area_geom": 288.13, "cnm": "062661.2.0059503-50" }, "geometry": { "type": "Polygon", "coordinates": [ [ [ -54.782761, -22.311511 ], [ -54.782623, -22.311479 ], [ -54.782668, -22.311308 ], [ -54.782807, -22.31134 ], [ -54.782761, -22.311511 ] ] ] } },
{ "type": "Feature", "properties": { "id": 103912, "insc_imob": "01.01.12.02.070", "quadra_cartorio": "4A", "lote_cartorio": "08", "matricula": "59519", "circunscricao": "1º CIRCUNSCRIÇÃO", "zoneamento": null, "condominio": null, "area_geom": 2171.43, "cnm": "062661.2.0059519-02" }, "geometry": { "type": "Polygon", "coordinates": [ [ [ -54.780416, -22.308894 ], [ -54.780516, -22.308513 ], [ -54.780988, -22.308621 ], [ -54.780887, -22.309002 ], [ -54.780416, -22.308894 ] ] ] } },
{ "type": "Feature", "properties": { "id": 103913, "insc_imob": "01.01.12.02.140", "quadra_cartorio": "4A", "lote_cartorio": "01", "matricula": "59512", "circunscricao": "1º CIRCUNSCRIÇÃO", "zoneamento": null, "condominio": null, "area_geom": 2120.12, "cnm": "062661.2.0059512-23" }, "geometry": { "type": "Polygon", "coordinates": [ [ [ -54.777689, -22.30787 ], [ -54.777589, -22.308247 ], [ -54.777122, -22.30814 ], [ -54.777225, -22.307765 ], [ -54.777689, -22.30787 ] ] ] } },
{ "type": "Feature", "properties": { "id": 103927, "insc_imob": "01.01.12.03.110", "quadra_cartorio": "05", "lote_cartorio": "11", "matricula": "54843", "circunscricao": "1º CIRCUNSCRIÇÃO", "zoneamento": null, "condominio": null, "area_geom": 2147.9, "cnm": "062661.2.0054843-62" }, "geometry": { "type": "Polygon", "coordinates": [ [ [ -54.785926, -22.310558 ], [ -54.786023, -22.31018 ], [ -54.786495, -22.310285 ], [ -54.786398, -22.310663 ], [ -54.785926, -22.310558 ] ] ] } },
{ "type": "Feature", "properties": { "id": 103929, "insc_imob": "01.01.12.12.060", "quadra_cartorio": "4B", "lote_cartorio": "09", "matricula": "59548", "circunscricao": "1º CIRCUNSCRIÇÃO", "zoneamento": null, "condominio": null, "area_geom": 2173.32, "cnm": "062661.2.0059548-12" }, "geometry": { "type": "Polygon", "coordinates": [ [ [ -54.780621, -22.31002 ], [ -54.780721, -22.309638 ], [ -54.781192, -22.309744 ], [ -54.781093, -22.310126 ], [ -54.780621, -22.31002 ] ] ] } },
{ "type": "Feature", "properties": { "id": 103944, "insc_imob": "01.01.22.11.020", "quadra_cartorio": "11", "lote_cartorio": "02", "matricula": "59500", "circunscricao": "1º CIRCUNSCRIÇÃO", "zoneamento": null, "condominio": null, "area_geom": 19995.11, "cnm": "062661.2.0059500-59" }, "geometry": { "type": "Polygon", "coordinates": [ [ [ -54.773871, -22.311114 ], [ -54.774324, -22.309358 ], [ -54.775267, -22.309567 ], [ -54.775042, -22.310445 ], [ -54.774815, -22.311324 ], [ -54.773871, -22.311114 ] ] ] } },
{ "type": "Feature", "properties": { "id": 104788, "insc_imob": "01.01.12.02.170", "quadra_cartorio": "4A", "lote_cartorio": "17", "matricula": "59528", "circunscricao": "1º CIRCUNSCRIÇÃO", "zoneamento": null, "condominio": null, "area_geom": 2144.21, "cnm": "062661.2.0059528-72" }, "geometry": { "type": "Polygon", "coordinates": [ [ [ -54.777961, -22.308731 ], [ -54.77806, -22.308355 ], [ -54.778531, -22.308463 ], [ -54.778432, -22.308839 ], [ -54.777961, -22.308731 ] ] ] } },
{ "type": "Feature", "properties": { "id": 104954, "insc_imob": "01.01.12.12.110", "quadra_cartorio": "4B", "lote_cartorio": "04", "matricula": "59543", "circunscricao": "1º CIRCUNSCRIÇÃO", "zoneamento": null, "condominio": null, "area_geom": 2159.08, "cnm": "062661.2.0059543-27" }, "geometry": { "type": "Polygon", "coordinates": [ [ [ -54.778834, -22.309215 ], [ -54.778735, -22.309594 ], [ -54.778264, -22.309488 ], [ -54.778362, -22.309109 ], [ -54.778834, -22.309215 ] ] ] } },
{ "type": "Feature", "properties": { "id": 105285, "insc_imob": "01.01.12.13.030", "quadra_cartorio": "06", "lote_cartorio": "04", "matricula": "62458", "circunscricao": "1º CIRCUNSCRIÇÃO", "zoneamento": null, "condominio": null, "area_geom": 2147.91, "cnm": "062661.2.0062458-12" }, "geometry": { "type": "Polygon", "coordinates": [ [ [ -54.785294, -22.311079 ], [ -54.78539, -22.310702 ], [ -54.785863, -22.310807 ], [ -54.785766, -22.311184 ], [ -54.785294, -22.311079 ] ] ] } },
{ "type": "Feature", "properties": { "id": 105555, "insc_imob": "01.01.12.02.061", "quadra_cartorio": "4A", "lote_cartorio": "A1", "matricula": "98722", "circunscricao": "1º CIRCUNSCRIÇÃO", "zoneamento": null, "condominio": null, "area_geom": 4320.35, "cnm": "062661.2.0098722-54" }, "geometry": { "type": "Polygon", "coordinates": [ [ [ -54.780887, -22.309002 ], [ -54.780988, -22.308621 ], [ -54.781459, -22.308728 ], [ -54.781358, -22.30911 ], [ -54.781259, -22.309486 ], [ -54.780787, -22.309379 ], [ -54.780887, -22.309002 ] ] ] } },
{ "type": "Feature", "properties": { "id": 105572, "insc_imob": "01.01.12.12.040", "quadra_cartorio": "4B", "lote_cartorio": "11", "matricula": "59550", "circunscricao": "1º CIRCUNSCRIÇÃO", "zoneamento": null, "condominio": null, "area_geom": 2180.2, "cnm": "062661.2.0059550-06" }, "geometry": { "type": "Polygon", "coordinates": [ [ [ -54.782135, -22.309955 ], [ -54.782036, -22.310338 ], [ -54.781564, -22.310232 ], [ -54.781664, -22.30985 ], [ -54.782135, -22.309955 ] ] ] } },
{ "type": "Feature", "properties": { "id": 105747, "insc_imob": "01.01.12.12.220", "quadra_cartorio": "4B", "lote_cartorio": "22", "matricula": "59561", "circunscricao": "1º CIRCUNSCRIÇÃO", "zoneamento": null, "condominio": null, "area_geom": 2148.16, "cnm": "062661.2.0059561-70" }, "geometry": { "type": "Polygon", "coordinates": [ [ [ -54.780051, -22.31029 ], [ -54.78015, -22.309913 ], [ -54.780621, -22.31002 ], [ -54.780523, -22.310397 ], [ -54.780051, -22.31029 ] ] ] } },
{ "type": "Feature", "properties": { "id": 105918, "insc_imob": "01.01.12.01.010", "quadra_cartorio": "03", "lote_cartorio": "A1", "matricula": "76115", "circunscricao": "1º CIRCUNSCRIÇÃO", "zoneamento": null, "condominio": null, "area_geom": 79719.75, "cnm": "062661.2.0076115-72" }, "geometry": { "type": "Polygon", "coordinates": [ [ [ -54.77586, -22.309288 ], [ -54.775389, -22.309181 ], [ -54.774917, -22.309074 ], [ -54.774446, -22.308967 ], [ -54.773975, -22.30886 ], [ -54.773503, -22.308753 ], [ -54.773032, -22.308646 ], [ -54.772561, -22.308539 ], [ -54.772792, -22.307662 ], [ -54.773021, -22.306792 ], [ -54.773492, -22.306899 ], [ -54.773964, -22.307005 ], [ -54.774435, -22.307112 ], [ -54.774907, -22.307218 ], [ -54.775378, -22.307325 ], [ -54.775849, -22.307431 ], [ -54.776318, -22.307537 ], [ -54.77679, -22.307643 ], [ -54.776561, -22.308518 ], [ -54.776331, -22.309395 ], [ -54.77586, -22.309288 ] ] ] } },
{ "type": "Feature", "properties": { "id": 110412, "insc_imob": "01.01.22.11.030", "quadra_cartorio": "11", "lote_cartorio": "03", "matricula": "59501", "circunscricao": "1º CIRCUNSCRIÇÃO", "zoneamento": null, "condominio": null, "area_geom": 19989.75, "cnm": "062661.2.0059501-56" }, "geometry": { "type": "Polygon", "coordinates": [ [ [ -54.772927, -22.310905 ], [ -54.77338, -22.309149 ], [ -54.774324, -22.309358 ], [ -54.773871, -22.311114 ], [ -54.772927, -22.310905 ] ] ] } },
{ "type": "Feature", "properties": { "id": 112751, "insc_imob": "01.01.01.01.010", "quadra_cartorio": "01", "lote_cartorio": "20", "matricula": "48932", "circunscricao": "1º CIRCUNSCRIÇÃO", "zoneamento": null, "condominio": null, "area_geom": 53892.28, "cnm": "062661.2.0048932-44" }, "geometry": { "type": "Polygon", "coordinates": [ [ [ -54.790009, -22.310253 ], [ -54.787236, -22.309624 ], [ -54.78769, -22.307866 ], [ -54.789778, -22.308167 ], [ -54.790009, -22.310253 ] ] ] } },
{ "type": "Feature", "properties": { "id": 114133, "insc_imob": "01.01.12.02.080", "quadra_cartorio": "4A", "lote_cartorio": "07", "matricula": "59518", "circunscricao": "1º CIRCUNSCRIÇÃO", "zoneamento": null, "condominio": null, "area_geom": 2165.93, "cnm": "062661.2.0059518-05" }, "geometry": { "type": "Polygon", "coordinates": [ [ [ -54.779945, -22.308786 ], [ -54.780046, -22.308406 ], [ -54.780516, -22.308513 ], [ -54.780416, -22.308894 ], [ -54.779945, -22.308786 ] ] ] } },
{ "type": "Feature", "properties": { "id": 115636, "insc_imob": "01.01.12.02.160", "quadra_cartorio": "4A", "lote_cartorio": "16", "matricula": "59527", "circunscricao": "1º CIRCUNSCRIÇÃO", "zoneamento": null, "condominio": null, "area_geom": 2145.3, "cnm": "062661.2.0059527-75" }, "geometry": { "type": "Polygon", "coordinates": [ [ [ -54.77749, -22.308623 ], [ -54.777589, -22.308247 ], [ -54.77806, -22.308355 ], [ -54.777961, -22.308731 ], [ -54.77749, -22.308623 ] ] ] } },
{ "type": "Feature", "properties": { "id": 117868, "insc_imob": "01.01.11.23.010", "quadra_cartorio": "09", "lote_cartorio": null, "matricula": "48936", "circunscricao": "1º CIRCUNSCRIÇÃO", "zoneamento": null, "condominio": null, "area_geom": 34463.4, "cnm": "062661.2.0048936-32" }, "geometry": { "type": "Polygon", "coordinates": [ [ [ -54.770464, -22.312604 ], [ -54.769992, -22.312499 ], [ -54.76952, -22.312394 ], [ -54.76905, -22.312288 ], [ -54.768577, -22.312183 ], [ -54.768106, -22.312077 ], [ -54.767634, -22.311972 ], [ -54.767167, -22.311867 ], [ -54.76726, -22.311494 ], [ -54.767356, -22.311113 ], [ -54.767828, -22.311217 ], [ -54.7683, -22.311322 ], [ -54.768772, -22.311426 ], [ -54.769244, -22.31153 ], [ -54.769716, -22.311634 ], [ -54.770188, -22.311738 ], [ -54.77066, -22.311842 ], [ -54.771123, -22.311946 ], [ -54.771029, -22.312332 ], [ -54.770936, -22.31271 ], [ -54.770464, -22.312604 ] ] ] } },
{ "type": "Feature", "properties": { "id": 119128, "insc_imob": "01.01.11.22.100", "quadra_cartorio": "08", "lote_cartorio": "10", "matricula": "143573", "circunscricao": "1º CIRCUNSCRIÇÃO", "zoneamento": null, "condominio": null, "area_geom": 2129.21, "cnm": "062661.2.0143573-40" }, "geometry": { "type": "Polygon", "coordinates": [ [ [ -54.767907, -22.310978 ], [ -54.768002, -22.310604 ], [ -54.768474, -22.31071 ], [ -54.768378, -22.311083 ], [ -54.767907, -22.310978 ] ] ] } },
{ "type": "Feature", "properties": { "id": 119129, "insc_imob": "01.01.01.01.100", "quadra_cartorio": "01", "lote_cartorio": "11", "matricula": "61681", "circunscricao": "1º CIRCUNSCRIÇÃO", "zoneamento": null, "condominio": null, "area_geom": 19975.69, "cnm": "062661.2.0061681-15" }, "geometry": { "type": "Polygon", "coordinates": [ [ [ -54.779988, -22.306123 ], [ -54.779534, -22.307877 ], [ -54.778592, -22.307663 ], [ -54.779045, -22.305909 ], [ -54.779988, -22.306123 ] ] ] } },
{ "type": "Feature", "properties": { "id": 119559, "insc_imob": "01.01.12.02.030", "quadra_cartorio": "4A", "lote_cartorio": "12", "matricula": "59523", "circunscricao": "1º CIRCUNSCRIÇÃO", "zoneamento": null, "condominio": null, "area_geom": 2183.86, "cnm": "062661.2.0059523-87" }, "geometry": { "type": "Polygon", "coordinates": [ [ [ -54.782873, -22.30905 ], [ -54.782771, -22.309433 ], [ -54.7823, -22.309325 ], [ -54.782401, -22.308943 ], [ -54.782873, -22.30905 ] ] ] } },
{ "type": "Feature", "properties": { "id": 119986, "insc_imob": "01.01.01.01.060", "quadra_cartorio": "01", "lote_cartorio": "A", "matricula": "63549", "circunscricao": "1º CIRCUNSCRIÇÃO", "zoneamento": null, "condominio": null, "area_geom": 19982.17, "cnm": "062661.2.0063549-37" }, "geometry": { "type": "Polygon", "coordinates": [ [ [ -54.782362, -22.308519 ], [ -54.782815, -22.306765 ], [ -54.783759, -22.306976 ], [ -54.783758, -22.306979 ], [ -54.783305, -22.308733 ], [ -54.782362, -22.308519 ] ] ] } },
{ "type": "Feature", "properties": { "id": 2667, "insc_imob": "01.01.12.12.070", "quadra_cartorio": null, "lote_cartorio": "08", "matricula": "59547", "circunscricao": "1º CIRCUNSCRIÇÃO", "zoneamento": null, "condominio": null, "area_geom": 2172.97, "cnm": "062661.2.0059547-15" }, "geometry": { "type": "Polygon", "coordinates": [ [ [ -54.78015, -22.309913 ], [ -54.780249, -22.309532 ], [ -54.780721, -22.309638 ], [ -54.780621, -22.31002 ], [ -54.78015, -22.309913 ] ] ] } },
{ "type": "Feature", "properties": { "id": 3898, "insc_imob": "01.01.01.01.170", "quadra_cartorio": null, "lote_cartorio": "04", "matricula": "59391", "circunscricao": "1º CIRCUNSCRIÇÃO", "zoneamento": null, "condominio": null, "area_geom": 19946.59, "cnm": "062661.2.0059391-95" }, "geometry": { "type": "Polygon", "coordinates": [ [ [ -54.773388, -22.304629 ], [ -54.772936, -22.30638 ], [ -54.771993, -22.306166 ], [ -54.772445, -22.304415 ], [ -54.773388, -22.304629 ] ] ] } },
{ "type": "Feature", "properties": { "id": 7219, "insc_imob": "01.01.12.12.010", "quadra_cartorio": null, "lote_cartorio": "14", "matricula": "59553", "circunscricao": "1º CIRCUNSCRIÇÃO", "zoneamento": null, "condominio": null, "area_geom": 2170.66, "cnm": "062661.2.0059553-94" }, "geometry": { "type": "Polygon", "coordinates": [ [ [ -54.782979, -22.310551 ], [ -54.783079, -22.310167 ], [ -54.783542, -22.310271 ], [ -54.78345, -22.310657 ], [ -54.782979, -22.310551 ] ] ] } },
{ "type": "Feature", "properties": { "id": 7585, "insc_imob": "01.01.12.12.030", "quadra_cartorio": null, "lote_cartorio": "12", "matricula": "59551", "circunscricao": "1º CIRCUNSCRIÇÃO", "zoneamento": null, "condominio": null, "area_geom": 2184.92, "cnm": "062661.2.0059551-03" }, "geometry": { "type": "Polygon", "coordinates": [ [ [ -54.782036, -22.310338 ], [ -54.782135, -22.309955 ], [ -54.782607, -22.310061 ], [ -54.782507, -22.310445 ], [ -54.782036, -22.310338 ] ] ] } },
{ "type": "Feature", "properties": { "id": 9014, "insc_imob": "01.01.12.03.120", "quadra_cartorio": null, "lote_cartorio": "12", "matricula": "54844", "circunscricao": "1º CIRCUNSCRIÇÃO", "zoneamento": null, "condominio": null, "area_geom": 2150.5, "cnm": "062661.2.0054844-59" }, "geometry": { "type": "Polygon", "coordinates": [ [ [ -54.786398, -22.310663 ], [ -54.786495, -22.310285 ], [ -54.786967, -22.31039 ], [ -54.78687, -22.310767 ], [ -54.786398, -22.310663 ] ] ] } },
{ "type": "Feature", "properties": { "id": 9556, "insc_imob": "01.01.12.12.120", "quadra_cartorio": null, "lote_cartorio": "03", "matricula": "59542", "circunscricao": "1º CIRCUNSCRIÇÃO", "zoneamento": null, "condominio": null, "area_geom": 2157.22, "cnm": "062661.2.0059542-30" }, "geometry": { "type": "Polygon", "coordinates": [ [ [ -54.777792, -22.309382 ], [ -54.77789, -22.309003 ], [ -54.778362, -22.309109 ], [ -54.778264, -22.309488 ], [ -54.777792, -22.309382 ] ] ] } },
{ "type": "Feature", "properties": { "id": 9571, "insc_imob": "01.01.12.12.140", "quadra_cartorio": null, "lote_cartorio": "01", "matricula": "59540", "circunscricao": "1º CIRCUNSCRIÇÃO", "zoneamento": null, "condominio": null, "area_geom": 2148.55, "cnm": "062661.2.0059540-36" }, "geometry": { "type": "Polygon", "coordinates": [ [ [ -54.777419, -22.308898 ], [ -54.777321, -22.309275 ], [ -54.776849, -22.309169 ], [ -54.776947, -22.308792 ], [ -54.777419, -22.308898 ] ] ] } },
{ "type": "Feature", "properties": { "id": 9572, "insc_imob": "01.01.12.12.150", "quadra_cartorio": null, "lote_cartorio": "15", "matricula": "59554", "circunscricao": "1º CIRCUNSCRIÇÃO", "zoneamento": null, "condominio": null, "area_geom": 2147.48, "cnm": "062661.2.0059554-91" }, "geometry": { "type": "Polygon", "coordinates": [ [ [ -54.777321, -22.309275 ], [ -54.777223, -22.309652 ], [ -54.776751, -22.309546 ], [ -54.776849, -22.309169 ], [ -54.777321, -22.309275 ] ] ] } },
{ "type": "Feature", "properties": { "id": 9573, "insc_imob": "01.01.12.12.160", "quadra_cartorio": null, "lote_cartorio": "16", "matricula": "59555", "circunscricao": "1º CIRCUNSCRIÇÃO", "zoneamento": null, "condominio": null, "area_geom": 2146.36, "cnm": "062661.2.0059555-88" }, "geometry": { "type": "Polygon", "coordinates": [ [ [ -54.777223, -22.309652 ], [ -54.777321, -22.309275 ], [ -54.777792, -22.309382 ], [ -54.777694, -22.309758 ], [ -54.777223, -22.309652 ] ] ] } },
{ "type": "Feature", "properties": { "id": 9574, "insc_imob": "01.01.12.12.180", "quadra_cartorio": null, "lote_cartorio": "18", "matricula": "59557", "circunscricao": "1º CIRCUNSCRIÇÃO", "zoneamento": null, "condominio": null, "area_geom": 2146.82, "cnm": "062661.2.0059557-82" }, "geometry": { "type": "Polygon", "coordinates": [ [ [ -54.778735, -22.309594 ], [ -54.778637, -22.309971 ], [ -54.778166, -22.309865 ], [ -54.778264, -22.309488 ], [ -54.778735, -22.309594 ] ] ] } },
{ "type": "Feature", "properties": { "id": 9575, "insc_imob": "01.01.12.12.190", "quadra_cartorio": null, "lote_cartorio": "19", "matricula": "59558", "circunscricao": "1º CIRCUNSCRIÇÃO", "zoneamento": null, "condominio": null, "area_geom": 2147.51, "cnm": "062661.2.0059558-79" }, "geometry": { "type": "Polygon", "coordinates": [ [ [ -54.778637, -22.309971 ], [ -54.778735, -22.309594 ], [ -54.779207, -22.309701 ], [ -54.779109, -22.310077 ], [ -54.778637, -22.309971 ] ] ] } },
{ "type": "Feature", "properties": { "id": 9576, "insc_imob": "01.01.12.12.200", "quadra_cartorio": null, "lote_cartorio": "20", "matricula": "59559", "circunscricao": "1º CIRCUNSCRIÇÃO", "zoneamento": null, "condominio": null, "area_geom": 2147.13, "cnm": "062661.2.0059559-76" }, "geometry": { "type": "Polygon", "coordinates": [ [ [ -54.779109, -22.310077 ], [ -54.779207, -22.309701 ], [ -54.779678, -22.309807 ], [ -54.77958, -22.310184 ], [ -54.779109, -22.310077 ] ] ] } },
{ "type": "Feature", "properties": { "id": 9577, "insc_imob": "01.01.12.12.210", "quadra_cartorio": null, "lote_cartorio": "21", "matricula": "59560", "circunscricao": "1º CIRCUNSCRIÇÃO", "zoneamento": null, "condominio": null, "area_geom": 2148.73, "cnm": "062661.2.0059560-73" }, "geometry": { "type": "Polygon", "coordinates": [ [ [ -54.77958, -22.310184 ], [ -54.779678, -22.309807 ], [ -54.78015, -22.309913 ], [ -54.780051, -22.31029 ], [ -54.77958, -22.310184 ] ] ] } },
{ "type": "Feature", "properties": { "id": 9578, "insc_imob": "01.01.12.12.230", "quadra_cartorio": null, "lote_cartorio": "23", "matricula": "59562", "circunscricao": "1º CIRCUNSCRIÇÃO", "zoneamento": null, "condominio": null, "area_geom": 2147.57, "cnm": "062661.2.0059562-67" }, "geometry": { "type": "Polygon", "coordinates": [ [ [ -54.780523, -22.310397 ], [ -54.780621, -22.31002 ], [ -54.781093, -22.310126 ], [ -54.780994, -22.310503 ], [ -54.780523, -22.310397 ] ] ] } },
{ "type": "Feature", "properties": { "id": 9595, "insc_imob": "01.01.12.12.270", "quadra_cartorio": null, "lote_cartorio": "27", "matricula": "59566", "circunscricao": "1º CIRCUNSCRIÇÃO", "zoneamento": null, "condominio": null, "area_geom": 2149.54, "cnm": "062661.2.0059566-55" }, "geometry": { "type": "Polygon", "coordinates": [ [ [ -54.782979, -22.310551 ], [ -54.78288, -22.310928 ], [ -54.782409, -22.310822 ], [ -54.782507, -22.310445 ], [ -54.782979, -22.310551 ] ] ] } },
{ "type": "Feature", "properties": { "id": 9596, "insc_imob": "01.01.12.12.280", "quadra_cartorio": null, "lote_cartorio": "28", "matricula": "59567", "circunscricao": "1º CIRCUNSCRIÇÃO", "zoneamento": null, "condominio": null, "area_geom": 2150.5, "cnm": "062661.2.0059567-52" }, "geometry": { "type": "Polygon", "coordinates": [ [ [ -54.78288, -22.310928 ], [ -54.782979, -22.310551 ], [ -54.78345, -22.310657 ], [ -54.783352, -22.311034 ], [ -54.78288, -22.310928 ] ] ] } },
{ "type": "Feature", "properties": { "id": 9597, "insc_imob": "01.01.12.13.050", "quadra_cartorio": null, "lote_cartorio": "02", "matricula": "62456", "circunscricao": "1º CIRCUNSCRIÇÃO", "zoneamento": null, "condominio": null, "area_geom": 2147.16, "cnm": "062661.2.0062456-18" }, "geometry": { "type": "Polygon", "coordinates": [ [ [ -54.78435, -22.31087 ], [ -54.784447, -22.310493 ], [ -54.784918, -22.310597 ], [ -54.784822, -22.310975 ], [ -54.78435, -22.31087 ] ] ] } },
{ "type": "Feature", "properties": { "id": 9598, "insc_imob": "01.01.12.13.070", "quadra_cartorio": null, "lote_cartorio": "07", "matricula": "62459", "circunscricao": "1º CIRCUNSCRIÇÃO", "zoneamento": null, "condominio": null, "area_geom": 2147.48, "cnm": "062661.2.0062459-09" }, "geometry": { "type": "Polygon", "coordinates": [ [ [ -54.78435, -22.31087 ], [ -54.784253, -22.311247 ], [ -54.783781, -22.311142 ], [ -54.783878, -22.310765 ], [ -54.78435, -22.31087 ] ] ] } },
{ "type": "Feature", "properties": { "id": 9599, "insc_imob": "01.01.12.13.080", "quadra_cartorio": null, "lote_cartorio": "08", "matricula": "62460", "circunscricao": "1º CIRCUNSCRIÇÃO", "zoneamento": null, "condominio": null, "area_geom": 2147.83, "cnm": "062661.2.0062460-06" }, "geometry": { "type": "Polygon", "coordinates": [ [ [ -54.784253, -22.311247 ], [ -54.78435, -22.31087 ], [ -54.784822, -22.310975 ], [ -54.784725, -22.311352 ], [ -54.784253, -22.311247 ] ] ] } },
{ "type": "Feature", "properties": { "id": 9600, "insc_imob": "01.01.12.13.090", "quadra_cartorio": null, "lote_cartorio": "09", "matricula": "62461", "circunscricao": "1º CIRCUNSCRIÇÃO", "zoneamento": null, "condominio": null, "area_geom": 2147.7, "cnm": "062661.2.0062461-03" }, "geometry": { "type": "Polygon", "coordinates": [ [ [ -54.784725, -22.311352 ], [ -54.784822, -22.310975 ], [ -54.785294, -22.311079 ], [ -54.785197, -22.311457 ], [ -54.784725, -22.311352 ] ] ] } },
{ "type": "Feature", "properties": { "id": 9601, "insc_imob": "01.01.12.13.110", "quadra_cartorio": null, "lote_cartorio": "11", "matricula": "60037", "circunscricao": "1º CIRCUNSCRIÇÃO", "zoneamento": null, "condominio": null, "area_geom": 2148.94, "cnm": "062661.2.0060037-97" }, "geometry": { "type": "Polygon", "coordinates": [ [ [ -54.785669, -22.311562 ], [ -54.785766, -22.311184 ], [ -54.786237, -22.311289 ], [ -54.786141, -22.311666 ], [ -54.785669, -22.311562 ] ] ] } },
{ "type": "Feature", "properties": { "id": 9728, "insc_imob": "01.01.12.02.110", "quadra_cartorio": null, "lote_cartorio": "04", "matricula": "59515", "circunscricao": "1º CIRCUNSCRIÇÃO", "zoneamento": null, "condominio": null, "area_geom": 2160.15, "cnm": "062661.2.0059515-14" }, "geometry": { "type": "Polygon", "coordinates": [ [ [ -54.779103, -22.308191 ], [ -54.779003, -22.30857 ], [ -54.778531, -22.308463 ], [ -54.778631, -22.308084 ], [ -54.779103, -22.308191 ] ] ] } },
{ "type": "Feature", "properties": { "id": 50922, "insc_imob": "01.01.12.13.100", "quadra_cartorio": null, "lote_cartorio": "10", "matricula": "62462", "circunscricao": "1º CIRCUNSCRIÇÃO", "zoneamento": null, "condominio": null, "area_geom": 2148.16, "cnm": "062661.2.0062462-97" }, "geometry": { "type": "Polygon", "coordinates": [ [ [ -54.785197, -22.311457 ], [ -54.785294, -22.311079 ], [ -54.785766, -22.311184 ], [ -54.785669, -22.311562 ], [ -54.785197, -22.311457 ] ] ] } },
{ "type": "Feature", "properties": { "id": 98617, "insc_imob": "01.01.12.13.060", "quadra_cartorio": null, "lote_cartorio": "01", "matricula": "62455", "circunscricao": "1º CIRCUNSCRIÇÃO", "zoneamento": null, "condominio": null, "area_geom": 2147.92, "cnm": "062661.2.0062455-21" }, "geometry": { "type": "Polygon", "coordinates": [ [ [ -54.783878, -22.310765 ], [ -54.783975, -22.310388 ], [ -54.784447, -22.310493 ], [ -54.78435, -22.31087 ], [ -54.783878, -22.310765 ] ] ] } },
{ "type": "Feature", "properties": { "id": 116430, "insc_imob": "01.01.12.02.220", "quadra_cartorio": null, "lote_cartorio": "22", "matricula": "59533", "circunscricao": "1º CIRCUNSCRIÇÃO", "zoneamento": null, "condominio": null, "area_geom": 2149.17, "cnm": "062661.2.0059533-57" }, "geometry": { "type": "Polygon", "coordinates": [ [ [ -54.780316, -22.309271 ], [ -54.780416, -22.308894 ], [ -54.780887, -22.309002 ], [ -54.780787, -22.309379 ], [ -54.780316, -22.309271 ] ] ] } }
]
}
