{
"type": "FeatureCollection",
"name": "lotes_fiscais",
"xy_coordinate_resolution": 1e-006,
"features": [
{ "type": "Feature", "properties": { "id": 96923, "insc_imob": "03.01.23.02.995", "quadra_cartorio": "02", "lote_cartorio": null, "matricula": null, "circunscricao": "2º CIRCUNSCRIÇÃO", "zoneamento": null, "condominio": null, "area_geom": 4598.28, "cnm": null }, "geometry": { "type": "Polygon", "coordinates": [ [ [ -54.989259, -22.167198 ], [ -54.989207, -22.166149 ], [ -54.989632, -22.16623 ], [ -54.989671, -22.167104 ], [ -54.989259, -22.167198 ] ] ] } },
{ "type": "Feature", "properties": { "id": 99857, "insc_imob": "03.01.23.02.992", "quadra_cartorio": "02", "lote_cartorio": null, "matricula": null, "circunscricao": "2º CIRCUNSCRIÇÃO", "zoneamento": null, "condominio": null, "area_geom": 4332.41, "cnm": null }, "geometry": { "type": "Polygon", "coordinates": [ [ [ -54.989671, -22.167104 ], [ -54.989632, -22.16623 ], [ -54.990119, -22.166323 ], [ -54.990166, -22.166991 ], [ -54.989671, -22.167104 ] ] ] } },
{ "type": "Feature", "properties": { "id": 99905, "insc_imob": "03.01.23.05.554", "quadra_cartorio": "05", "lote_cartorio": null, "matricula": null, "circunscricao": "2º CIRCUNSCRIÇÃO", "zoneamento": null, "condominio": null, "area_geom": 595.7, "cnm": null }, "geometry": { "type": "Polygon", "coordinates": [ [ [ -54.978627, -22.163898 ], [ -54.97868, -22.163467 ], [ -54.97882, -22.163495 ], [ -54.978722, -22.163917 ], [ -54.978627, -22.163898 ] ] ] } },
{ "type": "Feature", "properties": { "id": 113486, "insc_imob": "03.01.23.04.260", "quadra_cartorio": "04", "lote_cartorio": null, "matricula": null, "circunscricao": "2º CIRCUNSCRIÇÃO", "zoneamento": null, "condominio": null, "area_geom": 5569.05, "cnm": null }, "geometry": { "type": "Polygon", "coordinates": [ [ [ -54.973306, -22.162155 ], [ -54.973243, -22.161783 ], [ -54.974589, -22.16174 ], [ -54.974591, -22.161839 ], [ -54.973634, -22.162342 ], [ -54.973306, -22.162155 ] ] ] } },
{ "type": "Feature", "properties": { "id": 3156, "insc_imob": "03.01.23.02.272", "quadra_cartorio": null, "lote_cartorio": "07", "matricula": null, "circunscricao": "2º CIRCUNSCRIÇÃO", "zoneamento": null, "condominio": null, "area_geom": 4136.74, "cnm": null }, "geometry": { "type": "Polygon", "coordinates": [ [ [ -54.990681, -22.167022 ], [ -54.990891, -22.166968 ], [ -54.991105, -22.167779 ], [ -54.990682, -22.167877 ], [ -54.990471, -22.167076 ], [ -54.990681, -22.167022 ] ] ] } },
{ "type": "Feature", "properties": { "id": 3157, "insc_imob": "03.01.23.02.317", "quadra_cartorio": null, "lote_cartorio": "06", "matricula": null, "circunscricao": "2º CIRCUNSCRIÇÃO", "zoneamento": null, "condominio": null, "area_geom": 4192.75, "cnm": null }, "geometry": { "type": "Polygon", "coordinates": [ [ [ -54.990891, -22.166968 ], [ -54.991312, -22.166859 ], [ -54.991529, -22.167682 ], [ -54.991105, -22.167779 ], [ -54.990891, -22.166968 ] ] ] } },
{ "type": "Feature", "properties": { "id": 3158, "insc_imob": "03.01.23.02.362", "quadra_cartorio": null, "lote_cartorio": "05", "matricula": null, "circunscricao": "2º CIRCUNSCRIÇÃO", "zoneamento": null, "condominio": null, "area_geom": 4248.81, "cnm": null }, "geometry": { "type": "Polygon", "coordinates": [ [ [ -54.991312, -22.166859 ], [ -54.991733, -22.166751 ], [ -54.991952, -22.167584 ], [ -54.991529, -22.167682 ], [ -54.991312, -22.166859 ] ] ] } },
{ "type": "Feature", "properties": { "id": 51708, "insc_imob": "03.01.23.06.528", "quadra_cartorio": "00", "lote_cartorio": null, "matricula": null, "circunscricao": "2º CIRCUNSCRIÇÃO", "zoneamento": null, "condominio": null, "area_geom": 586.16, "cnm": null }, "geometry": { "type": "Polygon", "coordinates": [ [ [ -54.990413, -22.166211 ], [ -54.990453, -22.165967 ], [ -54.990652, -22.165996 ], [ -54.990616, -22.16625 ], [ -54.990413, -22.166211 ] ] ] } },
{ "type": "Feature", "properties": { "id": 53086, "insc_imob": "03.01.23.05.670", "quadra_cartorio": "05", "lote_cartorio": null, "matricula": null, "circunscricao": "2º CIRCUNSCRIÇÃO", "zoneamento": null, "condominio": null, "area_geom": 562.31, "cnm": null }, "geometry": { "type": "Polygon", "coordinates": [ [ [ -54.979158, -22.164005 ], [ -54.97925, -22.163608 ], [ -54.979369, -22.163632 ], [ -54.979276, -22.164029 ], [ -54.979158, -22.164005 ] ] ] } },
{ "type": "Feature", "properties": { "id": 58757, "insc_imob": "03.01.23.03.124", "quadra_cartorio": "03", "lote_cartorio": null, "matricula": null, "circunscricao": "2º CIRCUNSCRIÇÃO", "zoneamento": null, "condominio": null, "area_geom": 1658.31, "cnm": null }, "geometry": { "type": "Polygon", "coordinates": [ [ [ -54.976539, -22.164022 ], [ -54.976203, -22.164041 ], [ -54.976174, -22.163575 ], [ -54.976525, -22.16364 ], [ -54.976539, -22.164022 ] ] ] } },
{ "type": "Feature", "properties": { "id": 59543, "insc_imob": "03.01.23.02.227", "quadra_cartorio": "02", "lote_cartorio": "08", "matricula": null, "circunscricao": "2º CIRCUNSCRIÇÃO", "zoneamento": null, "condominio": null, "area_geom": 3564.18, "cnm": null }, "geometry": { "type": "Polygon", "coordinates": [ [ [ -54.990178, -22.167151 ], [ -54.990471, -22.167076 ], [ -54.990682, -22.167877 ], [ -54.990237, -22.167979 ], [ -54.990178, -22.167151 ] ] ] } },
{ "type": "Feature", "properties": { "id": 63326, "insc_imob": "03.01.23.05.464", "quadra_cartorio": "05", "lote_cartorio": null, "matricula": null, "circunscricao": "2º CIRCUNSCRIÇÃO", "zoneamento": null, "condominio": null, "area_geom": 1199.64, "cnm": null }, "geometry": { "type": "Polygon", "coordinates": [ [ [ -54.977576, -22.163685 ], [ -54.977658, -22.163333 ], [ -54.977942, -22.16339 ], [ -54.97786, -22.163743 ], [ -54.977576, -22.163685 ] ] ] } },
{ "type": "Feature", "properties": { "id": 72584, "insc_imob": "03.01.23.04.290", "quadra_cartorio": "04", "lote_cartorio": null, "matricula": null, "circunscricao": "2º CIRCUNSCRIÇÃO", "zoneamento": null, "condominio": null, "area_geom": 11658.97, "cnm": null }, "geometry": { "type": "Polygon", "coordinates": [ [ [ -54.974574, -22.163179 ], [ -54.974314, -22.163164 ], [ -54.973981, -22.163214 ], [ -54.973847, -22.163172 ], [ -54.973754, -22.16306 ], [ -54.973672, -22.162932 ], [ -54.973552, -22.162779 ], [ -54.973464, -22.162718 ], [ -54.973335, -22.162396 ], [ -54.973399, -22.162359 ], [ -54.973694, -22.162439 ], [ -54.974662, -22.161916 ], [ -54.974634, -22.162317 ], [ -54.974574, -22.163179 ] ] ] } },
{ "type": "Feature", "properties": { "id": 72585, "insc_imob": "03.01.23.05.454", "quadra_cartorio": "05", "lote_cartorio": null, "matricula": null, "circunscricao": "2º CIRCUNSCRIÇÃO", "zoneamento": null, "condominio": null, "area_geom": 588.93, "cnm": null }, "geometry": { "type": "Polygon", "coordinates": [ [ [ -54.977658, -22.163333 ], [ -54.977698, -22.163159 ], [ -54.977983, -22.163217 ], [ -54.977942, -22.16339 ], [ -54.977658, -22.163333 ] ] ] } },
{ "type": "Feature", "properties": { "id": 74647, "insc_imob": "03.01.23.06.557", "quadra_cartorio": "00", "lote_cartorio": null, "matricula": null, "circunscricao": "2º CIRCUNSCRIÇÃO", "zoneamento": null, "condominio": null, "area_geom": 478.01, "cnm": null }, "geometry": { "type": "Polygon", "coordinates": [ [ [ -54.990754, -22.166276 ], [ -54.990786, -22.166015 ], [ -54.990947, -22.166037 ], [ -54.990903, -22.166304 ], [ -54.990754, -22.166276 ] ] ] } },
{ "type": "Feature", "properties": { "id": 75447, "insc_imob": "03.01.23.04.080", "quadra_cartorio": "04", "lote_cartorio": null, "matricula": null, "circunscricao": "2º CIRCUNSCRIÇÃO", "zoneamento": null, "condominio": null, "area_geom": 12241.13, "cnm": null }, "geometry": { "type": "Polygon", "coordinates": [ [ [ -54.971088, -22.164247 ], [ -54.970443, -22.163078 ], [ -54.970686, -22.162907 ], [ -54.97115, -22.162729 ], [ -54.971794, -22.16399 ], [ -54.971088, -22.164247 ] ] ] } },
{ "type": "Feature", "properties": { "id": 81556, "insc_imob": "03.01.23.06.090", "quadra_cartorio": "00", "lote_cartorio": null, "matricula": null, "circunscricao": "2º CIRCUNSCRIÇÃO", "zoneamento": null, "condominio": null, "area_geom": 6668.18, "cnm": null }, "geometry": { "type": "Polygon", "coordinates": [ [ [ -54.985599, -22.165269 ], [ -54.985941, -22.164501 ], [ -54.986528, -22.164662 ], [ -54.986447, -22.165427 ], [ -54.985599, -22.165269 ] ] ] } },
{ "type": "Feature", "properties": { "id": 84559, "insc_imob": "03.01.23.05.524", "quadra_cartorio": "05", "lote_cartorio": null, "matricula": null, "circunscricao": "2º CIRCUNSCRIÇÃO", "zoneamento": null, "condominio": null, "area_geom": 1282.51, "cnm": null }, "geometry": { "type": "Polygon", "coordinates": [ [ [ -54.978226, -22.163447 ], [ -54.978237, -22.163403 ], [ -54.978493, -22.163455 ], [ -54.978486, -22.1635 ], [ -54.978428, -22.163858 ], [ -54.978144, -22.1638 ], [ -54.978226, -22.163447 ] ] ] } },
{ "type": "Feature", "properties": { "id": 84866, "insc_imob": "03.01.23.04.230", "quadra_cartorio": "04", "lote_cartorio": null, "matricula": null, "circunscricao": "2º CIRCUNSCRIÇÃO", "zoneamento": null, "condominio": null, "area_geom": 6362.93, "cnm": null }, "geometry": { "type": "Polygon", "coordinates": [ [ [ -54.972735, -22.162213 ], [ -54.972962, -22.162128 ], [ -54.973266, -22.162454 ], [ -54.973361, -22.162918 ], [ -54.973334, -22.163426 ], [ -54.973031, -22.163537 ], [ -54.972912, -22.16317 ], [ -54.972924, -22.16307 ], [ -54.972735, -22.162213 ] ] ] } },
{ "type": "Feature", "properties": { "id": 96933, "insc_imob": "03.01.23.03.224", "quadra_cartorio": "03", "lote_cartorio": null, "matricula": null, "circunscricao": "2º CIRCUNSCRIÇÃO", "zoneamento": null, "condominio": null, "area_geom": 29004.25, "cnm": null }, "geometry": { "type": "Polygon", "coordinates": [ [ [ -54.978241, -22.169829 ], [ -54.97757, -22.16977 ], [ -54.977653, -22.168947 ], [ -54.978204, -22.168936 ], [ -54.978187, -22.168222 ], [ -54.979185, -22.168202 ], [ -54.979413, -22.170043 ], [ -54.978249, -22.170091 ], [ -54.978241, -22.169829 ] ] ] } },
{ "type": "Feature", "properties": { "id": 96943, "insc_imob": "03.01.23.05.600", "quadra_cartorio": "05", "lote_cartorio": null, "matricula": null, "circunscricao": "2º CIRCUNSCRIÇÃO", "zoneamento": null, "condominio": null, "area_geom": 1259.5, "cnm": null }, "geometry": { "type": "Polygon", "coordinates": [ [ [ -54.978893, -22.163951 ], [ -54.978985, -22.163554 ], [ -54.97925, -22.163608 ], [ -54.979158, -22.164005 ], [ -54.978893, -22.163951 ] ] ] } },
{ "type": "Feature", "properties": { "id": 97259, "insc_imob": "03.01.23.06.637", "quadra_cartorio": "00", "lote_cartorio": null, "matricula": null, "circunscricao": "2º CIRCUNSCRIÇÃO", "zoneamento": null, "condominio": null, "area_geom": 5057.21, "cnm": null }, "geometry": { "type": "Polygon", "coordinates": [ [ [ -54.991392, -22.166397 ], [ -54.991544, -22.165415 ], [ -54.991933, -22.165467 ], [ -54.991873, -22.166488 ], [ -54.991392, -22.166397 ] ] ] } },
{ "type": "Feature", "properties": { "id": 97260, "insc_imob": "03.01.23.02.900", "quadra_cartorio": "02", "lote_cartorio": null, "matricula": null, "circunscricao": "2º CIRCUNSCRIÇÃO", "zoneamento": null, "condominio": null, "area_geom": 1531.89, "cnm": null }, "geometry": { "type": "Polygon", "coordinates": [ [ [ -54.990681, -22.167022 ], [ -54.990496, -22.1664 ], [ -54.990631, -22.166426 ], [ -54.990755, -22.166449 ], [ -54.990891, -22.166968 ], [ -54.990681, -22.167022 ] ] ] } },
{ "type": "Feature", "properties": { "id": 97261, "insc_imob": "03.01.23.02.923", "quadra_cartorio": "02", "lote_cartorio": null, "matricula": null, "circunscricao": "2º CIRCUNSCRIÇÃO", "zoneamento": null, "condominio": null, "area_geom": 1645.35, "cnm": null }, "geometry": { "type": "Polygon", "coordinates": [ [ [ -54.990471, -22.167076 ], [ -54.990281, -22.166353 ], [ -54.990367, -22.16637 ], [ -54.990468, -22.166394 ], [ -54.990496, -22.1664 ], [ -54.990681, -22.167022 ], [ -54.990471, -22.167076 ] ] ] } },
{ "type": "Feature", "properties": { "id": 97262, "insc_imob": "03.01.23.02.082", "quadra_cartorio": "02", "lote_cartorio": null, "matricula": null, "circunscricao": "2º CIRCUNSCRIÇÃO", "zoneamento": null, "condominio": null, "area_geom": 9623.6, "cnm": null }, "geometry": { "type": "Polygon", "coordinates": [ [ [ -54.988919, -22.168268 ], [ -54.988799, -22.166072 ], [ -54.989207, -22.166149 ], [ -54.989259, -22.167198 ], [ -54.989308, -22.168182 ], [ -54.988919, -22.168268 ] ] ] } },
{ "type": "Feature", "properties": { "id": 97263, "insc_imob": "03.01.23.03.144", "quadra_cartorio": "03", "lote_cartorio": null, "matricula": null, "circunscricao": "2º CIRCUNSCRIÇÃO", "zoneamento": null, "condominio": null, "area_geom": 2326.84, "cnm": null }, "geometry": { "type": "Polygon", "coordinates": [ [ [ -54.971894, -22.16415 ], [ -54.972419, -22.16395 ], [ -54.972561, -22.164292 ], [ -54.972039, -22.16448 ], [ -54.971894, -22.16415 ] ] ] } },
{ "type": "Feature", "properties": { "id": 97264, "insc_imob": "03.01.23.05.544", "quadra_cartorio": "05", "lote_cartorio": null, "matricula": null, "circunscricao": "2º CIRCUNSCRIÇÃO", "zoneamento": null, "condominio": null, "area_geom": 2381.33, "cnm": null }, "geometry": { "type": "Polygon", "coordinates": [ [ [ -54.978493, -22.163455 ], [ -54.978555, -22.163064 ], [ -54.978901, -22.163149 ], [ -54.97882, -22.163495 ], [ -54.97868, -22.163467 ], [ -54.978627, -22.163898 ], [ -54.978428, -22.163858 ], [ -54.978486, -22.1635 ], [ -54.978493, -22.163455 ] ] ] } },
{ "type": "Feature", "properties": { "id": 99858, "insc_imob": "03.01.23.05.414", "quadra_cartorio": "05", "lote_cartorio": null, "matricula": null, "circunscricao": "2º CIRCUNSCRIÇÃO", "zoneamento": null, "condominio": null, "area_geom": 22350.04, "cnm": null }, "geometry": { "type": "Polygon", "coordinates": [ [ [ -54.976763, -22.162046 ], [ -54.977683, -22.162049 ], [ -54.977718, -22.162224 ], [ -54.977698, -22.162309 ], [ -54.976753, -22.162082 ], [ -54.976682, -22.162339 ], [ -54.977641, -22.162554 ], [ -54.977386, -22.163647 ], [ -54.976058, -22.16342 ], [ -54.975939, -22.162439 ], [ -54.976763, -22.162046 ] ] ] } },
{ "type": "Feature", "properties": { "id": 99861, "insc_imob": "03.01.23.01.299", "quadra_cartorio": "00", "lote_cartorio": null, "matricula": null, "circunscricao": "2º CIRCUNSCRIÇÃO", "zoneamento": null, "condominio": null, "area_geom": 3990.83, "cnm": null }, "geometry": { "type": "Polygon", "coordinates": [ [ [ -54.966455, -22.169671 ], [ -54.966415, -22.169662 ], [ -54.966361, -22.16965 ], [ -54.96632, -22.169629 ], [ -54.966293, -22.169607 ], [ -54.96627, -22.169581 ], [ -54.966262, -22.169545 ], [ -54.966258, -22.16952 ], [ -54.966266, -22.169478 ], [ -54.96636, -22.169173 ], [ -54.967197, -22.169446 ], [ -54.967061, -22.169767 ], [ -54.966455, -22.169671 ] ] ] } },
{ "type": "Feature", "properties": { "id": 99997, "insc_imob": "03.01.23.01.149", "quadra_cartorio": "00", "lote_cartorio": null, "matricula": null, "circunscricao": "2º CIRCUNSCRIÇÃO", "zoneamento": null, "condominio": null, "area_geom": 18685.16, "cnm": null }, "geometry": { "type": "Polygon", "coordinates": [ [ [ -54.962584, -22.172657 ], [ -54.963965, -22.172149 ], [ -54.965241, -22.172595 ], [ -54.96471, -22.172983 ], [ -54.964625, -22.173159 ], [ -54.96455, -22.173574 ], [ -54.964239, -22.173113 ], [ -54.964117, -22.17304 ], [ -54.963576, -22.173172 ], [ -54.962584, -22.172657 ] ] ] } },
{ "type": "Feature", "properties": { "id": 100559, "insc_imob": "03.01.23.05.165", "quadra_cartorio": "05", "lote_cartorio": null, "matricula": null, "circunscricao": "2º CIRCUNSCRIÇÃO", "zoneamento": null, "condominio": null, "area_geom": 32936.42, "cnm": null }, "geometry": { "type": "Polygon", "coordinates": [ [ [ -54.975939, -22.162439 ], [ -54.975698, -22.160659 ], [ -54.97666, -22.160766 ], [ -54.977303, -22.160832 ], [ -54.977839, -22.160939 ], [ -54.977994, -22.161593 ], [ -54.978046, -22.16205 ], [ -54.977683, -22.162049 ], [ -54.976763, -22.162046 ], [ -54.975939, -22.162439 ] ] ] } },
{ "type": "Feature", "properties": { "id": 100604, "insc_imob": "03.01.23.04.145", "quadra_cartorio": "04", "lote_cartorio": null, "matricula": null, "circunscricao": "2º CIRCUNSCRIÇÃO", "zoneamento": null, "condominio": null, "area_geom": 379.51, "cnm": null }, "geometry": { "type": "Polygon", "coordinates": [ [ [ -54.972332, -22.163575 ], [ -54.972401, -22.163552 ], [ -54.972489, -22.163522 ], [ -54.972564, -22.163708 ], [ -54.972411, -22.163764 ], [ -54.972332, -22.163575 ] ] ] } },
{ "type": "Feature", "properties": { "id": 100670, "insc_imob": "03.01.23.05.494", "quadra_cartorio": "05", "lote_cartorio": null, "matricula": null, "circunscricao": "2º CIRCUNSCRIÇÃO", "zoneamento": null, "condominio": null, "area_geom": 1199.62, "cnm": null }, "geometry": { "type": "Polygon", "coordinates": [ [ [ -54.97786, -22.163743 ], [ -54.977942, -22.16339 ], [ -54.978226, -22.163447 ], [ -54.978144, -22.1638 ], [ -54.97786, -22.163743 ] ] ] } },
{ "type": "Feature", "properties": { "id": 101631, "insc_imob": "03.01.23.04.130", "quadra_cartorio": "04", "lote_cartorio": null, "matricula": null, "circunscricao": "2º CIRCUNSCRIÇÃO", "zoneamento": null, "condominio": null, "area_geom": 6447.47, "cnm": null }, "geometry": { "type": "Polygon", "coordinates": [ [ [ -54.971921, -22.163943 ], [ -54.971474, -22.163162 ], [ -54.972154, -22.162921 ], [ -54.972401, -22.163552 ], [ -54.972332, -22.163575 ], [ -54.972411, -22.163764 ], [ -54.971921, -22.163943 ] ] ] } },
{ "type": "Feature", "properties": { "id": 103149, "insc_imob": "03.01.23.05.572", "quadra_cartorio": "05", "lote_cartorio": null, "matricula": null, "circunscricao": "2º CIRCUNSCRIÇÃO", "zoneamento": null, "condominio": null, "area_geom": 1565.45, "cnm": null }, "geometry": { "type": "Polygon", "coordinates": [ [ [ -54.97882, -22.163495 ], [ -54.978901, -22.163149 ], [ -54.979071, -22.163184 ], [ -54.978985, -22.163554 ], [ -54.978893, -22.163951 ], [ -54.978722, -22.163917 ], [ -54.97882, -22.163495 ] ] ] } },
{ "type": "Feature", "properties": { "id": 104684, "insc_imob": "03.01.23.03.184", "quadra_cartorio": "03", "lote_cartorio": null, "matricula": null, "circunscricao": "2º CIRCUNSCRIÇÃO", "zoneamento": null, "condominio": null, "area_geom": 889.2, "cnm": null }, "geometry": { "type": "Polygon", "coordinates": [ [ [ -54.966554, -22.171196 ], [ -54.966636, -22.171033 ], [ -54.966986, -22.171294 ], [ -54.966906, -22.171454 ], [ -54.966554, -22.171196 ] ] ] } },
{ "type": "Feature", "properties": { "id": 104685, "insc_imob": "03.01.23.03.194", "quadra_cartorio": "03", "lote_cartorio": null, "matricula": null, "circunscricao": "2º CIRCUNSCRIÇÃO", "zoneamento": null, "condominio": null, "area_geom": 2292.5, "cnm": null }, "geometry": { "type": "Polygon", "coordinates": [ [ [ -54.966355, -22.171592 ], [ -54.966554, -22.171196 ], [ -54.966906, -22.171454 ], [ -54.966685, -22.171893 ], [ -54.966355, -22.171592 ] ] ] } },
{ "type": "Feature", "properties": { "id": 104796, "insc_imob": "03.01.23.03.134", "quadra_cartorio": "03", "lote_cartorio": null, "matricula": null, "circunscricao": "2º CIRCUNSCRIÇÃO", "zoneamento": null, "condominio": null, "area_geom": 6547.66, "cnm": null }, "geometry": { "type": "Polygon", "coordinates": [ [ [ -54.973323, -22.163601 ], [ -54.973382, -22.163575 ], [ -54.973618, -22.163498 ], [ -54.97386, -22.163424 ], [ -54.974207, -22.163349 ], [ -54.974292, -22.164199 ], [ -54.973782, -22.164243 ], [ -54.973323, -22.163601 ] ] ] } },
{ "type": "Feature", "properties": { "id": 105182, "insc_imob": "03.01.23.04.430", "quadra_cartorio": "04", "lote_cartorio": null, "matricula": null, "circunscricao": "2º CIRCUNSCRIÇÃO", "zoneamento": null, "condominio": null, "area_geom": 19716.23, "cnm": null }, "geometry": { "type": "Polygon", "coordinates": [ [ [ -54.974634, -22.162317 ], [ -54.974704, -22.162319 ], [ -54.97474, -22.161743 ], [ -54.975724, -22.161839 ], [ -54.975906, -22.16337 ], [ -54.974574, -22.163179 ], [ -54.974634, -22.162317 ] ] ] } },
{ "type": "Feature", "properties": { "id": 105771, "insc_imob": "03.01.23.03.234", "quadra_cartorio": "03", "lote_cartorio": null, "matricula": null, "circunscricao": "2º CIRCUNSCRIÇÃO", "zoneamento": null, "condominio": null, "area_geom": 1560.02, "cnm": null }, "geometry": { "type": "Polygon", "coordinates": [ [ [ -54.978314, -22.165656 ], [ -54.978856, -22.165629 ], [ -54.978873, -22.16588 ], [ -54.978328, -22.165906 ], [ -54.978314, -22.165656 ] ] ] } },
{ "type": "Feature", "properties": { "id": 110714, "insc_imob": "03.01.23.05.693", "quadra_cartorio": "05", "lote_cartorio": null, "matricula": null, "circunscricao": "2º CIRCUNSCRIÇÃO", "zoneamento": null, "condominio": null, "area_geom": 1056.8, "cnm": null }, "geometry": { "type": "Polygon", "coordinates": [ [ [ -54.979276, -22.164029 ], [ -54.979369, -22.163632 ], [ -54.979591, -22.163677 ], [ -54.979505, -22.164067 ], [ -54.979276, -22.164029 ] ] ] } },
{ "type": "Feature", "properties": { "id": 110715, "insc_imob": "03.01.23.06.470", "quadra_cartorio": "00", "lote_cartorio": null, "matricula": null, "circunscricao": "2º CIRCUNSCRIÇÃO", "zoneamento": null, "condominio": null, "area_geom": 953.39, "cnm": null }, "geometry": { "type": "Polygon", "coordinates": [ [ [ -54.989804, -22.166096 ], [ -54.989831, -22.165782 ], [ -54.990083, -22.165801 ], [ -54.990055, -22.166143 ], [ -54.989804, -22.166096 ] ] ] } },
{ "type": "Feature", "properties": { "id": 110716, "insc_imob": "03.01.23.06.542", "quadra_cartorio": "00", "lote_cartorio": null, "matricula": null, "circunscricao": "2º CIRCUNSCRIÇÃO", "zoneamento": null, "condominio": null, "area_geom": 408.97, "cnm": null }, "geometry": { "type": "Polygon", "coordinates": [ [ [ -54.990616, -22.16625 ], [ -54.990652, -22.165996 ], [ -54.990786, -22.166015 ], [ -54.990754, -22.166276 ], [ -54.990616, -22.16625 ] ] ] } },
{ "type": "Feature", "properties": { "id": 110717, "insc_imob": "03.01.23.06.587", "quadra_cartorio": "00", "lote_cartorio": null, "matricula": null, "circunscricao": "2º CIRCUNSCRIÇÃO", "zoneamento": null, "condominio": null, "area_geom": 1006.34, "cnm": null }, "geometry": { "type": "Polygon", "coordinates": [ [ [ -54.990903, -22.166304 ], [ -54.990947, -22.166037 ], [ -54.991261, -22.166082 ], [ -54.991215, -22.166363 ], [ -54.990903, -22.166304 ] ] ] } },
{ "type": "Feature", "properties": { "id": 110718, "insc_imob": "03.01.23.06.712", "quadra_cartorio": "00", "lote_cartorio": null, "matricula": null, "circunscricao": "2º CIRCUNSCRIÇÃO", "zoneamento": null, "condominio": null, "area_geom": 418.19, "cnm": null }, "geometry": { "type": "Polygon", "coordinates": [ [ [ -54.992414, -22.16659 ], [ -54.992392, -22.166379 ], [ -54.992554, -22.166399 ], [ -54.992595, -22.166625 ], [ -54.992414, -22.16659 ] ] ] } },
{ "type": "Feature", "properties": { "id": 113443, "insc_imob": "03.01.23.02.941", "quadra_cartorio": "02", "lote_cartorio": "09", "matricula": null, "circunscricao": "2º CIRCUNSCRIÇÃO", "zoneamento": null, "condominio": null, "area_geom": 2047.58, "cnm": null }, "geometry": { "type": "Polygon", "coordinates": [ [ [ -54.990166, -22.166991 ], [ -54.990119, -22.166323 ], [ -54.990281, -22.166353 ], [ -54.990471, -22.167076 ], [ -54.990178, -22.167151 ], [ -54.990166, -22.166991 ] ] ] } },
{ "type": "Feature", "properties": { "id": 113462, "insc_imob": "03.01.23.02.997", "quadra_cartorio": "02", "lote_cartorio": null, "matricula": null, "circunscricao": "2º CIRCUNSCRIÇÃO", "zoneamento": null, "condominio": null, "area_geom": 1087.66, "cnm": null }, "geometry": { "type": "Polygon", "coordinates": [ [ [ -54.988189, -22.166182 ], [ -54.988176, -22.165954 ], [ -54.988413, -22.165999 ], [ -54.988435, -22.166408 ], [ -54.988198, -22.166359 ], [ -54.988189, -22.166182 ] ] ] } },
{ "type": "Feature", "properties": { "id": 113463, "insc_imob": "03.01.23.02.999", "quadra_cartorio": "02", "lote_cartorio": null, "matricula": null, "circunscricao": "2º CIRCUNSCRIÇÃO", "zoneamento": null, "condominio": null, "area_geom": 532.89, "cnm": null }, "geometry": { "type": "Polygon", "coordinates": [ [ [ -54.987982, -22.166141 ], [ -54.987969, -22.165913 ], [ -54.988176, -22.165954 ], [ -54.988189, -22.166182 ], [ -54.987982, -22.166141 ] ] ] } },
{ "type": "Feature", "properties": { "id": 113464, "insc_imob": "03.01.23.03.094", "quadra_cartorio": "03", "lote_cartorio": null, "matricula": null, "circunscricao": "2º CIRCUNSCRIÇÃO", "zoneamento": null, "condominio": null, "area_geom": 1660.97, "cnm": null }, "geometry": { "type": "Polygon", "coordinates": [ [ [ -54.977954, -22.164343 ], [ -54.977982, -22.163909 ], [ -54.978267, -22.163961 ], [ -54.978231, -22.164513 ], [ -54.978069, -22.164504 ], [ -54.978072, -22.164349 ], [ -54.977954, -22.164343 ] ] ] } },
{ "type": "Feature", "properties": { "id": 113465, "insc_imob": "03.01.23.03.104", "quadra_cartorio": "03", "lote_cartorio": null, "matricula": null, "circunscricao": "2º CIRCUNSCRIÇÃO", "zoneamento": null, "condominio": null, "area_geom": 11674.07, "cnm": null }, "geometry": { "type": "Polygon", "coordinates": [ [ [ -54.976539, -22.164022 ], [ -54.976525, -22.16364 ], [ -54.977982, -22.163909 ], [ -54.977954, -22.164343 ], [ -54.977943, -22.164524 ], [ -54.976554, -22.16446 ], [ -54.976539, -22.164022 ] ] ] } },
{ "type": "Feature", "properties": { "id": 113466, "insc_imob": "03.01.23.03.164", "quadra_cartorio": "03", "lote_cartorio": null, "matricula": null, "circunscricao": "2º CIRCUNSCRIÇÃO", "zoneamento": null, "condominio": null, "area_geom": 5229.14, "cnm": null }, "geometry": { "type": "Polygon", "coordinates": [ [ [ -54.966748, -22.17079 ], [ -54.967054, -22.170125 ], [ -54.967593, -22.170695 ], [ -54.967196, -22.171192 ], [ -54.967087, -22.171095 ], [ -54.966748, -22.17079 ] ] ] } },
{ "type": "Feature", "properties": { "id": 113467, "insc_imob": "03.01.23.03.174", "quadra_cartorio": "03", "lote_cartorio": null, "matricula": null, "circunscricao": "2º CIRCUNSCRIÇÃO", "zoneamento": null, "condominio": null, "area_geom": 1210.39, "cnm": null }, "geometry": { "type": "Polygon", "coordinates": [ [ [ -54.966636, -22.171033 ], [ -54.966748, -22.17079 ], [ -54.967087, -22.171095 ], [ -54.966986, -22.171294 ], [ -54.966636, -22.171033 ] ] ] } },
{ "type": "Feature", "properties": { "id": 113468, "insc_imob": "03.01.23.03.204", "quadra_cartorio": "03", "lote_cartorio": null, "matricula": null, "circunscricao": "2º CIRCUNSCRIÇÃO", "zoneamento": null, "condominio": null, "area_geom": 1539.61, "cnm": null }, "geometry": { "type": "Polygon", "coordinates": [ [ [ -54.966188, -22.171923 ], [ -54.966355, -22.171592 ], [ -54.966685, -22.171893 ], [ -54.966569, -22.172122 ], [ -54.966188, -22.171923 ] ] ] } },
{ "type": "Feature", "properties": { "id": 113469, "insc_imob": "03.01.23.03.214", "quadra_cartorio": "03", "lote_cartorio": null, "matricula": null, "circunscricao": "2º CIRCUNSCRIÇÃO", "zoneamento": null, "condominio": null, "area_geom": 8020.76, "cnm": null }, "geometry": { "type": "Polygon", "coordinates": [ [ [ -54.965648, -22.173394 ], [ -54.96579, -22.172787 ], [ -54.965969, -22.172288 ], [ -54.966188, -22.171923 ], [ -54.966569, -22.172122 ], [ -54.966518, -22.172296 ], [ -54.966324, -22.172483 ], [ -54.966235, -22.172622 ], [ -54.966471, -22.173192 ], [ -54.965648, -22.173394 ] ] ] } },
{ "type": "Feature", "properties": { "id": 113487, "insc_imob": "03.01.23.05.434", "quadra_cartorio": "05", "lote_cartorio": null, "matricula": null, "circunscricao": "2º CIRCUNSCRIÇÃO", "zoneamento": null, "condominio": null, "area_geom": 2889.97, "cnm": null }, "geometry": { "type": "Polygon", "coordinates": [ [ [ -54.976682, -22.162339 ], [ -54.976753, -22.162082 ], [ -54.977698, -22.162309 ], [ -54.977641, -22.162554 ], [ -54.976682, -22.162339 ] ] ] } },
{ "type": "Feature", "properties": { "id": 113488, "insc_imob": "03.01.23.05.444", "quadra_cartorio": "05", "lote_cartorio": null, "matricula": null, "circunscricao": "2º CIRCUNSCRIÇÃO", "zoneamento": null, "condominio": null, "area_geom": 1373.62, "cnm": null }, "geometry": { "type": "Polygon", "coordinates": [ [ [ -54.977683, -22.162049 ], [ -54.978046, -22.16205 ], [ -54.978146, -22.162064 ], [ -54.97806, -22.162382 ], [ -54.977698, -22.162309 ], [ -54.977718, -22.162224 ], [ -54.977683, -22.162049 ] ] ] } },
{ "type": "Feature", "properties": { "id": 116797, "insc_imob": "03.01.23.03.154", "quadra_cartorio": "03", "lote_cartorio": null, "matricula": null, "circunscricao": "2º CIRCUNSCRIÇÃO", "zoneamento": null, "condominio": null, "area_geom": 3153.61, "cnm": null }, "geometry": { "type": "Polygon", "coordinates": [ [ [ -54.967833, -22.168432 ], [ -54.968149, -22.167745 ], [ -54.968486, -22.167959 ], [ -54.968177, -22.16857 ], [ -54.967833, -22.168432 ] ] ] } },
{ "type": "Feature", "properties": { "id": 1840, "insc_imob": "03.01.23.04.195", "quadra_cartorio": null, "lote_cartorio": null, "matricula": null, "circunscricao": "2º CIRCUNSCRIÇÃO", "zoneamento": null, "condominio": null, "area_geom": 1174.9, "cnm": null }, "geometry": { "type": "Polygon", "coordinates": [ [ [ -54.9728, -22.163622 ], [ -54.972653, -22.163233 ], [ -54.972712, -22.163214 ], [ -54.972912, -22.16317 ], [ -54.973031, -22.163537 ], [ -54.9728, -22.163622 ] ] ] } },
{ "type": "Feature", "properties": { "id": 3133, "insc_imob": "03.01.23.01.099", "quadra_cartorio": null, "lote_cartorio": null, "matricula": null, "circunscricao": "2º CIRCUNSCRIÇÃO", "zoneamento": null, "condominio": null, "area_geom": 6730.82, "cnm": null }, "geometry": { "type": "Polygon", "coordinates": [ [ [ -54.964831, -22.173316 ], [ -54.964809, -22.173147 ], [ -54.964831, -22.173092 ], [ -54.96576, -22.172356 ], [ -54.965801, -22.172356 ], [ -54.965822, -22.17236 ], [ -54.96584, -22.172377 ], [ -54.965853, -22.172402 ], [ -54.965564, -22.173266 ], [ -54.965431, -22.17342 ], [ -54.964988, -22.173517 ], [ -54.964831, -22.173316 ] ] ] } },
{ "type": "Feature", "properties": { "id": 3134, "insc_imob": "03.01.23.01.199", "quadra_cartorio": null, "lote_cartorio": null, "matricula": null, "circunscricao": "2º CIRCUNSCRIÇÃO", "zoneamento": null, "condominio": null, "area_geom": 44047.97, "cnm": null }, "geometry": { "type": "Polygon", "coordinates": [ [ [ -54.962584, -22.172657 ], [ -54.962361, -22.170876 ], [ -54.96454, -22.171347 ], [ -54.966126, -22.171738 ], [ -54.965941, -22.172069 ], [ -54.965241, -22.172595 ], [ -54.963965, -22.172149 ], [ -54.962584, -22.172657 ] ] ] } },
{ "type": "Feature", "properties": { "id": 3155, "insc_imob": "03.01.23.02.180", "quadra_cartorio": null, "lote_cartorio": null, "matricula": null, "circunscricao": "2º CIRCUNSCRIÇÃO", "zoneamento": null, "condominio": null, "area_geom": 10487.39, "cnm": null }, "geometry": { "type": "Polygon", "coordinates": [ [ [ -54.989671, -22.167104 ], [ -54.990166, -22.166991 ], [ -54.990178, -22.167151 ], [ -54.990237, -22.167979 ], [ -54.989308, -22.168182 ], [ -54.989259, -22.167198 ], [ -54.989671, -22.167104 ] ] ] } },
{ "type": "Feature", "properties": { "id": 3159, "insc_imob": "03.01.23.02.407", "quadra_cartorio": null, "lote_cartorio": "04", "matricula": null, "circunscricao": "2º CIRCUNSCRIÇÃO", "zoneamento": null, "condominio": null, "area_geom": 4414.8, "cnm": null }, "geometry": { "type": "Polygon", "coordinates": [ [ [ -54.991733, -22.166751 ], [ -54.991702, -22.166633 ], [ -54.991822, -22.166656 ], [ -54.992081, -22.1667 ], [ -54.992173, -22.166716 ], [ -54.992375, -22.167487 ], [ -54.991952, -22.167584 ], [ -54.991733, -22.166751 ] ] ] } },
{ "type": "Feature", "properties": { "id": 3160, "insc_imob": "03.01.23.02.457", "quadra_cartorio": null, "lote_cartorio": "03", "matricula": null, "circunscricao": "2º CIRCUNSCRIÇÃO", "zoneamento": null, "condominio": null, "area_geom": 3823.94, "cnm": null }, "geometry": { "type": "Polygon", "coordinates": [ [ [ -54.992375, -22.167487 ], [ -54.992173, -22.166716 ], [ -54.992345, -22.166746 ], [ -54.992606, -22.166793 ], [ -54.992697, -22.16681 ], [ -54.992846, -22.167378 ], [ -54.992375, -22.167487 ] ] ] } },
{ "type": "Feature", "properties": { "id": 3179, "insc_imob": "03.01.23.02.480", "quadra_cartorio": null, "lote_cartorio": "02", "matricula": null, "circunscricao": "2º CIRCUNSCRIÇÃO", "zoneamento": null, "condominio": null, "area_geom": 1351.74, "cnm": null }, "geometry": { "type": "Polygon", "coordinates": [ [ [ -54.992846, -22.167378 ], [ -54.992697, -22.16681 ], [ -54.992838, -22.166838 ], [ -54.992936, -22.166855 ], [ -54.99306, -22.167329 ], [ -54.992846, -22.167378 ] ] ] } },
{ "type": "Feature", "properties": { "id": 3180, "insc_imob": "03.01.23.02.644", "quadra_cartorio": null, "lote_cartorio": "01", "matricula": null, "circunscricao": "2º CIRCUNSCRIÇÃO", "zoneamento": null, "condominio": null, "area_geom": 2566.42, "cnm": null }, "geometry": { "type": "Polygon", "coordinates": [ [ [ -54.99306, -22.167329 ], [ -54.992936, -22.166855 ], [ -54.992963, -22.16686 ], [ -54.993641, -22.166988 ], [ -54.993693, -22.167184 ], [ -54.99306, -22.167329 ] ] ] } },
{ "type": "Feature", "properties": { "id": 3181, "insc_imob": "03.01.23.02.873", "quadra_cartorio": null, "lote_cartorio": "12", "matricula": null, "circunscricao": "2º CIRCUNSCRIÇÃO", "zoneamento": null, "condominio": null, "area_geom": 3311.7, "cnm": null }, "geometry": { "type": "Polygon", "coordinates": [ [ [ -54.990891, -22.166968 ], [ -54.990755, -22.166449 ], [ -54.9908, -22.166458 ], [ -54.990974, -22.166487 ], [ -54.991087, -22.166506 ], [ -54.991242, -22.166535 ], [ -54.991359, -22.16656 ], [ -54.99158, -22.166609 ], [ -54.991702, -22.166633 ], [ -54.991733, -22.166751 ], [ -54.991312, -22.166859 ], [ -54.990891, -22.166968 ] ] ] } },
{ "type": "Feature", "properties": { "id": 113485, "insc_imob": "03.01.23.04.170", "quadra_cartorio": "00", "lote_cartorio": null, "matricula": "56829", "circunscricao": "2º CIRCUNSCRIÇÃO", "zoneamento": null, "condominio": null, "area_geom": 9158.36, "cnm": "062661.2.0056829-21" }, "geometry": { "type": "Polygon", "coordinates": [ [ [ -54.972154, -22.162921 ], [ -54.971987, -22.162493 ], [ -54.972735, -22.162213 ], [ -54.972924, -22.16307 ], [ -54.972912, -22.16317 ], [ -54.972712, -22.163214 ], [ -54.972653, -22.163233 ], [ -54.9728, -22.163622 ], [ -54.972564, -22.163708 ], [ -54.972489, -22.163522 ], [ -54.972401, -22.163552 ], [ -54.972154, -22.162921 ] ] ] } },
{ "type": "Feature", "properties": { "id": 3135, "insc_imob": "03.01.23.02.040", "quadra_cartorio": null, "lote_cartorio": null, "matricula": "69130", "circunscricao": "2º CIRCUNSCRIÇÃO", "zoneamento": null, "condominio": null, "area_geom": 9956.12, "cnm": "062661.2.0069130-75" }, "geometry": { "type": "Polygon", "coordinates": [ [ [ -54.988435, -22.166408 ], [ -54.988413, -22.165999 ], [ -54.988799, -22.166072 ], [ -54.988919, -22.168268 ], [ -54.988539, -22.168351 ], [ -54.988435, -22.166408 ] ] ] } }
]
}
