{
"type": "FeatureCollection",
"name": "lotes_fiscais",
"xy_coordinate_resolution": 1e-006,
"features": [
{ "type": "Feature", "properties": { "id": 79810, "insc_imob": "07.02.10.05.120", "quadra_cartorio": "10", "lote_cartorio": "1L", "matricula": "93032", "circunscricao": "1º CIRCUNSCRIÇÃO", "zoneamento": null, "condominio": null, "area_geom": 5460.0, "cnm": "062661.2.0093032-52" }, "geometry": { "type": "Polygon", "coordinates": [ [ [ -54.641722, -22.148906 ], [ -54.640759, -22.14815 ], [ -54.641021, -22.14786 ], [ -54.641985, -22.148616 ], [ -54.641722, -22.148906 ] ] ] } },
{ "type": "Feature", "properties": { "id": 79811, "insc_imob": "07.02.10.05.130", "quadra_cartorio": "10", "lote_cartorio": "1M", "matricula": "93033", "circunscricao": "1º CIRCUNSCRIÇÃO", "zoneamento": null, "condominio": null, "area_geom": 5200.0, "cnm": "062661.2.0093033-49" }, "geometry": { "type": "Polygon", "coordinates": [ [ [ -54.641985, -22.148616 ], [ -54.641021, -22.14786 ], [ -54.641271, -22.147584 ], [ -54.642234, -22.14834 ], [ -54.641985, -22.148616 ] ] ] } },
{ "type": "Feature", "properties": { "id": 76227, "insc_imob": "07.02.10.05.100", "quadra_cartorio": "10", "lote_cartorio": "1J", "matricula": "93030", "circunscricao": "1º CIRCUNSCRIÇÃO", "zoneamento": null, "condominio": null, "area_geom": 5452.64, "cnm": "062661.2.0093030-58" }, "geometry": { "type": "Polygon", "coordinates": [ [ [ -54.641202, -22.149487 ], [ -54.640237, -22.148732 ], [ -54.640498, -22.148441 ], [ -54.641461, -22.149195 ], [ -54.641202, -22.149487 ] ] ] } },
{ "type": "Feature", "properties": { "id": 76228, "insc_imob": "07.02.10.05.110", "quadra_cartorio": "10", "lote_cartorio": "1K", "matricula": "93031", "circunscricao": "1º CIRCUNSCRIÇÃO", "zoneamento": null, "condominio": null, "area_geom": 5448.17, "cnm": "062661.2.0093031-55" }, "geometry": { "type": "Polygon", "coordinates": [ [ [ -54.641461, -22.149195 ], [ -54.640497, -22.14844 ], [ -54.640759, -22.14815 ], [ -54.641722, -22.148906 ], [ -54.641461, -22.149195 ] ] ] } },
{ "type": "Feature", "properties": { "id": 81372, "insc_imob": "07.02.10.05.030", "quadra_cartorio": "10", "lote_cartorio": "1C", "matricula": "93024", "circunscricao": "1º CIRCUNSCRIÇÃO", "zoneamento": null, "condominio": null, "area_geom": 5456.34, "cnm": "062661.2.0093024-76" }, "geometry": { "type": "Polygon", "coordinates": [ [ [ -54.639636, -22.151233 ], [ -54.639375, -22.151524 ], [ -54.638411, -22.150769 ], [ -54.638672, -22.150478 ], [ -54.639636, -22.151233 ] ] ] } },
{ "type": "Feature", "properties": { "id": 81373, "insc_imob": "07.02.10.05.040", "quadra_cartorio": "10", "lote_cartorio": "1D", "matricula": "93034", "circunscricao": "1º CIRCUNSCRIÇÃO", "zoneamento": null, "condominio": null, "area_geom": 5456.34, "cnm": "062661.2.0093034-46" }, "geometry": { "type": "Polygon", "coordinates": [ [ [ -54.639897, -22.150942 ], [ -54.639636, -22.151233 ], [ -54.638672, -22.150478 ], [ -54.638933, -22.150187 ], [ -54.639897, -22.150942 ] ] ] } },
{ "type": "Feature", "properties": { "id": 81374, "insc_imob": "07.02.10.05.050", "quadra_cartorio": "10", "lote_cartorio": "1E", "matricula": "93025", "circunscricao": "1º CIRCUNSCRIÇÃO", "zoneamento": null, "condominio": null, "area_geom": 5456.34, "cnm": "062661.2.0093025-73" }, "geometry": { "type": "Polygon", "coordinates": [ [ [ -54.640158, -22.150651 ], [ -54.639897, -22.150942 ], [ -54.638933, -22.150187 ], [ -54.639194, -22.149896 ], [ -54.640158, -22.150651 ] ] ] } },
{ "type": "Feature", "properties": { "id": 81375, "insc_imob": "07.02.10.05.060", "quadra_cartorio": "10", "lote_cartorio": "1F", "matricula": "93026", "circunscricao": "1º CIRCUNSCRIÇÃO", "zoneamento": null, "condominio": null, "area_geom": 5456.35, "cnm": "062661.2.0093026-70" }, "geometry": { "type": "Polygon", "coordinates": [ [ [ -54.640419, -22.15036 ], [ -54.640158, -22.150651 ], [ -54.639194, -22.149896 ], [ -54.639454, -22.149605 ], [ -54.640419, -22.15036 ] ] ] } },
{ "type": "Feature", "properties": { "id": 81376, "insc_imob": "07.02.10.05.070", "quadra_cartorio": "10", "lote_cartorio": "1G", "matricula": "93027", "circunscricao": "1º CIRCUNSCRIÇÃO", "zoneamento": null, "condominio": null, "area_geom": 5456.35, "cnm": "062661.2.0093027-67" }, "geometry": { "type": "Polygon", "coordinates": [ [ [ -54.64068, -22.150069 ], [ -54.640419, -22.15036 ], [ -54.639454, -22.149605 ], [ -54.639715, -22.149314 ], [ -54.64068, -22.150069 ] ] ] } },
{ "type": "Feature", "properties": { "id": 81377, "insc_imob": "07.02.10.05.080", "quadra_cartorio": "10", "lote_cartorio": "1H", "matricula": "93028", "circunscricao": "1º CIRCUNSCRIÇÃO", "zoneamento": null, "condominio": null, "area_geom": 5456.35, "cnm": "062661.2.0093028-64" }, "geometry": { "type": "Polygon", "coordinates": [ [ [ -54.640941, -22.149778 ], [ -54.64068, -22.150069 ], [ -54.639715, -22.149314 ], [ -54.639976, -22.149023 ], [ -54.640941, -22.149778 ] ] ] } },
{ "type": "Feature", "properties": { "id": 81378, "insc_imob": "07.02.10.05.090", "quadra_cartorio": "10", "lote_cartorio": "1I", "matricula": "93029", "circunscricao": "1º CIRCUNSCRIÇÃO", "zoneamento": null, "condominio": null, "area_geom": 5459.2, "cnm": "062661.2.0093029-61" }, "geometry": { "type": "Polygon", "coordinates": [ [ [ -54.641202, -22.149487 ], [ -54.640941, -22.149778 ], [ -54.639975, -22.149022 ], [ -54.640237, -22.148732 ], [ -54.641202, -22.149487 ] ] ] } },
{ "type": "Feature", "properties": { "id": 81902, "insc_imob": "07.02.10.05.011", "quadra_cartorio": "10", "lote_cartorio": "1A", "matricula": "155554", "circunscricao": "1º CIRCUNSCRIÇÃO", "zoneamento": null, "condominio": null, "area_geom": 18187.81, "cnm": "062661.2.0155554-84" }, "geometry": { "type": "Polygon", "coordinates": [ [ [ -54.639375, -22.151524 ], [ -54.638506, -22.152495 ], [ -54.637541, -22.15174 ], [ -54.638411, -22.150769 ], [ -54.639375, -22.151524 ] ] ] } }
]
}
