{
"type": "FeatureCollection",
"name": "lotes_fiscais",
"xy_coordinate_resolution": 1e-006,
"features": [
{ "type": "Feature", "properties": { "id": 124678, "insc_imob": "99.99.99.99.999", "quadra_cartorio": null, "lote_cartorio": null, "matricula": null, "circunscricao": null, "zoneamento": null, "condominio": null, "area_geom": 35582.56, "cnm": null }, "geometry": { "type": "Polygon", "coordinates": [ [ [ -54.913748, -22.193526 ], [ -54.913803, -22.193519 ], [ -54.918069, -22.201373 ], [ -54.918067, -22.201431 ], [ -54.916181, -22.201775 ], [ -54.916164, -22.20206 ], [ -54.91568, -22.202163 ], [ -54.915451, -22.202216 ], [ -54.914796, -22.202484 ], [ -54.913856, -22.20267 ], [ -54.913846, -22.202614 ], [ -54.914785, -22.202428 ], [ -54.914333, -22.200023 ], [ -54.915333, -22.199889 ], [ -54.915483, -22.200969 ], [ -54.915647, -22.202119 ], [ -54.916114, -22.202011 ], [ -54.916132, -22.201731 ], [ -54.918009, -22.201386 ], [ -54.917598, -22.200695 ], [ -54.913748, -22.193526 ] ] ] } },
{ "type": "Feature", "properties": { "id": 105454, "insc_imob": "99.99.99.99.999", "quadra_cartorio": null, "lote_cartorio": null, "matricula": "8925/63147", "circunscricao": "1º CIRCUNSCRIÇÃO", "zoneamento": null, "condominio": null, "area_geom": 506665.8, "cnm": "062661.2.8925631-36" }, "geometry": { "type": "Polygon", "coordinates": [ [ [ -54.692791, -22.174512 ], [ -54.690636, -22.183775 ], [ -54.688725, -22.191333 ], [ -54.688575, -22.191463 ], [ -54.688284, -22.191244 ], [ -54.688256, -22.180676 ], [ -54.688229, -22.173808 ], [ -54.692791, -22.174512 ] ] ] } }
]
}
